State,Zip,County,Primary City,MFG Rep,fips_code
AK,99553,Aleutians East Borough,Akutan,,02013
AK,99546,Aleutians West Census Area,Adak,,02016
AK,99501,Anchorage Municipality,Anchorage,,02020
AK,99545,Bethel Census Area,Kongiganak,,02050
AK,99613,Bristol Bay Borough,King Salmon,,02060
AK,99574,Chugach Census Area,Cordova,,02063
AK,99802,City and Borough of Juneau,Juneau,,02110
AK,99566,Copper River Census Area,Chitina,,02066
AK,99704,Denali Borough,Clear,,02068
AK,99555,Dillingham Census Area,Aleknagik,,02070
AK,99701,Fairbanks North Star Borough,Fairbanks,,02090
AK,99827,Haines Borough,Haines,,02100
AK,99820,Hoonah-Angoon Census Area,Angoon,,02105
AK,99801,Juneau City and Borough,Juneau,,02110
AK,99556,Kenai Peninsula Borough,Anchor Point,,02122
AK,99901,Ketchikan Gateway Borough,Ketchikan,,02130
AK,99550,Kodiak Island Borough,Port Lions,,02150
AK,99554,Kusilvak Census Area,Alakanuk,,02158
AK,99548,Lake and Peninsula Borough,Chignik Lake,,02164
AK,99623,Matanuska-Susitna Borough,Wasilla,,02170
AK,99509,Municipality of Anchorage,Anchorage,,02020
AK,99659,Nome Census Area,Saint Michael,,02180
AK,99510,North Slope Borough,Anchorage,,02185
AK,99727,Northwest Arctic Borough,Buckland,,02188
AK,99833,Petersburg Borough,Petersburg,,02195
AK,99830,Prince of Wales-Hyder Census Area,Kake,,02198
AK,99950,Prince of Wales-Outer Ketchikan Borough,Ketchikan,,02198
AK,99835,Sitka City and Borough,Sitka,,02220
AK,99840,Skagway Municipality,Skagway,,02230
AK,99706,Southeast Fairbanks Census Area,Fairbanks,,02240
AK,99903,Wrangell City and Borough,Meyers Chuck,,02275
AK,99689,Yakutat City and Borough,Yakutat,,02282
AK,99558,Yukon-Koyukuk Census Area,Anvik,,02290
AL,36003,Autauga County,Autaugaville,Open Air Products,01001
AL,36507,Baldwin County,Bay Minette,Open Air Products,01003
AL,36016,Barbour County,Clayton,Open Air Products,01005
AL,35034,Bibb County,Brent,Open Air Products,01007
AL,35013,Blount County,Allgood,Open Air Products,01009
AL,36029,Bullock County,Fitzpatrick,Open Air Products,01011
AL,36015,Butler County,Chapman,Open Air Products,01013
AL,36201,Calhoun County,Anniston,Open Air Products,01015
AL,36854,Chambers County,Valley,Open Air Products,01017
AL,35959,Cherokee County,Cedar Bluff,Open Air Products,01019
AL,35045,Chilton County,Clanton,Open Air Products,01021
AL,36904,Choctaw County,Butler,Open Air Products,01023
AL,36436,Clarke County,Dickinson,Open Air Products,01025
AL,35082,Clay County,Hollins,Open Air Products,01027
AL,36261,Cleburne County,Edwardsville,Open Air Products,01029
AL,36323,Coffee County,Elba,Open Air Products,01031
AL,35616,Colbert County,Cherokee,Open Air Products,01033
AL,36401,Conecuh County,Evergreen,Open Air Products,01035
AL,35072,Coosa County,Goodwater,Open Air Products,01037
AL,36028,Covington County,Dozier,Open Air Products,01039
AL,36009,Crenshaw County,Brantley,Open Air Products,01041
AL,35019,Cullman County,Baileyton,Open Air Products,01043
AL,36311,Dale County,Ariton,Open Air Products,01045
AL,36701,Dallas County,Selma,Open Air Products,01047
AL,35961,DeKalb County,Collinsville,Open Air Products,01049
AL,36020,Elmore County,Coosada,Open Air Products,01051
AL,36426,Escambia County,Brewton,Open Air Products,01053
AL,35901,Etowah County,Gadsden,Open Air Products,01055
AL,35542,Fayette County,Bankston,Open Air Products,01057
AL,35571,Franklin County,Hodges,Open Air Products,01059
AL,36313,Geneva County,Bellwood,Open Air Products,01061
AL,35443,Greene County,Boligee,Open Air Products,01063
AL,35441,Hale County,Akron,Open Air Products,01065
AL,36310,Henry County,Abbeville,Open Air Products,01067
AL,36301,Houston County,Dothan,Open Air Products,01069
AL,35740,Jackson County,Bridgeport,Open Air Products,01071
AL,35005,Jefferson County,Adamsville,Open Air Products,01073
AL,35544,Lamar County,Beaverton,Open Air Products,01075
AL,35610,Lauderdale County,Anderson,Open Air Products,01077
AL,35618,Lawrence County,Courtland,Open Air Products,01079
AL,36801,Lee County,Opelika,Open Air Products,01081
AL,35611,Limestone County,Athens,Open Air Products,01083
AL,36032,Lowndes County,Fort Deposit,Open Air Products,01085
AL,36031,Macon County,Fort Davis,Open Air Products,01087
AL,35741,Madison County,Brownsboro,Open Air Products,01089
AL,36732,Marengo County,Demopolis,Open Air Products,01091
AL,35543,Marion County,Bear Creek,Open Air Products,01093
AL,35016,Marshall County,Arab,Open Air Products,01095
AL,36505,Mobile County,Axis,Open Air Products,01097
AL,36425,Monroe County,Beatrice,Open Air Products,01099
AL,36013,Montgomery County,Cecil,Open Air Products,01101
AL,35601,Morgan County,Decatur,Open Air Products,01103
AL,36756,Perry County,Marion,Open Air Products,01105
AL,35442,Pickens County,Aliceville,Open Air Products,01107
AL,36005,Pike County,Banks,Open Air Products,01109
AL,36263,Randolph County,Graham,Open Air Products,01111
AL,36851,Russell County,Cottonton,Open Air Products,01113
AL,35007,Shelby County,Alabaster,Open Air Products,01117
AL,35182,Saint Clair County,Wattsville,Open Air Products,01117
AL,35004,St. Clair County,Moody,Open Air Products,01115
AL,35459,Sumter County,Emelle,Open Air Products,01119
AL,35014,Talladega County,Alpine,Open Air Products,01121
AL,35010,Tallapoosa County,Alexander City,Open Air Products,01123
AL,35111,Tuscaloosa County,Mc Calla,Open Air Products,01125
AL,35038,Walker County,Burnwell,Open Air Products,01127
AL,36513,Washington County,Calvert,Open Air Products,01129
AL,36435,Wilcox County,Coy,Open Air Products,01131
AL,35540,Winston County,Addison,Open Air Products,01133
AR,72003,Arkansas County,Almyra,GIE LTD.,05001
AR,71635,Ashley County,Crossett,GIE LTD.,05003
AR,72531,Baxter County,Elizabeth,GIE LTD.,05005
AR,72711,Benton County,Avoca,GIE LTD.,05007
AR,72601,Boone County,Harrison,GIE LTD.,05009
AR,71631,Bradley County,Banks,GIE LTD.,05011
AR,71711,Calhoun County,Camden,GIE LTD.,05013
AR,72611,Carroll County,Alpena,GIE LTD.,05015
AR,71638,Chicot County,Dermott,GIE LTD.,05017
AR,71721,Clark County,Beirne,GIE LTD.,05019
AR,72422,Clay County,Corning,GIE LTD.,05021
AR,72044,Cleburne County,Edgemont,GIE LTD.,05023
AR,71652,Cleveland County,Kingsland,GIE LTD.,05025
AR,71740,Columbia County,Emerson,GIE LTD.,05027
AR,72027,Conway County,Center Ridge,GIE LTD.,05029
AR,72401,Craighead County,Jonesboro,GIE LTD.,05031
AR,72921,Crawford County,Alma,GIE LTD.,05033
AR,72301,Crittenden County,West Memphis,GIE LTD.,05035
AR,72324,Cross County,Cherry Valley,GIE LTD.,05037
AR,71725,Dallas County,Carthage,GIE LTD.,05039
AR,71630,Desha County,Arkansas City,GIE LTD.,05041
AR,71655,Drew County,Monticello,GIE LTD.,05043
AR,72032,Faulkner County,Conway,GIE LTD.,05045
AR,72820,Franklin County,Alix,GIE LTD.,05047
AR,72515,Fulton County,Bexar,GIE LTD.,05049
AR,71901,Garland County,Hot Springs National Park,GIE LTD.,05051
AR,72057,Grant County,Grapevine,GIE LTD.,05053
AR,72412,Greene County,Beech Grove,GIE LTD.,05055
AR,71801,Hempstead County,Hope,GIE LTD.,05057
AR,71929,Hot Spring County,Bismarck,GIE LTD.,05059
AR,71831,Howard County,Columbus,GIE LTD.,05061
AR,72165,Independence County,Thida,GIE LTD.,05063
AR,72512,Izard County,Horseshoe Bend,GIE LTD.,05065
AR,72005,Jackson County,Amagon,GIE LTD.,05067
AR,71601,Jefferson County,Pine Bluff,GIE LTD.,05069
AR,72830,Johnson County,Clarksville,GIE LTD.,05071
AR,71826,Lafayette County,Bradley,GIE LTD.,05073
AR,72410,Lawrence County,Alicia,GIE LTD.,05075
AR,72311,Lee County,Aubrey,GIE LTD.,05077
AR,71643,Lincoln County,Gould,GIE LTD.,05079
AR,71820,Little River County,Alleene,GIE LTD.,05081
AR,72826,Logan County,Blue Mountain,GIE LTD.,05083
AR,72007,Lonoke County,Austin,GIE LTD.,05085
AR,72721,Madison County,Combs,GIE LTD.,05087
AR,72619,Marion County,Bull Shoals,GIE LTD.,05089
AR,71834,Miller County,Doddridge,GIE LTD.,05091
AR,72310,Mississippi County,Armorel,GIE LTD.,05093
AR,72021,Monroe County,Brinkley,GIE LTD.,05095
AR,71935,Montgomery County,Caddo Gap,GIE LTD.,05097
AR,71722,Nevada County,Bluff City,GIE LTD.,05099
AR,72624,Newton County,Compton,GIE LTD.,05101
AR,71701,Ouachita County,Camden,GIE LTD.,05103
AR,72001,Perry County,Adona,GIE LTD.,05105
AR,72312,Phillips County,Barton,GIE LTD.,05107
AR,71922,Pike County,Antoine,GIE LTD.,05109
AR,72354,Poinsett County,Lepanto,GIE LTD.,05111
AR,71932,Polk County,Board Camp,GIE LTD.,05113
AR,72801,Pope County,Russellville,GIE LTD.,05115
AR,72017,Prairie County,Biscoe,GIE LTD.,05117
AR,72053,Pulaski County,College Station,GIE LTD.,05119
AR,72413,Randolph County,Biggers,GIE LTD.,05121
AR,71910,Saline County,Hot Springs Village,GIE LTD.,05125
AR,72841,Scott County,Harvey,GIE LTD.,05127
AR,72636,Searcy County,Gilbert,GIE LTD.,05129
AR,72901,Sebastian County,Fort Smith,GIE LTD.,05131
AR,71823,Sevier County,Ben Lomond,GIE LTD.,05133
AR,72482,Sharp County,Williford,GIE LTD.,05135
AR,72322,Saint Francis County,Caldwell,GIE LTD.,05123
AR,72051,Stone County,Fox,GIE LTD.,05137
AR,71724,Union County,Calion,GIE LTD.,05139
AR,72013,Van Buren County,Bee Branch,GIE LTD.,05141
AR,72701,Washington County,Fayetteville,GIE LTD.,05143
AR,72010,White County,Bald Knob,GIE LTD.,05145
AR,72006,Woodruff County,Augusta,GIE LTD.,05147
AR,72824,Yell County,Belleville,GIE LTD.,05149
AR,72255,,Little Rock,GIE LTD.,05119
AS,96799,,Pago Pago,,
AZ,85920,Apache County,Alpine,Roof Source Inc,04001
AZ,85602,Cochise County,Benson,Roof Source Inc,04003
AZ,85931,Coconino County,Forest Lakes,Roof Source Inc,04005
AZ,85135,Gila County,Hayden,Roof Source Inc,04007
AZ,85530,Graham County,Bylas,Roof Source Inc,04009
AZ,85533,Greenlee County,Clifton,Roof Source Inc,04011
AZ,85325,La Paz County,Bouse,Roof Source Inc,04012
AZ,85001,Maricopa County,Phoenix,Roof Source Inc,04013
AZ,85360,Mohave County,Wikieup,Roof Source Inc,04015
AZ,85901,Navajo County,Show Low,Roof Source Inc,04017
AZ,85321,Pima County,Ajo,Roof Source Inc,04019
AZ,85117,Pinal County,Apache Junction,Roof Source Inc,04021
AZ,85611,Santa Cruz County,Elgin,Roof Source Inc,04023
AZ,85324,Yavapai County,Black Canyon City,Roof Source Inc,04025
AZ,85333,Yuma County,Dateland,Roof Source Inc,04027
CA,94501,Alameda County,Alameda,Roof Source Inc,06001
CA,95646,Alpine County,Kirkwood,Roof Source Inc,06003
CA,95601,Amador County,Amador City,Roof Source Inc,06005
CA,95914,Butte County,Bangor,Roof Source Inc,06007
CA,95221,Calaveras County,Altaville,Roof Source Inc,06009
CA,95912,Colusa County,Arbuckle,Roof Source Inc,06011
CA,94505,Contra Costa County,Discovery Bay,Roof Source Inc,06013
CA,95531,Del Norte County,Crescent City,Roof Source Inc,06015
CA,95613,El Dorado County,Coloma,Roof Source Inc,06017
CA,93210,Fresno County,Coalinga,Roof Source Inc,06019
CA,95913,Glenn County,Artois,Roof Source Inc,06021
CA,95501,Humboldt County,Eureka,Roof Source Inc,06023
CA,92222,Imperial County,Bard,Roof Source Inc,06025
CA,92328,Inyo County,Death Valley,Roof Source Inc,06027
CA,93203,Kern County,Arvin,Roof Source Inc,06029
CA,93202,Kings County,Armona,Roof Source Inc,06031
CA,95422,Lake County,Clearlake,Roof Source Inc,06033
CA,96009,Lassen County,Bieber,Roof Source Inc,06035
CA,90001,Los Angeles County,Los Angeles,Roof Source Inc,06037
CA,93601,Madera County,Ahwahnee,Roof Source Inc,06039
CA,94901,Marin County,San Rafael,Roof Source Inc,06041
CA,93623,Mariposa County,Fish Camp,Roof Source Inc,06043
CA,95410,Mendocino County,Albion,Roof Source Inc,06045
CA,93620,Merced County,Dos Palos,Roof Source Inc,06047
CA,96006,Modoc County,Adin,Roof Source Inc,06049
CA,93512,Mono County,Benton,Roof Source Inc,06051
CA,93426,Monterey County,Bradley,Roof Source Inc,06053
CA,94503,Napa County,American Canyon,Roof Source Inc,06055
CA,95712,Nevada County,Chicago Park,Roof Source Inc,06057
CA,90620,Orange County,Buena Park,Roof Source Inc,06059
CA,95602,Placer County,Auburn,Roof Source Inc,06061
CA,95915,Plumas County,Belden,Roof Source Inc,06063
CA,91752,Riverside County,Mira Loma,Roof Source Inc,06065
CA,94203,Sacramento County,Sacramento,Roof Source Inc,06067
CA,95023,San Benito County,Hollister,Roof Source Inc,06069
CA,91701,San Bernardino County,Rancho Cucamonga,Roof Source Inc,06071
CA,91901,San Diego County,Alpine,Roof Source Inc,06073
CA,94101,San Francisco County,San Francisco,Roof Source Inc,06075
CA,95201,San Joaquin County,Stockton,Roof Source Inc,06077
CA,93401,San Luis Obispo County,San Luis Obispo,Roof Source Inc,06079
CA,94002,San Mateo County,Belmont,Roof Source Inc,06081
CA,93013,Santa Barbara County,Carpinteria,Roof Source Inc,06083
CA,94022,Santa Clara County,Los Altos,Roof Source Inc,06085
CA,95001,Santa Cruz County,Aptos,Roof Source Inc,06087
CA,96001,Shasta County,Redding,Roof Source Inc,06089
CA,95910,Sierra County,Alleghany,Roof Source Inc,06091
CA,95568,Siskiyou County,Somes Bar,Roof Source Inc,06093
CA,94510,Solano County,Benicia,Roof Source Inc,06095
CA,94922,Sonoma County,Bodega,Roof Source Inc,06097
CA,95307,Stanislaus County,Ceres,Roof Source Inc,06099
CA,95659,Sutter County,Nicolaus,Roof Source Inc,06101
CA,96021,Tehama County,Corning,Roof Source Inc,06103
CA,95527,Trinity County,Burnt Ranch,Roof Source Inc,06105
CA,93201,Tulare County,Alpaugh,Roof Source Inc,06107
CA,95305,Tuolumne County,Big Oak Flat,Roof Source Inc,06109
CA,91319,Ventura County,Newbury Park,Roof Source Inc,06111
CA,95605,Yolo County,West Sacramento,Roof Source Inc,06113
CA,95692,Yuba County,Wheatland,Roof Source Inc,06115
CO,80019,Adams County,Aurora,Palmer Marketing Inc,08001
CO,81101,Alamosa County,Alamosa,Palmer Marketing Inc,08003
CO,80010,Arapahoe County,Aurora,Palmer Marketing Inc,08005
CO,81121,Archuleta County,Arboles,Palmer Marketing Inc,08007
CO,81029,Baca County,Campo,Palmer Marketing Inc,08009
CO,81038,Bent County,Fort Lyon,Palmer Marketing Inc,08011
CO,80025,Boulder County,Eldorado Springs,Palmer Marketing Inc,08013
CO,80020,Broomfield County,Broomfield,Palmer Marketing Inc,08014
CO,81201,Chaffee County,Salida,Palmer Marketing Inc,08015
CO,80802,Cheyenne County,Arapahoe,Palmer Marketing Inc,08017
CO,80436,Clear Creek County,Dumont,Palmer Marketing Inc,08019
CO,81120,Conejos County,Antonito,Palmer Marketing Inc,08021
CO,81123,Costilla County,Blanca,Palmer Marketing Inc,08023
CO,81033,Crowley County,Crowley,Palmer Marketing Inc,08025
CO,81252,Custer County,Westcliffe,Palmer Marketing Inc,08027
CO,81410,Delta County,Austin,Palmer Marketing Inc,08029
CO,80201,Denver County,Denver,Palmer Marketing Inc,08031
CO,81320,Dolores County,Cahone,Palmer Marketing Inc,08033
CO,80104,Douglas County,Castle Rock,Palmer Marketing Inc,08035
CO,80423,Eagle County,Bond,Palmer Marketing Inc,08037
CO,80106,El Paso County,Elbert,Palmer Marketing Inc,08041
CO,80101,Elbert County,Agate,Palmer Marketing Inc,08039
CO,81212,Fremont County,Canon City,Palmer Marketing Inc,08043
CO,81601,Garfield County,Glenwood Springs,Palmer Marketing Inc,08045
CO,80422,Gilpin County,Black Hawk,Palmer Marketing Inc,08047
CO,80442,Grand County,Fraser,Palmer Marketing Inc,08049
CO,81210,Gunnison County,Almont,Palmer Marketing Inc,08051
CO,81235,Hinsdale County,Lake City,Palmer Marketing Inc,08053
CO,81040,Huerfano County,Gardner,Palmer Marketing Inc,08055
CO,80430,Jackson County,Coalmont,Palmer Marketing Inc,08057
CO,80001,Jefferson County,Arvada,Palmer Marketing Inc,08059
CO,81021,Kiowa County,Arlington,Palmer Marketing Inc,08061
CO,80805,Kit Carson County,Bethune,Palmer Marketing Inc,08063
CO,81122,La Plata County,Bayfield,Palmer Marketing Inc,08067
CO,80429,Lake County,Climax,Palmer Marketing Inc,08065
CO,80511,Larimer County,Estes Park,Palmer Marketing Inc,08069
CO,81020,Las Animas County,Aguilar,Palmer Marketing Inc,08071
CO,80804,Lincoln County,Arriba,Palmer Marketing Inc,08073
CO,80722,Logan County,Atwood,Palmer Marketing Inc,08075
CO,81501,Mesa County,Grand Junction,Palmer Marketing Inc,08077
CO,81130,Mineral County,Creede,Palmer Marketing Inc,08079
CO,81610,Moffat County,Dinosaur,Palmer Marketing Inc,08081
CO,81321,Montezuma County,Cortez,Palmer Marketing Inc,08083
CO,81401,Montrose County,Montrose,Palmer Marketing Inc,08085
CO,80649,Morgan County,Orchard,Palmer Marketing Inc,08087
CO,81030,Otero County,Cheraw,Palmer Marketing Inc,08089
CO,81427,Ouray County,Ouray,Palmer Marketing Inc,08091
CO,80420,Park County,Alma,Palmer Marketing Inc,08093
CO,80721,Phillips County,Amherst,Palmer Marketing Inc,08095
CO,81611,Pitkin County,Aspen,Palmer Marketing Inc,08097
CO,81041,Prowers County,Granada,Palmer Marketing Inc,08099
CO,81001,Pueblo County,Pueblo,Palmer Marketing Inc,08101
CO,81641,Rio Blanco County,Meeker,Palmer Marketing Inc,08103
CO,81132,Rio Grande County,Del Norte,Palmer Marketing Inc,08105
CO,80428,Routt County,Clark,Palmer Marketing Inc,08107
CO,81125,Saguache County,Center,Palmer Marketing Inc,08109
CO,81433,San Juan County,Silverton,Palmer Marketing Inc,08111
CO,81325,San Miguel County,Egnar,Palmer Marketing Inc,08113
CO,80737,Sedgwick County,Julesburg,Palmer Marketing Inc,08115
CO,80424,Summit County,Breckenridge,Palmer Marketing Inc,08117
CO,80813,Teller County,Cripple Creek,Palmer Marketing Inc,08119
CO,80720,Washington County,Akron,Palmer Marketing Inc,08121
CO,80514,Weld County,Dacono,Palmer Marketing Inc,08123
CO,80727,Yuma County,Eckley,Palmer Marketing Inc,08125
CO,81075,,Stonington,Palmer Marketing Inc,08009
CT,06404,Fairfield County,Botsford,Northeast Envelope Solutions,09001
CT,06001,Hartford County,Avon,Northeast Envelope Solutions,09003
CT,06018,Litchfield County,Canaan,Northeast Envelope Solutions,09005
CT,06409,Middlesex County,Centerbrook,Northeast Envelope Solutions,09007
CT,06401,New Haven County,Ansonia,Northeast Envelope Solutions,09009
CT,06249,New London County,Lebanon,Northeast Envelope Solutions,09011
CT,06029,Tolland County,Ellington,Northeast Envelope Solutions,09013
CT,06226,Windham County,Willimantic,Northeast Envelope Solutions,09015
DC,20001,District of Columbia,Washington,MCQ-WBS,11001
DC,20252,,Washington,MCQ-WBS,11001
DE,19901,Kent County,Dover,MCQ-WBS,10001
DE,19701,New Castle County,Bear,MCQ-WBS,10003
DE,19930,Sussex County,Bethany Beach,MCQ-WBS,10005
FL,32601,Alachua County,Gainesville,Florida Building Envelope Associates,12001
FL,32040,Baker County,Glen Saint Mary,Florida Building Envelope Associates,12003
FL,32401,Bay County,Panama City,Open Air Products,12005
FL,32042,Bradford County,Graham,Florida Building Envelope Associates,12007
FL,32754,Brevard County,Mims,Florida Building Envelope Associates,12009
FL,33004,Broward County,Dania,Florida Building Envelope Associates,12011
FL,32421,Calhoun County,Altha,Open Air Products,12013
FL,33927,Charlotte County,El Jobean,Florida Building Envelope Associates,12015
FL,34423,Citrus County,Crystal River,Florida Building Envelope Associates,12017
FL,32003,Clay County,Fleming Island,Florida Building Envelope Associates,12019
FL,34101,Collier County,Naples,Florida Building Envelope Associates,12021
FL,32024,Columbia County,Lake City,Florida Building Envelope Associates,12023
FL,34265,Desoto County,Arcadia,Florida Building Envelope Associates,12027
FL,32628,Dixie County,Cross City,Florida Building Envelope Associates,12029
FL,32099,Duval County,Jacksonville,Florida Building Envelope Associates,12031
FL,32501,Escambia County,Pensacola,Open Air Products,12033
FL,32110,Flagler County,Bunnell,Florida Building Envelope Associates,12035
FL,32320,Franklin County,Apalachicola,Florida Building Envelope Associates,12037
FL,32324,Gadsden County,Chattahoochee,Florida Building Envelope Associates,12039
FL,32619,Gilchrist County,Bell,Florida Building Envelope Associates,12041
FL,33471,Glades County,Moore Haven,Florida Building Envelope Associates,12043
FL,32456,Gulf County,Port Saint Joe,Open Air Products,12045
FL,32052,Hamilton County,Jasper,Florida Building Envelope Associates,12047
FL,33834,Hardee County,Bowling Green,Florida Building Envelope Associates,12049
FL,33440,Hendry County,Clewiston,Florida Building Envelope Associates,12051
FL,34601,Hernando County,Brooksville,Florida Building Envelope Associates,12053
FL,33825,Highlands County,Avon Park,Florida Building Envelope Associates,12055
FL,33503,Hillsborough County,Balm,Florida Building Envelope Associates,12057
FL,32425,Holmes County,Bonifay,Open Air Products,12059
FL,32948,Indian River County,Fellsmere,Florida Building Envelope Associates,12061
FL,32420,Jackson County,Alford,Open Air Products,12063
FL,32336,Jefferson County,Lamont,Florida Building Envelope Associates,12065
FL,32013,Lafayette County,Day,Florida Building Envelope Associates,12067
FL,32102,Lake County,Astor,Florida Building Envelope Associates,12069
FL,33900,Lee County,Fort Myers,Florida Building Envelope Associates,12071
FL,32301,Leon County,Tallahassee,Florida Building Envelope Associates,12073
FL,32621,Levy County,Bronson,Florida Building Envelope Associates,12075
FL,32321,Liberty County,Bristol,Florida Building Envelope Associates,12077
FL,32059,Madison County,Lee,Florida Building Envelope Associates,12079
FL,34201,Manatee County,Bradenton,Florida Building Envelope Associates,12081
FL,32111,Marion County,Candler,Florida Building Envelope Associates,12083
FL,33455,Martin County,Hobe Sound,Florida Building Envelope Associates,12085
FL,33002,Miami-Dade County,Hialeah,Florida Building Envelope Associates,12086
FL,33001,Monroe County,Long Key,Florida Building Envelope Associates,12087
FL,32009,Nassau County,Bryceville,Florida Building Envelope Associates,12089
FL,32531,Okaloosa County,Baker,Open Air Products,12091
FL,34972,Okeechobee County,Okeechobee,Florida Building Envelope Associates,12093
FL,32703,Orange County,Apopka,Florida Building Envelope Associates,12095
FL,33848,Osceola County,Intercession City,Florida Building Envelope Associates,12097
FL,33401,Palm Beach County,West Palm Beach,Florida Building Envelope Associates,12099
FL,33523,Pasco County,Dade City,Florida Building Envelope Associates,12101
FL,33701,Pinellas County,Saint Petersburg,Florida Building Envelope Associates,12103
FL,33801,Polk County,Lakeland,Florida Building Envelope Associates,12105
FL,32007,Putnam County,Bostwick,Florida Building Envelope Associates,12107
FL,32530,Santa Rosa County,Bagdad,Open Air Products,12113
FL,34223,Sarasota County,Englewood,Florida Building Envelope Associates,12115
FL,32701,Seminole County,Altamonte Springs,Florida Building Envelope Associates,12117
FL,32004,Saint Johns County,Ponte Vedra Beach,Florida Building Envelope Associates,12109
FL,34945,Saint Lucie County,Fort Pierce,Florida Building Envelope Associates,12111
FL,32162,Sumter County,The Villages,Florida Building Envelope Associates,12119
FL,32008,Suwannee County,Branford,Florida Building Envelope Associates,12121
FL,32347,Taylor County,Perry,Florida Building Envelope Associates,12123
FL,32026,Union County,Raiford,Florida Building Envelope Associates,12125
FL,32105,Volusia County,Barberville,Florida Building Envelope Associates,12127
FL,32326,Wakulla County,Crawfordville,Florida Building Envelope Associates,12129
FL,32422,Walton County,Argyle,Open Air Products,12131
FL,32427,Washington County,Caryville,Open Air Products,12133
FL,33106,,Miami,Florida Building Envelope Associates,12086
FM,96941,,Pohnpei,Open Air Products,
GA,31513,Appling County,Baxley,Pro-Fit Sales Associates,13001
GA,31624,Atkinson County,Axson,Pro-Fit Sales Associates,13003
GA,31510,Bacon County,Alma,Pro-Fit Sales Associates,13005
GA,39870,Baker County,Newton,Pro-Fit Sales Associates,13007
GA,31034,Baldwin County,Hardwick,Pro-Fit Sales Associates,13009
GA,30511,Banks County,Baldwin,Pro-Fit Sales Associates,13011
GA,30011,Barrow County,Auburn,Pro-Fit Sales Associates,13013
GA,30103,Bartow County,Adairsville,Pro-Fit Sales Associates,13015
GA,31750,Ben Hill County,Fitzgerald,Pro-Fit Sales Associates,13017
GA,31622,Berrien County,Alapaha,Pro-Fit Sales Associates,13019
GA,31052,Bibb County,Lizella,Pro-Fit Sales Associates,13021
GA,31014,Bleckley County,Cochran,Pro-Fit Sales Associates,13023
GA,31542,Brantley County,Hoboken,Pro-Fit Sales Associates,13025
GA,31625,Brooks County,Barney,Pro-Fit Sales Associates,13027
GA,31308,Bryan County,Ellabell,Pro-Fit Sales Associates,13029
GA,30415,Bulloch County,Brooklet,Pro-Fit Sales Associates,13031
GA,30426,Burke County,Girard,Pro-Fit Sales Associates,13033
GA,30216,Butts County,Flovilla,Pro-Fit Sales Associates,13035
GA,39813,Calhoun County,Arlington,Pro-Fit Sales Associates,13037
GA,31547,Camden County,Kings Bay,Pro-Fit Sales Associates,13039
GA,30439,Candler County,Metter,Pro-Fit Sales Associates,13043
GA,30108,Carroll County,Bowdon,Pro-Fit Sales Associates,13045
GA,30726,Catoosa County,Graysville,Pro-Fit Sales Associates,13047
GA,31537,Charlton County,Folkston,Pro-Fit Sales Associates,13049
GA,31322,Chatham County,Pooler,Pro-Fit Sales Associates,13051
GA,31805,Chattahoochee County,Cusseta,Pro-Fit Sales Associates,13053
GA,30730,Chattooga County,Lyerly,Pro-Fit Sales Associates,13055
GA,30102,Cherokee County,Acworth,Pro-Fit Sales Associates,13057
GA,30601,Clarke County,Athens,Pro-Fit Sales Associates,13059
GA,39824,Clay County,Bluffton,Pro-Fit Sales Associates,13061
GA,30236,Clayton County,Jonesboro,Pro-Fit Sales Associates,13063
GA,30138,Cleburne County,Esom Hill,Pro-Fit Sales Associates,13233
GA,31623,Clinch County,Argyle,Pro-Fit Sales Associates,13065
GA,30006,Cobb County,Marietta,Pro-Fit Sales Associates,13067
GA,31512,Coffee County,Ambrose,Pro-Fit Sales Associates,13069
GA,31722,Colquitt County,Berlin,Pro-Fit Sales Associates,13071
GA,30802,Columbia County,Appling,Pro-Fit Sales Associates,13073
GA,31620,Cook County,Adel,Pro-Fit Sales Associates,13075
GA,30220,Coweta County,Grantville,Pro-Fit Sales Associates,13077
GA,31050,Crawford County,Knoxville,Pro-Fit Sales Associates,13079
GA,31010,Crisp County,Cordele,Pro-Fit Sales Associates,13081
GA,30738,Dade County,Rising Fawn,Pro-Fit Sales Associates,13083
GA,30534,Dawson County,Dawsonville,Pro-Fit Sales Associates,13085
GA,39815,Decatur County,Attapulgus,Pro-Fit Sales Associates,13087
GA,30002,DeKalb County,Avondale Estates,Pro-Fit Sales Associates,13089
GA,31011,Dodge County,Chauncey,Pro-Fit Sales Associates,13091
GA,31007,Dooly County,Byromville,Pro-Fit Sales Associates,13093
GA,31701,Dougherty County,Albany,Pro-Fit Sales Associates,13095
GA,30122,Douglas County,Lithia Springs,Pro-Fit Sales Associates,13097
GA,39823,Early County,Blakely,Pro-Fit Sales Associates,13099
GA,31648,Echols County,Statenville,Pro-Fit Sales Associates,13101
GA,31302,Effingham County,Bloomingdale,Pro-Fit Sales Associates,13103
GA,30624,Elbert County,Bowman,Pro-Fit Sales Associates,13105
GA,30401,Emanuel County,Swainsboro,Pro-Fit Sales Associates,13107
GA,30414,Evans County,Bellville,Pro-Fit Sales Associates,13109
GA,30513,Fannin County,Blue Ridge,Pro-Fit Sales Associates,13111
GA,30205,Fayette County,Brooks,Pro-Fit Sales Associates,13113
GA,30105,Floyd County,Armuchee,Pro-Fit Sales Associates,13115
GA,30028,Forsyth County,Cumming,Pro-Fit Sales Associates,13117
GA,30520,Franklin County,Canon,Pro-Fit Sales Associates,13119
GA,30004,Fulton County,Alpharetta,Pro-Fit Sales Associates,13121
GA,30522,Gilmer County,Cherry Log,Pro-Fit Sales Associates,13123
GA,30810,Glascock County,Gibson,Pro-Fit Sales Associates,13125
GA,31520,Glynn County,Brunswick,Pro-Fit Sales Associates,13127
GA,30139,Gordon County,Fairmount,Pro-Fit Sales Associates,13129
GA,39827,Grady County,Cairo,Pro-Fit Sales Associates,13131
GA,30642,Greene County,Greensboro,Pro-Fit Sales Associates,13133
GA,30003,Gwinnett County,Norcross,Pro-Fit Sales Associates,13135
GA,30510,Habersham County,Alto,Pro-Fit Sales Associates,13137
GA,30501,Hall County,Gainesville,Pro-Fit Sales Associates,13139
GA,31087,Hancock County,Sparta,Pro-Fit Sales Associates,13141
GA,30110,Haralson County,Bremen,Pro-Fit Sales Associates,13143
GA,31804,Harris County,Cataula,Pro-Fit Sales Associates,13145
GA,30516,Hart County,Bowersville,Pro-Fit Sales Associates,13147
GA,30217,Heard County,Franklin,Pro-Fit Sales Associates,13149
GA,30228,Henry County,Hampton,Pro-Fit Sales Associates,13151
GA,31005,Houston County,Bonaire,Pro-Fit Sales Associates,13153
GA,31760,Irwin County,Irwinville,Pro-Fit Sales Associates,13155
GA,30517,Jackson County,Braselton,Pro-Fit Sales Associates,13157
GA,30055,Jasper County,Mansfield,Pro-Fit Sales Associates,13159
GA,31532,Jeff Davis County,Denton,Pro-Fit Sales Associates,13161
GA,30413,Jefferson County,Bartow,Pro-Fit Sales Associates,13163
GA,30442,Jenkins County,Millen,Pro-Fit Sales Associates,13165
GA,31049,Johnson County,Kite,Pro-Fit Sales Associates,13167
GA,31032,Jones County,Gray,Pro-Fit Sales Associates,13169
GA,30204,Lamar County,Barnesville,Pro-Fit Sales Associates,13171
GA,31635,Lanier County,Lakeland,Pro-Fit Sales Associates,13173
GA,30454,Laurens County,Rockledge,Pro-Fit Sales Associates,13175
GA,31763,Lee County,Leesburg,Pro-Fit Sales Associates,13177
GA,31301,Liberty County,Allenhurst,Pro-Fit Sales Associates,13179
GA,30817,Lincoln County,Lincolnton,Pro-Fit Sales Associates,13181
GA,31316,Long County,Ludowici,Pro-Fit Sales Associates,13183
GA,31601,Lowndes County,Valdosta,Pro-Fit Sales Associates,13185
GA,30533,Lumpkin County,Dahlonega,Pro-Fit Sales Associates,13187
GA,31041,Macon County,Ideal,Pro-Fit Sales Associates,13193
GA,30628,Madison County,Colbert,Pro-Fit Sales Associates,13195
GA,31058,Marion County,Mauk,Pro-Fit Sales Associates,13197
GA,30806,McDuffie County,Boneville,Pro-Fit Sales Associates,13189
GA,31304,McIntosh County,Crescent,Pro-Fit Sales Associates,13191
GA,30218,Meriwether County,Gay,Pro-Fit Sales Associates,13199
GA,39837,Miller County,Colquitt,Pro-Fit Sales Associates,13201
GA,31716,Mitchell County,Baconton,Pro-Fit Sales Associates,13205
GA,31004,Monroe County,Bolingbroke,Pro-Fit Sales Associates,13207
GA,30410,Montgomery County,Ailey,Pro-Fit Sales Associates,13209
GA,30623,Morgan County,Bostwick,Pro-Fit Sales Associates,13211
GA,30705,Murray County,Chatsworth,Pro-Fit Sales Associates,13213
GA,31820,Muscogee County,Midland,Pro-Fit Sales Associates,13215
GA,30014,Newton County,Covington,Pro-Fit Sales Associates,13217
GA,30621,Oconee County,Bishop,Pro-Fit Sales Associates,13219
GA,30619,Oglethorpe County,Arnoldsville,Pro-Fit Sales Associates,13221
GA,30132,Paulding County,Dallas,Pro-Fit Sales Associates,13223
GA,31008,Peach County,Byron,Pro-Fit Sales Associates,13225
GA,30143,Pickens County,Jasper,Pro-Fit Sales Associates,13227
GA,31516,Pierce County,Blackshear,Pro-Fit Sales Associates,13229
GA,30206,Pike County,Concord,Pro-Fit Sales Associates,13231
GA,30104,Polk County,Aragon,Pro-Fit Sales Associates,13233
GA,31036,Pulaski County,Hawkinsville,Pro-Fit Sales Associates,13235
GA,31024,Putnam County,Eatonton,Pro-Fit Sales Associates,13237
GA,39854,Quitman County,Georgetown,Pro-Fit Sales Associates,13239
GA,30525,Rabun County,Clayton,Pro-Fit Sales Associates,13241
GA,39836,Randolph County,Coleman,Pro-Fit Sales Associates,13243
GA,30805,Richmond County,Blythe,Pro-Fit Sales Associates,13245
GA,30012,Rockdale County,Conyers,Pro-Fit Sales Associates,13247
GA,31806,Schley County,Ellaville,Pro-Fit Sales Associates,13249
GA,30424,Screven County,Dover,Pro-Fit Sales Associates,13251
GA,39845,Seminole County,Donalsonville,Pro-Fit Sales Associates,13253
GA,30212,Spalding County,Experiment,Pro-Fit Sales Associates,13255
GA,30538,Stephens County,Eastanollee,Pro-Fit Sales Associates,13257
GA,31814,Stewart County,Louvale,Pro-Fit Sales Associates,13259
GA,31709,Sumter County,Americus,Pro-Fit Sales Associates,13261
GA,31810,Talbot County,Geneva,Pro-Fit Sales Associates,13263
GA,30631,Taliaferro County,Crawfordville,Pro-Fit Sales Associates,13265
GA,30420,Tattnall County,Cobbtown,Pro-Fit Sales Associates,13267
GA,31006,Taylor County,Butler,Pro-Fit Sales Associates,13269
GA,31037,Telfair County,Mc Rae Helena,Pro-Fit Sales Associates,13271
GA,39826,Terrell County,Bronwood,Pro-Fit Sales Associates,13273
GA,31626,Thomas County,Boston,Pro-Fit Sales Associates,13275
GA,31727,Tift County,Brookfield,Pro-Fit Sales Associates,13277
GA,30436,Toombs County,Lyons,Pro-Fit Sales Associates,13279
GA,30546,Towns County,Hiawassee,Pro-Fit Sales Associates,13281
GA,30457,Treutlen County,Soperton,Pro-Fit Sales Associates,13283
GA,30230,Troup County,Hogansville,Pro-Fit Sales Associates,13285
GA,31714,Turner County,Ashburn,Pro-Fit Sales Associates,13287
GA,31017,Twiggs County,Danville,Pro-Fit Sales Associates,13289
GA,30512,Union County,Blairsville,Pro-Fit Sales Associates,13291
GA,30285,Upson County,The Rock,Pro-Fit Sales Associates,13293
GA,30707,Walker County,Chickamauga,Pro-Fit Sales Associates,13295
GA,30018,Walton County,Jersey,Pro-Fit Sales Associates,13297
GA,31501,Ware County,Waycross,Pro-Fit Sales Associates,13299
GA,30807,Warren County,Camak,Pro-Fit Sales Associates,13301
GA,31018,Washington County,Davisboro,Pro-Fit Sales Associates,13303
GA,31545,Wayne County,Jesup,Pro-Fit Sales Associates,13305
GA,31824,Webster County,Preston,Pro-Fit Sales Associates,13307
GA,30411,Wheeler County,Alamo,Pro-Fit Sales Associates,13309
GA,30528,White County,Cleveland,Pro-Fit Sales Associates,13311
GA,30710,Whitfield County,Cohutta,Pro-Fit Sales Associates,13313
GA,31001,Wilcox County,Abbeville,Pro-Fit Sales Associates,13315
GA,30660,Wilkes County,Rayle,Pro-Fit Sales Associates,13317
GA,31003,Wilkinson County,Allentown,Pro-Fit Sales Associates,13319
GA,31772,Worth County,Oakfield,Pro-Fit Sales Associates,13321
HI,96704,Hawaii County,Captain Cook,808 Building Supplies,15001
HI,96701,Honolulu County,Aiea,808 Building Supplies,15003
HI,96742,Kalawao County,Kalaupapa,808 Building Supplies,15005
HI,96703,Kauai County,Anahola,808 Building Supplies,15007
HI,96708,Maui County,Haiku,808 Building Supplies,15009
IA,50002,Adair County,Adair,GIE Ltd.,19001
IA,50839,Adams County,Carbon,GIE Ltd.,19003
IA,52140,Allamakee County,Dorchester,GIE Ltd.,19005
IA,52544,Appanoose County,Centerville,GIE Ltd.,19007
IA,50025,Audubon County,Audubon,GIE Ltd.,19009
IA,52206,Benton County,Atkins,GIE Ltd.,19011
IA,50613,Black Hawk County,Cedar Falls,GIE Ltd.,19013
IA,50031,Boone County,Beaver,GIE Ltd.,19015
IA,50622,Bremer County,Denver,GIE Ltd.,19017
IA,50607,Buchanan County,Aurora,GIE Ltd.,19019
IA,50510,Buena Vista County,Albert City,GIE Ltd.,19021
IA,50602,Butler County,Allison,GIE Ltd.,19023
IA,50538,Calhoun County,Farnhamville,GIE Ltd.,19025
IA,50058,Carroll County,Coon Rapids,GIE Ltd.,19027
IA,50020,Cass County,Anita,GIE Ltd.,19029
IA,52216,Cedar County,Clarence,GIE Ltd.,19031
IA,50401,Cerro Gordo County,Mason City,GIE Ltd.,19033
IA,51005,Cherokee County,Aurelia,GIE Ltd.,19035
IA,50603,Chickasaw County,Alta Vista,GIE Ltd.,19037
IA,50174,Clarke County,Murray,GIE Ltd.,19039
IA,51047,Clay County,Peterson,GIE Ltd.,19041
IA,52042,Clayton County,Edgewood,GIE Ltd.,19043
IA,52037,Clinton County,Delmar,GIE Ltd.,19045
IA,51432,Crawford County,Aspinwall,GIE Ltd.,19047
IA,50003,Dallas County,Adel,GIE Ltd.,19049
IA,52537,Davis County,Bloomfield,GIE Ltd.,19051
IA,50065,Decatur County,Davis City,GIE Ltd.,19053
IA,50654,Delaware County,Masonville,GIE Ltd.,19055
IA,52601,Des Moines County,Burlington,GIE Ltd.,19057
IA,51331,Dickinson County,Arnolds Park,GIE Ltd.,19059
IA,52001,Dubuque County,Dubuque,GIE Ltd.,19061
IA,50514,Emmet County,Armstrong,GIE Ltd.,19063
IA,50606,Fayette County,Arlington,GIE Ltd.,19065
IA,50435,Floyd County,Floyd,GIE Ltd.,19067
IA,50041,Franklin County,Bradford,GIE Ltd.,19069
IA,51639,Fremont County,Farragut,GIE Ltd.,19071
IA,50050,Greene County,Churdan,GIE Ltd.,19073
IA,50609,Grundy County,Beaman,GIE Ltd.,19075
IA,50026,Guthrie County,Bagley,GIE Ltd.,19077
IA,50034,Hamilton County,Blairsburg,GIE Ltd.,19079
IA,50423,Hancock County,Britt,GIE Ltd.,19081
IA,50006,Hardin County,Alden,GIE Ltd.,19083
IA,51529,Harrison County,Dunlap,GIE Ltd.,19085
IA,52630,Henry County,Hillsboro,GIE Ltd.,19087
IA,50628,Howard County,Elma,GIE Ltd.,19089
IA,50519,Humboldt County,Bode,GIE Ltd.,19091
IA,51006,Ida County,Battle Creek,GIE Ltd.,19093
IA,52203,Iowa County,Amana,GIE Ltd.,19095
IA,52030,Jackson County,Andrew,GIE Ltd.,19097
IA,50028,Jasper County,Baxter,GIE Ltd.,19099
IA,52533,Jefferson County,Batavia,GIE Ltd.,19101
IA,52235,Johnson County,Hills,GIE Ltd.,19103
IA,52205,Jones County,Anamosa,GIE Ltd.,19105
IA,50104,Keokuk County,Gibson,GIE Ltd.,19107
IA,50451,Kossuth County,Lakota,GIE Ltd.,19109
IA,52619,Lee County,Argyle,GIE Ltd.,19111
IA,52202,Linn County,Alburnett,GIE Ltd.,19113
IA,52640,Louisa County,Morning Sun,GIE Ltd.,19115
IA,50049,Lucas County,Chariton,GIE Ltd.,19117
IA,51230,Lyon County,Alvord,GIE Ltd.,19119
IA,50033,Madison County,Bevington,GIE Ltd.,19121
IA,50027,Mahaska County,Barnes City,GIE Ltd.,19123
IA,50044,Marion County,Bussey,GIE Ltd.,19125
IA,50005,Marshall County,Albion,GIE Ltd.,19127
IA,51533,Mills County,Emerson,GIE Ltd.,19129
IA,50426,Mitchell County,Carpenter,GIE Ltd.,19131
IA,51010,Monona County,Castana,GIE Ltd.,19133
IA,50150,Monroe County,Lovilia,GIE Ltd.,19135
IA,50847,Montgomery County,Grant,GIE Ltd.,19137
IA,52720,Muscatine County,Atalissa,GIE Ltd.,19139
IA,51009,O'Brien County,Calumet,GIE Ltd.,19141
IA,51232,Osceola County,Ashton,GIE Ltd.,19143
IA,51601,Page County,Shenandoah,GIE Ltd.,19145
IA,50515,Palo Alto County,Ayrshire,GIE Ltd.,19147
IA,51001,Plymouth County,Akron,GIE Ltd.,19149
IA,50540,Pocahontas County,Fonda,GIE Ltd.,19151
IA,50007,Polk County,Alleman,GIE Ltd.,19153
IA,51501,Pottawattamie County,Council Bluffs,GIE Ltd.,19155
IA,50112,Poweshiek County,Grinnell,GIE Ltd.,19157
IA,50074,Ringgold County,Ellston,GIE Ltd.,19159
IA,50535,Sac County,Early,GIE Ltd.,19161
IA,52722,Scott County,Bettendorf,GIE Ltd.,19163
IA,51446,Shelby County,Irwin,GIE Ltd.,19165
IA,51003,Sioux County,Alton,GIE Ltd.,19167
IA,50010,Story County,Ames,GIE Ltd.,19169
IA,50173,Tama County,Montour,GIE Ltd.,19171
IA,50833,Taylor County,Bedford,GIE Ltd.,19173
IA,50149,Union County,Lorimor,GIE Ltd.,19175
IA,52535,Van Buren County,Birmingham,GIE Ltd.,19177
IA,52501,Wapello County,Ottumwa,GIE Ltd.,19179
IA,50001,Warren County,Ackworth,GIE Ltd.,19181
IA,52201,Washington County,Ainsworth,GIE Ltd.,19183
IA,50008,Wayne County,Allerton,GIE Ltd.,19185
IA,50501,Webster County,Fort Dodge,GIE Ltd.,19187
IA,50424,Winnebago County,Buffalo Center,GIE Ltd.,19189
IA,52101,Winneshiek County,Decorah,GIE Ltd.,19191
IA,51004,Woodbury County,Anthon,GIE Ltd.,19193
IA,50434,Worth County,Fertile,GIE Ltd.,19195
IA,50071,Wright County,Dows,GIE Ltd.,19197
ID,83616,Ada County,Eagle,Palmer Marketing Inc,16001
ID,83612,Adams County,Council,Palmer Marketing Inc,16003
ID,83201,Bannock County,Pocatello,Palmer Marketing Inc,16005
ID,83220,Bear Lake County,Bern,Palmer Marketing Inc,16007
ID,83824,Benewah County,Desmet,Palmer Marketing Inc,16009
ID,83203,Bingham County,Fort Hall,Palmer Marketing Inc,16011
ID,83313,Blaine County,Bellevue,Palmer Marketing Inc,16013
ID,83602,Boise County,Banks,Palmer Marketing Inc,16015
ID,83804,Bonner County,Blanchard,Palmer Marketing Inc,16017
ID,83401,Bonneville County,Idaho Falls,Palmer Marketing Inc,16019
ID,83805,Boundary County,Bonners Ferry,Palmer Marketing Inc,16021
ID,83213,Butte County,Arco,Palmer Marketing Inc,16023
ID,83322,Camas County,Corral,Palmer Marketing Inc,16025
ID,83605,Canyon County,Caldwell,Palmer Marketing Inc,16027
ID,83217,Caribou County,Bancroft,Palmer Marketing Inc,16029
ID,83311,Cassia County,Albion,Palmer Marketing Inc,16031
ID,83423,Clark County,Dubois,Palmer Marketing Inc,16033
ID,83520,Clearwater County,Ahsahka,Palmer Marketing Inc,16035
ID,83226,Custer County,Challis,Palmer Marketing Inc,16037
ID,83601,Elmore County,Atlanta,Palmer Marketing Inc,16039
ID,83228,Franklin County,Clifton,Palmer Marketing Inc,16041
ID,83420,Fremont County,Ashton,Palmer Marketing Inc,16043
ID,83617,Gem County,Emmett,Palmer Marketing Inc,16045
ID,83314,Gooding County,Bliss,Palmer Marketing Inc,16047
ID,83522,Idaho County,Cottonwood,Palmer Marketing Inc,16049
ID,83425,Jefferson County,Hamer,Palmer Marketing Inc,16051
ID,83325,Jerome County,Eden,Palmer Marketing Inc,16053
ID,83801,Kootenai County,Athol,Palmer Marketing Inc,16055
ID,83535,Latah County,Juliaetta,Palmer Marketing Inc,16057
ID,83229,Lemhi County,Cobalt,Palmer Marketing Inc,16059
ID,83523,Lewis County,Craigmont,Palmer Marketing Inc,16061
ID,83324,Lincoln County,Dietrich,Palmer Marketing Inc,16063
ID,83440,Madison County,Rexburg,Palmer Marketing Inc,16065
ID,83336,Minidoka County,Heyburn,Palmer Marketing Inc,16067
ID,83501,Nez Perce County,Lewiston,Palmer Marketing Inc,16069
ID,83243,Oneida County,Holbrook,Palmer Marketing Inc,16071
ID,83604,Owyhee County,Bruneau,Palmer Marketing Inc,16073
ID,83619,Payette County,Fruitland,Palmer Marketing Inc,16075
ID,83211,Power County,American Falls,Palmer Marketing Inc,16077
ID,83802,Shoshone County,Avery,Palmer Marketing Inc,16079
ID,83422,Teton County,Driggs,Palmer Marketing Inc,16081
ID,83301,Twin Falls County,Twin Falls,Palmer Marketing Inc,16083
ID,83611,Valley County,Cascade,Palmer Marketing Inc,16085
ID,83610,Washington County,Cambridge,Palmer Marketing Inc,16087
IL,62301,Adams County,Quincy,GIE Ltd.,17001
IL,62914,Alexander County,Cairo,GIE Ltd.,17003
IL,62086,Bond County,Sorento,GIE Ltd.,17005
IL,61008,Boone County,Belvidere,,17007
IL,62353,Brown County,Mount Sterling,GIE Ltd.,17009
IL,61312,Bureau County,Arlington,,17011
IL,62006,Calhoun County,Batchtown,GIE Ltd.,17013
IL,61014,Carroll County,Chadwick,,17015
IL,62611,Cass County,Arenzville,GIE Ltd.,17017
IL,60949,Champaign County,Ludlow,GIE Ltd.,17019
IL,62083,Christian County,Rosamond,GIE Ltd.,17021
IL,62420,Clark County,Casey,GIE Ltd.,17023
IL,62434,Clay County,Ingraham,GIE Ltd.,17025
IL,62215,Clinton County,Albers,GIE Ltd.,17027
IL,61912,Coles County,Ashmore,GIE Ltd.,17029
IL,60004,Cook County,Arlington Heights,,17031
IL,62413,Crawford County,Annapolis,GIE Ltd.,17033
IL,62428,Cumberland County,Greenup,GIE Ltd.,17035
IL,61727,De Witt County,Clinton,GIE Ltd.,17039
IL,60111,DeKalb County,Clare,,17037
IL,61910,Douglas County,Arcola,GIE Ltd.,17041
IL,60101,DuPage County,Addison,,17043
IL,61917,Edgar County,Brocton,GIE Ltd.,17045
IL,62476,Edwards County,West Salem,GIE Ltd.,17047
IL,62401,Effingham County,Effingham,GIE Ltd.,17049
IL,62011,Fayette County,Bingham,GIE Ltd.,17051
IL,60919,Ford County,Cabery,,17053
IL,62805,Franklin County,Akin,GIE Ltd.,17055
IL,61415,Fulton County,Avon,GIE Ltd.,17057
IL,62867,Gallatin County,New Haven,GIE Ltd.,17059
IL,62016,Greene County,Carrollton,GIE Ltd.,17061
IL,60407,Grundy County,Braceville,,17063
IL,62817,Hamilton County,Broughton,GIE Ltd.,17065
IL,61450,Hancock County,La Harpe,GIE Ltd.,17067
IL,62919,Hardin County,Cave In Rock,GIE Ltd.,17069
IL,61418,Henderson County,Biggsville,GIE Ltd.,17071
IL,61233,Henry County,Andover,,17073
IL,60911,Iroquois County,Ashkum,,17075
IL,62901,Jackson County,Carbondale,GIE Ltd.,17077
IL,62432,Jasper County,Hidalgo,GIE Ltd.,17079
IL,62810,Jefferson County,Belle Rive,GIE Ltd.,17081
IL,62022,Jersey County,Dow,GIE Ltd.,17083
IL,61001,Jo Daviess County,Apple River,,17085
IL,62909,Johnson County,Boles,GIE Ltd.,17087
IL,60109,Kane County,Burlington,,17089
IL,60901,Kankakee County,Kankakee,,17091
IL,60512,Kendall County,Bristol,,17093
IL,61401,Knox County,Galesburg,GIE Ltd.,17095
IL,60002,Lake County,Antioch,,17097
IL,60470,LaSalle County,Ransom,,17099
IL,62417,Lawrence County,Bridgeport,GIE Ltd.,17101
IL,60530,Lee County,Lee,,17103
IL,60420,Livingston County,Dwight,,17105
IL,61723,Logan County,Atlanta,GIE Ltd.,17107
IL,61756,Macon County,Maroa,GIE Ltd.,17115
IL,62009,Macoupin County,Benld,GIE Ltd.,17117
IL,62001,Madison County,Alhambra,GIE Ltd.,17119
IL,62801,Marion County,Centralia,GIE Ltd.,17121
IL,61369,Marshall County,Toluca,,17123
IL,61532,Mason County,Forest City,GIE Ltd.,17125
IL,62908,Massac County,Belknap,GIE Ltd.,17127
IL,61411,McDonough County,Adair,GIE Ltd.,17109
IL,60001,McHenry County,Alden,,17111
IL,61701,McLean County,Bloomington,GIE Ltd.,17113
IL,62613,Menard County,Athens,GIE Ltd.,17129
IL,61231,Mercer County,Aledo,GIE Ltd.,17131
IL,62236,Monroe County,Columbia,GIE Ltd.,17133
IL,62015,Montgomery County,Butler,GIE Ltd.,17135
IL,62601,Morgan County,Alexander,GIE Ltd.,17137
IL,61914,Moultrie County,Bethany,GIE Ltd.,17139
IL,60113,Ogle County,Creston,,17141
IL,61451,Peoria County,Laura,GIE Ltd.,17143
IL,62238,Perry County,Cutler,GIE Ltd.,17145
IL,61813,Piatt County,Bement,GIE Ltd.,17147
IL,62312,Pike County,Barry,GIE Ltd.,17149
IL,62928,Pope County,Eddyville,GIE Ltd.,17151
IL,62941,Pulaski County,Grand Chain,GIE Ltd.,17153
IL,61326,Putnam County,Granville,,17155
IL,62217,Randolph County,Baldwin,GIE Ltd.,17157
IL,62419,Richland County,Calhoun,GIE Ltd.,17159
IL,61201,Rock Island County,Rock Island,GIE Ltd.,17161
IL,62917,Saline County,Carrier Mills,GIE Ltd.,17165
IL,62515,Sangamon County,Buffalo,GIE Ltd.,17167
IL,61452,Schuyler County,Littleton,GIE Ltd.,17169
IL,62610,Scott County,Alsey,GIE Ltd.,17171
IL,61957,Shelby County,Windsor,GIE Ltd.,17173
IL,62059,Saint Clair County,Lovejoy,GIE Ltd.,17163
IL,61421,Stark County,Bradford,,17175
IL,61013,Stephenson County,Cedarville,,17177
IL,61534,Tazewell County,Green Valley,GIE Ltd.,17179
IL,62905,Union County,Alto Pass,GIE Ltd.,17181
IL,60932,Vermilion County,East Lynn,GIE Ltd.,17183
IL,62410,Wabash County,Allendale,GIE Ltd.,17185
IL,61412,Warren County,Alexis,GIE Ltd.,17187
IL,62214,Washington County,Addieville,GIE Ltd.,17189
IL,62446,Wayne County,Mount Erie,GIE Ltd.,17191
IL,62820,White County,Burnt Prairie,GIE Ltd.,17193
IL,61037,Whiteside County,Galt,,17195
IL,60401,Will County,Beecher,,17197
IL,62841,Williamson County,Freeman Spur,GIE Ltd.,17199
IL,61016,Winnebago County,Cherry Valley,,17201
IL,61516,Woodford County,Benson,GIE Ltd.,17203
IN,46711,Adams County,Berne,GIE Ltd.,18001
IN,46704,Allen County,Arcola,GIE Ltd.,18003
IN,47201,Bartholomew County,Columbus,GIE Ltd.,18005
IN,47917,Benton County,Ambia,GIE Ltd.,18007
IN,47348,Blackford County,Hartford City,GIE Ltd.,18009
IN,46052,Boone County,Lebanon,GIE Ltd.,18011
IN,46160,Brown County,Morgantown,GIE Ltd.,18013
IN,46913,Carroll County,Bringhurst,GIE Ltd.,18015
IN,46932,Cass County,Galveston,GIE Ltd.,18017
IN,47104,Clark County,Bethlehem,GIE Ltd.,18019
IN,47834,Clay County,Brazil,GIE Ltd.,18021
IN,46035,Clinton County,Colfax,GIE Ltd.,18023
IN,47116,Crawford County,Eckerty,GIE Ltd.,18025
IN,47501,Daviess County,Washington,GIE Ltd.,18027
IN,47001,Dearborn County,Aurora,GIE Ltd.,18029
IN,47225,Decatur County,Clarksburg,GIE Ltd.,18031
IN,46705,DeKalb County,Ashley,GIE Ltd.,18033
IN,47302,Delaware County,Muncie,GIE Ltd.,18035
IN,47513,Dubois County,Birdseye,GIE Ltd.,18037
IN,46507,Elkhart County,Bristol,GIE Ltd.,18039
IN,46133,Fayette County,Glenwood,GIE Ltd.,18041
IN,47119,Floyd County,Floyds Knobs,GIE Ltd.,18043
IN,47918,Fountain County,Attica,GIE Ltd.,18045
IN,47010,Franklin County,Bath,GIE Ltd.,18047
IN,46910,Fulton County,Akron,GIE Ltd.,18049
IN,47639,Gibson County,Haubstadt,GIE Ltd.,18051
IN,46928,Grant County,Fairmount,GIE Ltd.,18053
IN,47424,Greene County,Bloomfield,GIE Ltd.,18055
IN,46030,Hamilton County,Arcadia,GIE Ltd.,18057
IN,46055,Hancock County,Mccordsville,GIE Ltd.,18059
IN,47107,Harrison County,Bradford,GIE Ltd.,18061
IN,46103,Hendricks County,Amo,GIE Ltd.,18063
IN,46148,Henry County,Knightstown,GIE Ltd.,18065
IN,46901,Howard County,Kokomo,GIE Ltd.,18067
IN,46702,Huntington County,Andrews,GIE Ltd.,18069
IN,47220,Jackson County,Brownstown,GIE Ltd.,18071
IN,46310,Jasper County,Demotte,GIE Ltd.,18073
IN,47326,Jay County,Bryant,GIE Ltd.,18075
IN,47230,Jefferson County,Deputy,GIE Ltd.,18077
IN,47223,Jennings County,Butlerville,GIE Ltd.,18079
IN,46106,Johnson County,Bargersville,GIE Ltd.,18081
IN,47512,Knox County,Bicknell,GIE Ltd.,18083
IN,46502,Kosciusko County,Atwood,GIE Ltd.,18085
IN,46352,La Porte County,La Porte,GIE Ltd.,18091
IN,46565,LaGrange County,Shipshewana,GIE Ltd.,18087
IN,46303,Lake County,Cedar Lake,GIE Ltd.,18089
IN,46340,LaPorte County,Hanna,GIE Ltd.,18091
IN,47420,Lawrence County,Avoca,GIE Ltd.,18093
IN,46001,Madison County,Alexandria,GIE Ltd.,18095
IN,46107,Marion County,Beech Grove,GIE Ltd.,18097
IN,46501,Marshall County,Argos,GIE Ltd.,18099
IN,47522,Martin County,Crane,GIE Ltd.,18101
IN,46911,Miami County,Amboy,GIE Ltd.,18103
IN,47401,Monroe County,Bloomington,GIE Ltd.,18105
IN,47916,Montgomery County,Alamo,GIE Ltd.,18107
IN,46111,Morgan County,Brooklyn,GIE Ltd.,18109
IN,46349,Newton County,Lake Village,GIE Ltd.,18111
IN,46701,Noble County,Albion,GIE Ltd.,18113
IN,47040,Ohio County,Rising Sun,GIE Ltd.,18115
IN,47432,Orange County,French Lick,GIE Ltd.,18117
IN,47427,Owen County,Coal City,GIE Ltd.,18119
IN,47830,Parke County,Bellmore,GIE Ltd.,18121
IN,47514,Perry County,Branchville,GIE Ltd.,18123
IN,47564,Pike County,Otwell,GIE Ltd.,18125
IN,46301,Porter County,Beverly Shores,GIE Ltd.,18127
IN,47612,Posey County,Cynthiana,GIE Ltd.,18129
IN,46960,Pulaski County,Monterey,GIE Ltd.,18131
IN,46105,Putnam County,Bainbridge,GIE Ltd.,18133
IN,47340,Randolph County,Farmland,GIE Ltd.,18135
IN,47006,Ripley County,Batesville,GIE Ltd.,18137
IN,46104,Rush County,Arlington,GIE Ltd.,18139
IN,47102,Scott County,Austin,GIE Ltd.,18143
IN,46110,Shelby County,Boggstown,GIE Ltd.,18145
IN,47523,Spencer County,Dale,GIE Ltd.,18147
IN,46530,Saint Joseph County,Granger,GIE Ltd.,18141
IN,46366,Starke County,North Judson,GIE Ltd.,18149
IN,46703,Steuben County,Angola,GIE Ltd.,18151
IN,47838,Sullivan County,Carlisle,GIE Ltd.,18153
IN,47011,Switzerland County,Bennington,GIE Ltd.,18155
IN,47901,Tippecanoe County,Lafayette,GIE Ltd.,18157
IN,46045,Tipton County,Goldsmith,GIE Ltd.,18159
IN,47003,Union County,West College Corner,GIE Ltd.,18161
IN,47618,Vanderburgh County,Inglefield,GIE Ltd.,18163
IN,47831,Vermillion County,Blanford,GIE Ltd.,18165
IN,47801,Vigo County,Terre Haute,GIE Ltd.,18167
IN,46940,Wabash County,La Fontaine,GIE Ltd.,18169
IN,47975,Warren County,Pine Village,GIE Ltd.,18171
IN,47601,Warrick County,Boonville,GIE Ltd.,18173
IN,47108,Washington County,Campbellsburg,GIE Ltd.,18175
IN,47324,Wayne County,Boston,GIE Ltd.,18177
IN,46714,Wells County,Bluffton,GIE Ltd.,18179
IN,47923,White County,Brookston,GIE Ltd.,18181
IN,46723,Whitley County,Churubusco,GIE Ltd.,18183
IN,46197,,Plainfield,GIE Ltd.,18063
KS,66732,Allen County,Elsmore,GIE Ltd.,20001
KS,66015,Anderson County,Colony,GIE Ltd.,20003
KS,66002,Atchison County,Atchison,GIE Ltd.,20005
KS,67057,Barber County,Hardtner,GIE Ltd.,20007
KS,67511,Barton County,Albert,GIE Ltd.,20009
KS,66701,Bourbon County,Fort Scott,GIE Ltd.,20011
KS,66094,Brown County,White Cloud,GIE Ltd.,20013
KS,66842,Butler County,Cassoday,GIE Ltd.,20015
KS,66843,Chase County,Cedar Point,GIE Ltd.,20017
KS,67024,Chautauqua County,Cedar Vale,GIE Ltd.,20019
KS,66713,Cherokee County,Baxter Springs,GIE Ltd.,20021
KS,67731,Cheyenne County,Bird City,GIE Ltd.,20023
KS,67831,Clark County,Ashland,GIE Ltd.,20025
KS,67432,Clay County,Clay Center,GIE Ltd.,20027
KS,66901,Cloud County,Concordia,GIE Ltd.,20029
KS,66839,Coffey County,Burlington,GIE Ltd.,20031
KS,67029,Comanche County,Coldwater,GIE Ltd.,20033
KS,67005,Cowley County,Arkansas City,GIE Ltd.,20035
KS,66711,Crawford County,Arcadia,GIE Ltd.,20037
KS,67635,Decatur County,Dresden,GIE Ltd.,20039
KS,67410,Dickinson County,Abilene,GIE Ltd.,20041
KS,66008,Doniphan County,Bendena,GIE Ltd.,20043
KS,66006,Douglas County,Baldwin City,GIE Ltd.,20045
KS,67519,Edwards County,Belpre,GIE Ltd.,20047
KS,66759,Elk County,New Albany,GIE Ltd.,20049
KS,67601,Ellis County,Hays,GIE Ltd.,20051
KS,67439,Ellsworth County,Ellsworth,GIE Ltd.,20053
KS,67846,Finney County,Garden City,GIE Ltd.,20055
KS,67801,Ford County,Dodge City,GIE Ltd.,20057
KS,66042,Franklin County,Lane,GIE Ltd.,20059
KS,66441,Geary County,Junction City,GIE Ltd.,20061
KS,67736,Gove County,Gove,GIE Ltd.,20063
KS,67625,Graham County,Bogue,GIE Ltd.,20065
KS,67880,Grant County,Ulysses,GIE Ltd.,20067
KS,67835,Gray County,Cimarron,GIE Ltd.,20069
KS,67879,Greeley County,Tribune,GIE Ltd.,20071
KS,66853,Greenwood County,Hamilton,GIE Ltd.,20073
KS,67836,Hamilton County,Coolidge,GIE Ltd.,20075
KS,67003,Harper County,Anthony,GIE Ltd.,20077
KS,67020,Harvey County,Burrton,GIE Ltd.,20079
KS,67870,Haskell County,Satanta,GIE Ltd.,20081
KS,67849,Hodgeman County,Hanston,GIE Ltd.,20083
KS,66416,Jackson County,Circleville,GIE Ltd.,20085
KS,66054,Jefferson County,Mc Louth,GIE Ltd.,20087
KS,66936,Jewell County,Burr Oak,GIE Ltd.,20089
KS,66013,Johnson County,Bucyrus,GIE Ltd.,20091
KS,67838,Kearny County,Deerfield,GIE Ltd.,20093
KS,67035,Kingman County,Cunningham,GIE Ltd.,20095
KS,67054,Kiowa County,Greensburg,GIE Ltd.,20097
KS,67330,Labette County,Altamont,GIE Ltd.,20099
KS,67839,Lane County,Dighton,GIE Ltd.,20101
KS,66007,Leavenworth County,Basehor,GIE Ltd.,20103
KS,67418,Lincoln County,Barnard,GIE Ltd.,20105
KS,66010,Linn County,Blue Mound,GIE Ltd.,20107
KS,67747,Logan County,Monument,GIE Ltd.,20109
KS,66801,Lyon County,Emporia,GIE Ltd.,20111
KS,66840,Marion County,Burns,GIE Ltd.,20115
KS,66403,Marshall County,Axtell,GIE Ltd.,20117
KS,67107,McPherson County,Moundridge,GIE Ltd.,20113
KS,67844,Meade County,Fowler,GIE Ltd.,20119
KS,66026,Miami County,Fontana,GIE Ltd.,20121
KS,67420,Mitchell County,Beloit,GIE Ltd.,20123
KS,67301,Montgomery County,Independence,GIE Ltd.,20125
KS,66838,Morris County,Burdick,GIE Ltd.,20127
KS,67950,Morton County,Elkhart,GIE Ltd.,20129
KS,66404,Nemaha County,Baileyville,GIE Ltd.,20131
KS,66720,Neosho County,Chanute,GIE Ltd.,20133
KS,67515,Ness County,Arnold,GIE Ltd.,20135
KS,67622,Norton County,Almena,GIE Ltd.,20137
KS,66413,Osage County,Burlingame,GIE Ltd.,20139
KS,67437,Osborne County,Downs,GIE Ltd.,20141
KS,67422,Ottawa County,Bennington,GIE Ltd.,20143
KS,67523,Pawnee County,Burdett,GIE Ltd.,20145
KS,67621,Phillips County,Agra,GIE Ltd.,20147
KS,66407,Pottawatomie County,Belvue,GIE Ltd.,20149
KS,67021,Pratt County,Byers,GIE Ltd.,20151
KS,67730,Rawlins County,Atwood,GIE Ltd.,20153
KS,67501,Reno County,Hutchinson,GIE Ltd.,20155
KS,66930,Republic County,Agenda,GIE Ltd.,20157
KS,67427,Rice County,Bushton,GIE Ltd.,20159
KS,66449,Riley County,Leonardville,GIE Ltd.,20161
KS,67632,Rooks County,Damar,GIE Ltd.,20163
KS,67513,Rush County,Alexander,GIE Ltd.,20165
KS,67626,Russell County,Bunker Hill,GIE Ltd.,20167
KS,67401,Saline County,Salina,GIE Ltd.,20169
KS,67871,Scott County,Scott City,GIE Ltd.,20171
KS,67001,Sedgwick County,Andale,GIE Ltd.,20173
KS,67859,Seward County,Kismet,GIE Ltd.,20175
KS,66402,Shawnee County,Auburn,GIE Ltd.,20177
KS,67740,Sheridan County,Hoxie,GIE Ltd.,20179
KS,67733,Sherman County,Edson,GIE Ltd.,20181
KS,66932,Smith County,Athol,GIE Ltd.,20183
KS,67545,Stafford County,Hudson,GIE Ltd.,20185
KS,67855,Stanton County,Johnson,GIE Ltd.,20187
KS,67951,Stevens County,Hugoton,GIE Ltd.,20189
KS,67004,Sumner County,Argonia,GIE Ltd.,20191
KS,67701,Thomas County,Colby,GIE Ltd.,20193
KS,67631,Trego County,Collyer,GIE Ltd.,20195
KS,66401,Wabaunsee County,Alma,GIE Ltd.,20197
KS,67758,Wallace County,Sharon Springs,GIE Ltd.,20199
KS,66933,Washington County,Barnes,GIE Ltd.,20201
KS,67861,Wichita County,Leoti,GIE Ltd.,20203
KS,66710,Wilson County,Altoona,GIE Ltd.,20205
KS,66758,Woodson County,Neosho Falls,GIE Ltd.,20207
KS,66012,Wyandotte County,Bonner Springs,GIE Ltd.,20209
KS,66630,,Topeka,GIE Ltd.,20177
KY,42715,Adair County,Breeding,Engineered Systems,21001
KY,42120,Allen County,Adolphus,Engineered Systems,21003
KY,40342,Anderson County,Lawrenceburg,Engineered Systems,21005
KY,42022,Ballard County,Bandana,Engineered Systems,21007
KY,42123,Barren County,Austin,Engineered Systems,21009
KY,40334,Bath County,Hope,Engineered Systems,21011
KY,40813,Bell County,Calvin,Engineered Systems,21013
KY,41005,Boone County,Burlington,Engineered Systems,21015
KY,40348,Bourbon County,Millersburg,Engineered Systems,21017
KY,41101,Boyd County,Ashland,Engineered Systems,21019
KY,40422,Boyle County,Danville,Engineered Systems,21021
KY,41002,Bracken County,Augusta,Engineered Systems,21023
KY,41310,Breathitt County,Bays,Engineered Systems,21025
KY,40111,Breckinridge County,Cloverport,Engineered Systems,21027
KY,40047,Bullitt County,Mount Washington,Engineered Systems,21029
KY,42201,Butler County,Aberdeen,Engineered Systems,21031
KY,42411,Caldwell County,Fredonia,Engineered Systems,21033
KY,42020,Calloway County,Almo,Engineered Systems,21035
KY,41001,Campbell County,Alexandria,Engineered Systems,21037
KY,42021,Carlisle County,Arlington,Engineered Systems,21039
KY,41008,Carroll County,Carrollton,Engineered Systems,21041
KY,41128,Carter County,Carter,Engineered Systems,21043
KY,42516,Casey County,Bethelridge,Engineered Systems,21045
KY,42215,Christian County,Cerulean,Engineered Systems,21047
KY,40391,Clark County,Winchester,Engineered Systems,21049
KY,40913,Clay County,Beverly,Engineered Systems,21051
KY,42602,Clinton County,Albany,Engineered Systems,21053
KY,42033,Crittenden County,Crayne,Engineered Systems,21055
KY,42717,Cumberland County,Burkesville,Engineered Systems,21057
KY,42301,Daviess County,Owensboro,Engineered Systems,21059
KY,42163,Edmonson County,Rocky Hill,Engineered Systems,21061
KY,41149,Elliott County,Isonville,Engineered Systems,21063
KY,40336,Estill County,Irvine,Engineered Systems,21065
KY,40502,Fayette County,Lexington,Engineered Systems,21067
KY,41037,Fleming County,Elizaville,Engineered Systems,21069
KY,41216,Floyd County,East Point,Engineered Systems,21071
KY,40601,Franklin County,Frankfort,Engineered Systems,21073
KY,42041,Fulton County,Fulton,Engineered Systems,21075
KY,41046,Gallatin County,Glencoe,Engineered Systems,21077
KY,40410,Garrard County,Bryantsville,Engineered Systems,21079
KY,41010,Grant County,Corinth,Engineered Systems,21081
KY,42027,Graves County,Boaz,Engineered Systems,21083
KY,40119,Grayson County,Falls Of Rough,Engineered Systems,21085
KY,42743,Green County,Greensburg,Engineered Systems,21087
KY,41121,Greenup County,Argillite,Engineered Systems,21089
KY,42348,Hancock County,Hawesville,Engineered Systems,21091
KY,40121,Hardin County,Fort Knox,Engineered Systems,21093
KY,40801,Harlan County,Ages Brookside,Engineered Systems,21095
KY,41003,Harrison County,Berry,Engineered Systems,21097
KY,42713,Hart County,Bonnieville,Engineered Systems,21099
KY,42334,Henderson County,Curdsville,Engineered Systems,21101
KY,40007,Henry County,Bethlehem,Engineered Systems,21103
KY,42031,Hickman County,Clinton,Engineered Systems,21105
KY,42408,Hopkins County,Dawson Springs,Engineered Systems,21107
KY,40402,Jackson County,Annville,Engineered Systems,21109
KY,40018,Jefferson County,Eastwood,Engineered Systems,21111
KY,40339,Jessamine County,Keene,Engineered Systems,21113
KY,41204,Johnson County,Boons Camp,Engineered Systems,21115
KY,41011,Kenton County,Covington,Engineered Systems,21117
KY,41643,Knott County,Lackey,Engineered Systems,21119
KY,40734,Knox County,Gray,Engineered Systems,21121
KY,42716,Larue County,Buffalo,Engineered Systems,21123
KY,40724,Laurel County,Bush,Engineered Systems,21125
KY,41124,Lawrence County,Blaine,Engineered Systems,21127
KY,41307,Lee County,Athol,Engineered Systems,21129
KY,40803,Leslie County,Asher,Engineered Systems,21131
KY,40826,Letcher County,Eolia,Engineered Systems,21133
KY,41135,Lewis County,Emerson,Engineered Systems,21135
KY,40419,Lincoln County,Crab Orchard,Engineered Systems,21137
KY,42028,Livingston County,Burna,Engineered Systems,21139
KY,42202,Logan County,Adairville,Engineered Systems,21141
KY,42038,Lyon County,Eddyville,Engineered Systems,21143
KY,40385,Madison County,Waco,Engineered Systems,21151
KY,41426,Magoffin County,Falcon,Engineered Systems,21153
KY,40009,Marion County,Bradfordsville,Engineered Systems,21155
KY,42025,Marshall County,Benton,Engineered Systems,21157
KY,41203,Martin County,Beauty,Engineered Systems,21159
KY,41034,Mason County,Dover,Engineered Systems,21161
KY,42001,McCracken County,Paducah,Engineered Systems,21145
KY,42631,McCreary County,Marshes Siding,Engineered Systems,21147
KY,42322,McLean County,Beech Grove,Engineered Systems,21149
KY,40104,Meade County,Battletown,Engineered Systems,21163
KY,40316,Menifee County,Denniston,Engineered Systems,21165
KY,40310,Mercer County,Burgin,Engineered Systems,21167
KY,42124,Metcalfe County,Beaumont,Engineered Systems,21169
KY,42133,Monroe County,Fountain Run,Engineered Systems,21171
KY,40337,Montgomery County,Jeffersonville,Engineered Systems,21173
KY,41352,Morgan County,Mize,Engineered Systems,21175
KY,42321,Muhlenberg County,Beech Creek,Engineered Systems,21177
KY,40004,Nelson County,Bardstown,Engineered Systems,21179
KY,40311,Nicholas County,Carlisle,Engineered Systems,21181
KY,42320,Ohio County,Beaver Dam,Engineered Systems,21183
KY,40010,Oldham County,Buckner,Engineered Systems,21185
KY,40355,Owen County,New Liberty,Engineered Systems,21187
KY,41314,Owsley County,Booneville,Engineered Systems,21189
KY,41006,Pendleton County,Butler,Engineered Systems,21191
KY,40981,Perry County,Saul,Engineered Systems,21193
KY,41501,Pike County,Pikeville,Engineered Systems,21195
KY,40312,Powell County,Clay City,Engineered Systems,21197
KY,42501,Pulaski County,Somerset,Engineered Systems,21199
KY,41064,Robertson County,Mount Olivet,Engineered Systems,21201
KY,40409,Rockcastle County,Brodhead,Engineered Systems,21203
KY,40313,Rowan County,Clearfield,Engineered Systems,21205
KY,42629,Russell County,Jamestown,Engineered Systems,21207
KY,40324,Scott County,Georgetown,Engineered Systems,21209
KY,40003,Shelby County,Bagdad,Engineered Systems,21211
KY,42134,Simpson County,Franklin,Engineered Systems,21213
KY,40046,Spencer County,Mount Eden,Engineered Systems,21215
KY,42718,Taylor County,Campbellsville,Engineered Systems,21217
KY,42204,Todd County,Allensville,Engineered Systems,21219
KY,42211,Trigg County,Cadiz,Engineered Systems,21221
KY,40006,Trimble County,Bedford,Engineered Systems,21223
KY,42437,Union County,Morganfield,Engineered Systems,21225
KY,42101,Warren County,Bowling Green,Engineered Systems,21227
KY,40040,Washington County,Mackville,Engineered Systems,21229
KY,42603,Wayne County,Alpha,Engineered Systems,21231
KY,42403,Webster County,Blackford,Engineered Systems,21233
KY,40701,Whitley County,Corbin,Engineered Systems,21235
KY,41301,Wolfe County,Campton,Engineered Systems,21237
KY,40347,Woodford County,Midway,Engineered Systems,21239
KY,40166,,Shepherdsville,Engineered Systems,21029
LA,70516,Acadia Parish,Branch,Open Air Products,22001
LA,70637,Allen Parish,Dry Creek,Open Air Products,22003
LA,70346,Ascension Parish,Donaldsonville,Open Air Products,22005
LA,70339,Assumption Parish,Pierre Part,Open Air Products,22007
LA,71320,Avoyelles Parish,Bordelonville,Open Air Products,22009
LA,70634,Beauregard Parish,Deridder,Open Air Products,22011
LA,71001,Bienville Parish,Arcadia,Open Air Products,22013
LA,71006,Bossier Parish,Benton,Open Air Products,22015
LA,71004,Caddo Parish,Belcher,Open Air Products,22017
LA,70601,Calcasieu Parish,Lake Charles,Open Air Products,22019
LA,71415,Caldwell Parish,Clarks,Open Air Products,22021
LA,70631,Cameron Parish,Cameron,Open Air Products,22023
LA,71340,Catahoula Parish,Harrisonburg,Open Air Products,22025
LA,71003,Claiborne Parish,Athens,Open Air Products,22027
LA,71316,Concordia Parish,Acme,Open Air Products,22029
LA,71027,De Soto Parish,Frierson,Open Air Products,22031
LA,70704,East Baton Rouge Parish,Baker,Open Air Products,22033
LA,71254,East Carroll Parish,Lake Providence,Open Air Products,22035
LA,70722,East Feliciana Parish,Clinton,Open Air Products,22037
LA,70515,Evangeline Parish,Basile,Open Air Products,22039
LA,71219,Franklin Parish,Baskin,Open Air Products,22041
LA,71407,Grant Parish,Bentley,Open Air Products,22043
LA,70513,Iberia Parish,Avery Island,Open Air Products,22045
LA,70721,Iberville Parish,Carville,Open Air Products,22047
LA,71226,Jackson Parish,Chatham,Open Air Products,22049
LA,70532,Jefferson Davis Parish,Elton,Open Air Products,22053
LA,70001,Jefferson Parish,Metairie,Open Air Products,22051
LA,70500,Lafayette Parish,Lafayette,Open Air Products,22055
LA,70301,Lafourche Parish,Thibodaux,Open Air Products,22057
LA,71342,LaSalle Parish,Jena,Open Air Products,22059
LA,71227,Lincoln Parish,Choudrant,Open Air Products,22061
LA,70449,Livingston Parish,Maurepas,Open Air Products,22063
LA,71233,Madison Parish,Delta,Open Air Products,22065
LA,71220,Morehouse Parish,Bastrop,Open Air Products,22067
LA,71002,Natchitoches Parish,Ashland,Open Air Products,22069
LA,70112,Orleans Parish,New Orleans,Open Air Products,22071
LA,71201,Ouachita Parish,Monroe,Open Air Products,22073
LA,70037,Plaquemines Parish,Belle Chasse,Open Air Products,22075
LA,70715,Pointe Coupee Parish,Batchelor,Open Air Products,22077
LA,71301,Rapides Parish,Alexandria,Open Air Products,22079
LA,71019,Red River Parish,Coushatta,Open Air Products,22081
LA,71218,Richland Parish,Archibald,Open Air Products,22083
LA,71065,Sabine Parish,Pleasant Hill,Open Air Products,22085
LA,70044,St Bernard Parish,Chalmette,Open Air Products,22087
LA,70792,St James Parish,Uncle Sam,Open Air Products,22093
LA,70521,St Martin Parish,Cecilia,Open Air Products,22099
LA,70540,St Mary Parish,Garden City,Open Air Products,22101
LA,70470,St Tammany Parish,Mandeville,Open Air Products,22103
LA,70032,St. Bernard Parish,Arabi,Open Air Products,22087
LA,70030,St. Charles Parish,Des Allemands,Open Air Products,22089
LA,70441,St. Helena Parish,Greensburg,Open Air Products,22091
LA,70052,St. James Parish,Gramercy,Open Air Products,22093
LA,70049,St. John the Baptist Parish,Edgard,Open Air Products,22095
LA,70512,St. Landry Parish,Arnaudville,Open Air Products,22097
LA,70517,St. Martin Parish,Breaux Bridge,Open Air Products,22099
LA,70340,St. Mary Parish,Amelia,Open Air Products,22101
LA,70420,St. Tammany Parish,Abita Springs,Open Air Products,22103
LA,70401,Tangipahoa Parish,Hammond,Open Air Products,22105
LA,71357,Tensas Parish,Newellton,Open Air Products,22107
LA,70343,Terrebonne Parish,Bourg,Open Air Products,22109
LA,71222,Union Parish,Bernice,Open Air Products,22111
LA,70510,Vermilion Parish,Abbeville,Open Air Products,22113
LA,70639,Vernon Parish,Evans,Open Air Products,22115
LA,70426,Washington Parish,Angie,Open Air Products,22117
LA,71018,Webster Parish,Cotton Valley,Open Air Products,22119
LA,70710,West Baton Rouge Parish,Addis,Open Air Products,22121
LA,71237,West Carroll Parish,Epps,Open Air Products,22123
LA,70712,West Feliciana Parish,Angola,Open Air Products,22125
LA,71404,Winn Parish,Atlanta,Open Air Products,22127
MA,02532,Barnstable County,Buzzards Bay,Northeast Envelope Solutions,25001
MA,01029,Berkshire County,East Otis,Northeast Envelope Solutions,25003
MA,02031,Bristol County,East Mansfield,Northeast Envelope Solutions,25005
MA,02535,Dukes County,Chilmark,Northeast Envelope Solutions,25007
MA,01810,Essex County,Andover,Northeast Envelope Solutions,25009
MA,01054,Franklin County,Leverett,Northeast Envelope Solutions,25011
MA,01001,Hampden County,Agawam,Northeast Envelope Solutions,25013
MA,01002,Hampshire County,Amherst,Northeast Envelope Solutions,25015
MA,01431,Middlesex County,Ashby,Northeast Envelope Solutions,25017
MA,02554,Nantucket County,Nantucket,Northeast Envelope Solutions,25019
MA,02019,Norfolk County,Bellingham,Northeast Envelope Solutions,25021
MA,02018,Plymouth County,Accord,Northeast Envelope Solutions,25023
MA,02108,Suffolk County,Boston,Northeast Envelope Solutions,25025
MA,01005,Worcester County,Barre,Northeast Envelope Solutions,25027
MD,21501,Allegany County,Cumberland,MCQ-WBS,24001
MD,20701,Anne Arundel County,Annapolis Junction,MCQ-WBS,24003
MD,21201,Baltimore County,Baltimore,MCQ-WBS,24005
MD,21013,Baltimore County,Baldwin,MCQ-WBS,24005
MD,20610,Calvert County,Barstow,MCQ-WBS,24009
MD,21609,Caroline County,Bethlehem,MCQ-WBS,24011
MD,21048,Carroll County,Finksburg,MCQ-WBS,24013
MD,21901,Cecil County,North East,MCQ-WBS,24015
MD,20601,Charles County,Waldorf,MCQ-WBS,24017
MD,21613,Dorchester County,Cambridge,MCQ-WBS,24019
MD,21701,Frederick County,Frederick,MCQ-WBS,24021
MD,21520,Garrett County,Accident,MCQ-WBS,24023
MD,21001,Harford County,Aberdeen,MCQ-WBS,24025
MD,20588,Howard County,Dhs,MCQ-WBS,24027
MD,21610,Kent County,Betterton,MCQ-WBS,24029
MD,20810,Montgomery County,Bethesda,MCQ-WBS,24031
MD,20607,Prince George's County,Accokeek,MCQ-WBS,24033
MD,21607,Queen Anne's County,Barclay,MCQ-WBS,24035
MD,21817,Somerset County,Crisfield,MCQ-WBS,24039
MD,20635,Saint Mary's County,Helen,MCQ-WBS,24037
MD,20606,St. Mary's County,Abell,MCQ-WBS,24037
MD,21601,Talbot County,Easton,MCQ-WBS,24041
MD,21711,Washington County,Big Pool,MCQ-WBS,24043
MD,21801,Wicomico County,Salisbury,MCQ-WBS,24045
MD,21811,Worcester County,Berlin,MCQ-WBS,24047
ME,04210,Androscoggin County,Auburn,Northeast Envelope Solutions,23001
ME,04471,Aroostook County,Orient,Northeast Envelope Solutions,23003
ME,04003,Cumberland County,Bailey Island,Northeast Envelope Solutions,23005
ME,04225,Franklin County,Dryden,Northeast Envelope Solutions,23007
ME,04408,Hancock County,Aurora,Northeast Envelope Solutions,23009
ME,04259,Kennebec County,Monmouth,Northeast Envelope Solutions,23011
ME,04547,Knox County,Friendship,Northeast Envelope Solutions,23013
ME,04341,Lincoln County,Coopers Mills,Northeast Envelope Solutions,23015
ME,04010,Oxford County,Brownfield,Northeast Envelope Solutions,23017
ME,04401,Penobscot County,Bangor,Northeast Envelope Solutions,23019
ME,04406,Piscataquis County,Abbot,Northeast Envelope Solutions,23021
ME,04008,Sagadahoc County,Bowdoinham,Northeast Envelope Solutions,23023
ME,04478,Somerset County,Rockwood,Northeast Envelope Solutions,23025
ME,04354,Waldo County,Palermo,Northeast Envelope Solutions,23027
ME,04413,Washington County,Brookton,Northeast Envelope Solutions,23029
ME,03901,York County,Berwick,Northeast Envelope Solutions,23031
MI,48705,Alcona County,Barton City,Engineered Systems,26001
MI,49806,Alger County,Au Train,Northstar Sales Associates,26003
MI,49010,Allegan County,Allegan,Engineered Systems,26005
MI,49707,Alpena County,Alpena,Engineered Systems,26007
MI,49611,Antrim County,Alba,Engineered Systems,26009
MI,48658,Arenac County,Standish,Engineered Systems,26011
MI,49908,Baraga County,Baraga,Northstar Sales Associates,26013
MI,48897,Barry County,Woodland,Engineered Systems,26015
MI,48611,Bay County,Auburn,Engineered Systems,26017
MI,49616,Benzie County,Benzonia,Engineered Systems,26019
MI,49022,Berrien County,Benton Harbor,Engineered Systems,26021
MI,49028,Branch County,Bronson,Engineered Systems,26023
MI,49011,Calhoun County,Athens,Engineered Systems,26025
MI,49031,Cass County,Cassopolis,Engineered Systems,26027
MI,49711,Charlevoix County,Bay Shore,Engineered Systems,26029
MI,49705,Cheboygan County,Afton,Engineered Systems,26031
MI,49710,Chippewa County,Barbeau,Northstar Sales Associates,26033
MI,48617,Clare County,Clare,Engineered Systems,26035
MI,48808,Clinton County,Bath,Engineered Systems,26037
MI,49733,Crawford County,Frederic,Engineered Systems,26039
MI,49807,Delta County,Bark River,Northstar Sales Associates,26041
MI,49801,Dickinson County,Iron Mountain,Northstar Sales Associates,26043
MI,48813,Eaton County,Charlotte,Engineered Systems,26045
MI,49701,Emmet County,Mackinaw City,Engineered Systems,26047
MI,48411,Genesee County,Atlas,Engineered Systems,26049
MI,48612,Gladwin County,Beaverton,Engineered Systems,26051
MI,49911,Gogebic County,Bessemer,Northstar Sales Associates,26053
MI,49610,Grand Traverse County,Acme,Engineered Systems,26055
MI,48615,Gratiot County,Breckenridge,Engineered Systems,26057
MI,49227,Hillsdale County,Allen,Engineered Systems,26059
MI,49905,Houghton County,Atlantic Mine,Northstar Sales Associates,26061
MI,48413,Huron County,Bad Axe,Engineered Systems,26063
MI,48805,Ingham County,Okemos,Engineered Systems,26065
MI,48809,Ionia County,Belding,Engineered Systems,26067
MI,48730,Iosco County,East Tawas,Engineered Systems,26069
MI,49902,Iron County,Alpha,Northstar Sales Associates,26071
MI,48804,Isabella County,Mount Pleasant,Engineered Systems,26073
MI,49201,Jackson County,Jackson,Engineered Systems,26075
MI,49001,Kalamazoo County,Kalamazoo,Engineered Systems,26077
MI,49633,Kalkaska County,Fife Lake,Engineered Systems,26079
MI,49301,Kent County,Ada,Engineered Systems,26081
MI,49805,Keweenaw County,Allouez,Northstar Sales Associates,26083
MI,49304,Lake County,Baldwin,Engineered Systems,26085
MI,48003,Lapeer County,Almont,Engineered Systems,26087
MI,49621,Leelanau County,Cedar,Engineered Systems,26089
MI,49220,Lenawee County,Addison,Engineered Systems,26091
MI,48114,Livingston County,Brighton,Engineered Systems,26093
MI,49853,Luce County,Mc Millan,Northstar Sales Associates,26095
MI,49719,Mackinac County,Cedarville,Northstar Sales Associates,26097
MI,48005,Macomb County,Armada,Engineered Systems,26099
MI,49613,Manistee County,Arcadia,Engineered Systems,26101
MI,49808,Marquette County,Big Bay,Northstar Sales Associates,26103
MI,49402,Mason County,Branch,Engineered Systems,26105
MI,49305,Mecosta County,Barryton,Engineered Systems,26107
MI,49812,Menominee County,Carney,Northstar Sales Associates,26109
MI,48618,Midland County,Coleman,Engineered Systems,26111
MI,49632,Missaukee County,Falmouth,Engineered Systems,26113
MI,48110,Monroe County,Azalia,Engineered Systems,26115
MI,48811,Montcalm County,Carson City,Engineered Systems,26117
MI,49709,Montmorency County,Atlanta,Engineered Systems,26119
MI,49303,Muskegon County,Bailey,Engineered Systems,26121
MI,49309,Newaygo County,Bitely,Engineered Systems,26123
MI,48007,Oakland County,Troy,Engineered Systems,26125
MI,49420,Oceana County,Hart,Engineered Systems,26127
MI,48610,Ogemaw County,Alger,Engineered Systems,26129
MI,49910,Ontonagon County,Bergland,Northstar Sales Associates,26131
MI,49631,Osceola County,Evart,Engineered Systems,26133
MI,48619,Oscoda County,Comins,Engineered Systems,26135
MI,49734,Otsego County,Gaylord,Engineered Systems,26137
MI,49401,Ottawa County,Allendale,Engineered Systems,26139
MI,49743,Presque Isle County,Hawks,Engineered Systems,26141
MI,48627,Roscommon County,Higgins Lake,Engineered Systems,26143
MI,48415,Saginaw County,Birch Run,Engineered Systems,26145
MI,48401,Sanilac County,Applegate,Engineered Systems,26151
MI,49817,Schoolcraft County,Cooks,Northstar Sales Associates,26153
MI,48414,Shiawassee County,Bancroft,Engineered Systems,26155
MI,48001,Saint Clair County,Algonac,Engineered Systems,26147
MI,49030,Saint Joseph County,Burr Oak,Engineered Systems,26149
MI,48435,Tuscola County,Fostoria,Engineered Systems,26157
MI,49013,Van Buren County,Bangor,Engineered Systems,26159
MI,48103,Washtenaw County,Ann Arbor,Engineered Systems,26161
MI,48101,Wayne County,Allen Park,Engineered Systems,26163
MI,49601,Wexford County,Cadillac,Engineered Systems,26165
MN,55748,Aitkin County,Hill City,Northstar Sales Associates,27001
MN,55005,Anoka County,Bethel,Northstar Sales Associates,27003
MN,56501,Becker County,Detroit Lakes,Northstar Sales Associates,27005
MN,56601,Beltrami County,Bemidji,Northstar Sales Associates,27007
MN,56329,Benton County,Foley,Northstar Sales Associates,27009
MN,56210,Big Stone County,Barry,Northstar Sales Associates,27011
MN,56001,Blue Earth County,Mankato,Northstar Sales Associates,27013
MN,56019,Brown County,Comfrey,Northstar Sales Associates,27015
MN,55707,Carlton County,Barnum,Northstar Sales Associates,27017
MN,55315,Carver County,Carver,Northstar Sales Associates,27019
MN,56430,Cass County,Ah Gwah Ching,Northstar Sales Associates,27021
MN,56222,Chippewa County,Clara City,Northstar Sales Associates,27023
MN,55002,Chisago County,Almelund,Northstar Sales Associates,27025
MN,56514,Clay County,Barnesville,Northstar Sales Associates,27027
MN,56621,Clearwater County,Bagley,Northstar Sales Associates,27029
MN,55604,Cook County,Grand Marais,Northstar Sales Associates,27031
MN,56101,Cottonwood County,Windom,Northstar Sales Associates,27033
MN,56401,Crow Wing County,Brainerd,Northstar Sales Associates,27035
MN,55010,Dakota County,Castle Rock,Northstar Sales Associates,27037
MN,55924,Dodge County,Claremont,Northstar Sales Associates,27039
MN,56308,Douglas County,Alexandria,Northstar Sales Associates,27041
MN,56013,Faribault County,Blue Earth,Northstar Sales Associates,27043
MN,55922,Fillmore County,Canton,Northstar Sales Associates,27045
MN,56007,Freeborn County,Albert Lea,Northstar Sales Associates,27047
MN,55009,Goodhue County,Cannon Falls,Northstar Sales Associates,27049
MN,56248,Grant County,Herman,Northstar Sales Associates,27051
MN,55111,Hennepin County,Saint Paul,Northstar Sales Associates,27053
MN,55919,Houston County,Brownsville,Northstar Sales Associates,27055
MN,56433,Hubbard County,Akeley,Northstar Sales Associates,27057
MN,55006,Isanti County,Braham,Northstar Sales Associates,27059
MN,55709,Itasca County,Bovey,Northstar Sales Associates,27061
MN,56111,Jackson County,Alpha,Northstar Sales Associates,27063
MN,55007,Kanabec County,Brook Park,Northstar Sales Associates,27065
MN,56201,Kandiyohi County,Willmar,Northstar Sales Associates,27067
MN,56720,Kittson County,Donaldson,Northstar Sales Associates,27069
MN,55772,Koochiching County,Nett Lake,Northstar Sales Associates,27071
MN,56212,Lac qui Parle County,Bellingham,Northstar Sales Associates,27073
MN,55601,Lake County,Beaver Bay,Northstar Sales Associates,27075
MN,56623,Lake of the Woods County,Baudette,Northstar Sales Associates,27077
MN,56017,Le Sueur County,Cleveland,Northstar Sales Associates,27079
MN,56113,Lincoln County,Arco,Northstar Sales Associates,27081
MN,56115,Lyon County,Balaton,Northstar Sales Associates,27083
MN,56516,Mahnomen County,Bejou,Northstar Sales Associates,27087
MN,56710,Marshall County,Alvarado,Northstar Sales Associates,27089
MN,56031,Martin County,Fairmont,Northstar Sales Associates,27091
MN,55312,McLeod County,Brownton,Northstar Sales Associates,27085
MN,55324,Meeker County,Darwin,Northstar Sales Associates,27093
MN,55371,Mille Lacs County,Princeton,Northstar Sales Associates,27095
MN,56314,Morrison County,Bowlus,Northstar Sales Associates,27097
MN,55909,Mower County,Adams,Northstar Sales Associates,27099
MN,56114,Murray County,Avoca,Northstar Sales Associates,27101
MN,56003,Nicollet County,Mankato,Northstar Sales Associates,27103
MN,56110,Nobles County,Adrian,Northstar Sales Associates,27105
MN,56510,Norman County,Ada,Northstar Sales Associates,27107
MN,55901,Olmsted County,Rochester,Northstar Sales Associates,27109
MN,56324,Otter Tail County,Dalton,Northstar Sales Associates,27111
MN,56701,Pennington County,Thief River Falls,Northstar Sales Associates,27113
MN,55030,Pine County,Grasston,Northstar Sales Associates,27115
MN,56128,Pipestone County,Edgerton,Northstar Sales Associates,27117
MN,56517,Polk County,Beltrami,Northstar Sales Associates,27119
MN,56323,Pope County,Cyrus,Northstar Sales Associates,27121
MN,55101,Ramsey County,Saint Paul,Northstar Sales Associates,27123
MN,56715,Red Lake County,Brooks,Northstar Sales Associates,27125
MN,56083,Redwood County,Sanborn,Northstar Sales Associates,27127
MN,55310,Renville County,Bird Island,Northstar Sales Associates,27129
MN,55019,Rice County,Dundas,Northstar Sales Associates,27131
MN,56116,Rock County,Beaver Creek,Northstar Sales Associates,27133
MN,56673,Roseau County,Roosevelt,Northstar Sales Associates,27135
MN,55020,Scott County,Elko New Market,Northstar Sales Associates,27139
MN,55308,Sherburne County,Becker,Northstar Sales Associates,27141
MN,55307,Sibley County,Arlington,Northstar Sales Associates,27143
MN,55701,Saint Louis County,Adolph,Northstar Sales Associates,27137
MN,55602,St. Louis County,Brimson,Northstar Sales Associates,27137
MN,55353,Stearns County,Kimball,Northstar Sales Associates,27145
MN,55049,Steele County,Medford,Northstar Sales Associates,27147
MN,56207,Stevens County,Alberta,Northstar Sales Associates,27149
MN,56208,Swift County,Appleton,Northstar Sales Associates,27151
MN,56318,Todd County,Burtrum,Northstar Sales Associates,27153
MN,56219,Traverse County,Browns Valley,Northstar Sales Associates,27155
MN,55041,Wabasha County,Lake City,Northstar Sales Associates,27157
MN,56464,Wadena County,Menahga,Northstar Sales Associates,27159
MN,56048,Waseca County,Janesville,Northstar Sales Associates,27161
MN,55001,Washington County,Afton,Northstar Sales Associates,27163
MN,56022,Watonwan County,Darfur,Northstar Sales Associates,27165
MN,56520,Wilkin County,Breckenridge,Northstar Sales Associates,27167
MN,55910,Winona County,Altura,Northstar Sales Associates,27169
MN,55301,Wright County,Albertville,Northstar Sales Associates,27171
MN,56220,Yellow Medicine County,Canby,Northstar Sales Associates,27173
MO,63501,Adair County,Kirksville,GIE Ltd.,29001
MO,64421,Andrew County,Amazonia,GIE Ltd.,29003
MO,64446,Atchison County,Fairfax,GIE Ltd.,29005
MO,63345,Audrain County,Farber,GIE Ltd.,29007
MO,64874,Barry County,Wheaton,GIE Ltd.,29009
MO,64748,Barton County,Golden City,GIE Ltd.,29011
MO,64720,Bates County,Adrian,GIE Ltd.,29013
MO,65325,Benton County,Cole Camp,GIE Ltd.,29015
MO,63662,Bollinger County,Patton,GIE Ltd.,29017
MO,65010,Boone County,Ashland,GIE Ltd.,29019
MO,64401,Buchanan County,Agency,GIE Ltd.,29021
MO,63901,Butler County,Poplar Bluff,GIE Ltd.,29023
MO,64624,Caldwell County,Braymer,GIE Ltd.,29025
MO,63388,Callaway County,Williamsburg,GIE Ltd.,29027
MO,65020,Camden County,Camdenton,GIE Ltd.,29029
MO,63701,Cape Girardeau County,Cape Girardeau,GIE Ltd.,29031
MO,64622,Carroll County,Bogard,GIE Ltd.,29033
MO,63937,Carter County,Ellsinore,GIE Ltd.,29035
MO,64012,Cass County,Belton,GIE Ltd.,29037
MO,64744,Cedar County,El Dorado Springs,GIE Ltd.,29039
MO,64660,Chariton County,Mendon,GIE Ltd.,29041
MO,65610,Christian County,Billings,GIE Ltd.,29043
MO,63430,Clark County,Alexandria,GIE Ltd.,29045
MO,64024,Clay County,Excelsior Springs,GIE Ltd.,29047
MO,64429,Clinton County,Cameron,GIE Ltd.,29049
MO,65023,Cole County,Centertown,GIE Ltd.,29051
MO,65068,Cooper County,Prairie Home,GIE Ltd.,29053
MO,65441,Crawford County,Bourbon,GIE Ltd.,29055
MO,65603,Dade County,Arcola,GIE Ltd.,29057
MO,65590,Dallas County,Long Lane,GIE Ltd.,29059
MO,64620,Daviess County,Altamont,GIE Ltd.,29061
MO,64422,DeKalb County,Amity,GIE Ltd.,29063
MO,65440,Dent County,Boss,GIE Ltd.,29065
MO,65608,Douglas County,Ava,GIE Ltd.,29067
MO,63821,Dunklin County,Arbyrd,GIE Ltd.,29069
MO,63013,Franklin County,Beaufort,GIE Ltd.,29071
MO,63091,Gasconade County,Rosebud,GIE Ltd.,29073
MO,64402,Gentry County,Albany,GIE Ltd.,29075
MO,65604,Greene County,Ash Grove,GIE Ltd.,29077
MO,64641,Grundy County,Galt,GIE Ltd.,29079
MO,64424,Harrison County,Bethany,GIE Ltd.,29081
MO,64726,Henry County,Blairstown,GIE Ltd.,29083
MO,65634,Hickory County,Cross Timbers,GIE Ltd.,29085
MO,64437,Holt County,Craig,GIE Ltd.,29087
MO,65230,Howard County,Armstrong,GIE Ltd.,29089
MO,65548,Howell County,Mountain View,GIE Ltd.,29091
MO,63620,Iron County,Annapolis,GIE Ltd.,29093
MO,64002,Jackson County,Lees Summit,GIE Ltd.,29095
MO,64755,Jasper County,Jasper,GIE Ltd.,29097
MO,63010,Jefferson County,Arnold,GIE Ltd.,29099
MO,64019,Johnson County,Centerview,GIE Ltd.,29101
MO,63446,Knox County,Knox City,GIE Ltd.,29103
MO,65463,Laclede County,Eldridge,GIE Ltd.,29105
MO,64001,Lafayette County,Alma,GIE Ltd.,29107
MO,64848,Lawrence County,La Russell,GIE Ltd.,29109
MO,63435,Lewis County,Canton,GIE Ltd.,29111
MO,63343,Lincoln County,Elsberry,GIE Ltd.,29113
MO,63557,Linn County,New Boston,GIE Ltd.,29115
MO,64601,Livingston County,Chillicothe,GIE Ltd.,29117
MO,63431,Macon County,Anabel,GIE Ltd.,29121
MO,63645,Madison County,Fredericktown,GIE Ltd.,29123
MO,65013,Maries County,Belle,GIE Ltd.,29125
MO,63401,Marion County,Hannibal,GIE Ltd.,29127
MO,64831,McDonald County,Anderson,GIE Ltd.,29119
MO,64661,Mercer County,Mercer,GIE Ltd.,29129
MO,65017,Miller County,Brumley,GIE Ltd.,29131
MO,63820,Mississippi County,Anniston,GIE Ltd.,29133
MO,65018,Moniteau County,California,GIE Ltd.,29135
MO,63456,Monroe County,Monroe City,GIE Ltd.,29137
MO,63333,Montgomery County,Bellflower,GIE Ltd.,29139
MO,65011,Morgan County,Barnett,GIE Ltd.,29141
MO,63828,New Madrid County,Canalou,GIE Ltd.,29143
MO,64840,Newton County,Diamond,GIE Ltd.,29145
MO,64423,Nodaway County,Barnard,GIE Ltd.,29147
MO,65606,Oregon County,Alton,GIE Ltd.,29149
MO,65001,Osage County,Argyle,GIE Ltd.,29151
MO,65609,Ozark County,Bakersfield,GIE Ltd.,29153
MO,63826,Pemiscot County,Braggadocio,GIE Ltd.,29155
MO,63732,Perry County,Altenburg,GIE Ltd.,29157
MO,65301,Pettis County,Sedalia,GIE Ltd.,29159
MO,65401,Phelps County,Rolla,GIE Ltd.,29161
MO,63330,Pike County,Annada,GIE Ltd.,29163
MO,64018,Platte County,Camden Point,GIE Ltd.,29165
MO,65601,Polk County,Aldrich,GIE Ltd.,29167
MO,65452,Pulaski County,Crocker,GIE Ltd.,29169
MO,63551,Putnam County,Livonia,GIE Ltd.,29171
MO,63436,Ralls County,Center,GIE Ltd.,29173
MO,65239,Randolph County,Cairo,GIE Ltd.,29175
MO,64017,Ray County,Camden,GIE Ltd.,29177
MO,63625,Reynolds County,Black,GIE Ltd.,29179
MO,63931,Ripley County,Briar,GIE Ltd.,29181
MO,65320,Saline County,Arrow Rock,GIE Ltd.,29195
MO,63535,Schuyler County,Coatsville,GIE Ltd.,29197
MO,63432,Scotland County,Arbela,GIE Ltd.,29199
MO,63736,Scott County,Benton,GIE Ltd.,29201
MO,65438,Shannon County,Birch Tree,GIE Ltd.,29203
MO,63434,Shelby County,Bethel,GIE Ltd.,29205
MO,63651,St Francois County,Knob Lick,GIE Ltd.,29187
MO,63145,St Louis County,Saint Louis,GIE Ltd.,29189
MO,63301,Saint Charles County,Saint Charles,GIE Ltd.,29183
MO,64724,Saint Clair County,Appleton City,GIE Ltd.,29185
MO,63036,Saint Francois County,French Village,GIE Ltd.,29187
MO,63101,St. Louis city,Saint Louis,GIE Ltd.,29510
MO,63001,St. Louis County,Allenton,GIE Ltd.,29189
MO,63627,Sainte Genevieve County,Bloomsdale,GIE Ltd.,29186
MO,63730,Stoddard County,Advance,GIE Ltd.,29207
MO,65611,Stone County,Blue Eye,GIE Ltd.,29209
MO,63544,Sullivan County,Green Castle,GIE Ltd.,29211
MO,65614,Taney County,Bradleyville,GIE Ltd.,29213
MO,65444,Texas County,Bucyrus,GIE Ltd.,29215
MO,64728,Vernon County,Bronaugh,GIE Ltd.,29217
MO,63342,Warren County,Dutzow,GIE Ltd.,29219
MO,63030,Washington County,Fletcher,GIE Ltd.,29221
MO,63632,Wayne County,Cascade,GIE Ltd.,29223
MO,65636,Webster County,Diggins,GIE Ltd.,29225
MO,64420,Worth County,Allendale,GIE Ltd.,29227
MO,65660,Wright County,Graff,GIE Ltd.,29229
MO,64162,,Kansas City,GIE Ltd.,29095
MS,39120,Adams County,Natchez,Open Air Products,28001
MS,38834,Alcorn County,Corinth,Open Air Products,28003
MS,39638,Amite County,Gloster,Open Air Products,28005
MS,39067,Attala County,Ethel,Open Air Products,28007
MS,38603,Benton County,Ashland,Open Air Products,28009
MS,38702,Bolivar County,Greenville,Open Air Products,28011
MS,38839,Calhoun County,Derma,Open Air Products,28013
MS,38917,Carroll County,Carrollton,Open Air Products,28015
MS,38850,Chickasaw County,Houlka,Open Air Products,28017
MS,39735,Choctaw County,Ackerman,Open Air Products,28019
MS,39086,Claiborne County,Hermanville,Open Air Products,28021
MS,39330,Clarke County,Enterprise,Open Air Products,28023
MS,39741,Clay County,Cedarbluff,Open Air Products,28025
MS,38614,Coahoma County,Clarksdale,Open Air Products,28027
MS,39059,Copiah County,Crystal Springs,Open Air Products,28029
MS,39119,Covington County,Mount Olive,Open Air Products,28031
MS,38632,DeSoto County,Hernando,Open Air Products,28033
MS,39401,Forrest County,Hattiesburg,Open Air Products,28035
MS,39630,Franklin County,Bude,Open Air Products,28037
MS,39452,George County,Lucedale,Open Air Products,28039
MS,39451,Greene County,Leakesville,Open Air Products,28041
MS,38901,Grenada County,Grenada,Open Air Products,28043
MS,39520,Hancock County,Bay Saint Louis,Open Air Products,28045
MS,39501,Harrison County,Gulfport,Open Air Products,28047
MS,39041,Hinds County,Bolton,Open Air Products,28049
MS,38924,Holmes County,Cruger,Open Air Products,28051
MS,38754,Humphreys County,Isola,Open Air Products,28053
MS,38704,Issaquena County,Greenville,Open Air Products,28055
MS,38843,Itawamba County,Fulton,Open Air Products,28057
MS,39552,Jackson County,Escatawpa,Open Air Products,28059
MS,39338,Jasper County,Louin,Open Air Products,28061
MS,39069,Jefferson County,Fayette,Open Air Products,28063
MS,39421,Jefferson Davis County,Bassfield,Open Air Products,28065
MS,39436,Jones County,Eastabuchie,Open Air Products,28067
MS,39328,Kemper County,De Kalb,Open Air Products,28069
MS,38601,Lafayette County,Abbeville,Open Air Products,28071
MS,39402,Lamar County,Hattiesburg,Open Air Products,28073
MS,39301,Lauderdale County,Meridian,Open Air Products,28075
MS,39140,Lawrence County,Newhebron,Open Air Products,28077
MS,39051,Leake County,Carthage,Open Air Products,28079
MS,38801,Lee County,Tupelo,Open Air Products,28081
MS,38930,Leflore County,Greenwood,Open Air Products,28083
MS,39601,Lincoln County,Brookhaven,Open Air Products,28085
MS,39701,Lowndes County,Columbus,Open Air Products,28087
MS,39045,Madison County,Camden,Open Air Products,28089
MS,39429,Marion County,Columbia,Open Air Products,28091
MS,38611,Marshall County,Byhalia,Open Air Products,28093
MS,38821,Monroe County,Amory,Open Air Products,28095
MS,38925,Montgomery County,Duck Hill,Open Air Products,28097
MS,39350,Neshoba County,Philadelphia,Open Air Products,28099
MS,39057,Newton County,Conehatta,Open Air Products,28101
MS,39341,Noxubee County,Macon,Open Air Products,28103
MS,39759,Oktibbeha County,Starkville,Open Air Products,28105
MS,38606,Panola County,Batesville,Open Air Products,28107
MS,39426,Pearl River County,Carriere,Open Air Products,28109
MS,39423,Perry County,Beaumont,Open Air Products,28111
MS,39632,Pike County,Chatawa,Open Air Products,28113
MS,38820,Pontotoc County,Algoma,Open Air Products,28115
MS,38824,Prentiss County,Baldwyn,Open Air Products,28117
MS,38609,Quitman County,Marks,Open Air Products,28119
MS,39042,Rankin County,Brandon,Open Air Products,28121
MS,39074,Scott County,Forest,Open Air Products,28123
MS,38721,Sharkey County,Anguilla,Open Air Products,28125
MS,39044,Simpson County,Braxton,Open Air Products,28127
MS,39116,Smith County,Mize,Open Air Products,28129
MS,39561,Stone County,Mc Henry,Open Air Products,28131
MS,38736,Sunflower County,Doddsville,Open Air Products,28133
MS,38920,Tallahatchie County,Cascilla,Open Air Products,28135
MS,38602,Tate County,Arkabutla,Open Air Products,28137
MS,38610,Tippah County,Blue Mountain,Open Air Products,28139
MS,38827,Tishomingo County,Belmont,Open Air Products,28141
MS,38626,Tunica County,Dundee,Open Air Products,28143
MS,38627,Union County,Etta,Open Air Products,28145
MS,39667,Walthall County,Tylertown,Open Air Products,28147
MS,39156,Warren County,Redwood,Open Air Products,28149
MS,38701,Washington County,Greenville,Open Air Products,28151
MS,39322,Wayne County,Buckatunna,Open Air Products,28153
MS,38955,Webster County,Slate Spring,Open Air Products,28155
MS,39631,Wilkinson County,Centreville,Open Air Products,28157
MS,39339,Winston County,Louisville,Open Air Products,28159
MS,38922,Yalobusha County,Coffeeville,Open Air Products,28161
MS,39039,Yazoo County,Benton,Open Air Products,28163
MT,59724,Beaverhead County,Dell,Palmer Marketing Inc,30001
MT,59016,Big Horn County,Busby,Palmer Marketing Inc,30003
MT,59523,Blaine County,Chinook,Palmer Marketing Inc,30005
MT,59641,Broadwater County,Radersburg,Palmer Marketing Inc,30007
MT,59007,Carbon County,Bearcreek,Palmer Marketing Inc,30009
MT,59311,Carter County,Alzada,Palmer Marketing Inc,30011
MT,59401,Cascade County,Great Falls,Palmer Marketing Inc,30013
MT,59420,Chouteau County,Carter,Palmer Marketing Inc,30015
MT,59301,Custer County,Miles City,Palmer Marketing Inc,30017
MT,59222,Daniels County,Flaxville,Palmer Marketing Inc,30019
MT,59259,Dawson County,Richey,Palmer Marketing Inc,30021
MT,59711,Deer Lodge County,Anaconda,Palmer Marketing Inc,30023
MT,59313,Fallon County,Baker,Palmer Marketing Inc,30025
MT,59032,Fergus County,Grass Range,Palmer Marketing Inc,30027
MT,59901,Flathead County,Kalispell,Palmer Marketing Inc,30029
MT,59714,Gallatin County,Belgrade,Palmer Marketing Inc,30031
MT,59058,Garfield County,Mosby,Palmer Marketing Inc,30033
MT,59411,Glacier County,Babb,Palmer Marketing Inc,30035
MT,59046,Golden Valley County,Lavina,Palmer Marketing Inc,30037
MT,59832,Granite County,Drummond,Palmer Marketing Inc,30039
MT,59501,Hill County,Havre,Palmer Marketing Inc,30041
MT,59631,Jefferson County,Basin,Palmer Marketing Inc,30043
MT,59418,Judith Basin County,Buffalo,Palmer Marketing Inc,30045
MT,59821,Lake County,Arlee,Palmer Marketing Inc,30047
MT,59410,Lewis and Clark County,Augusta,Palmer Marketing Inc,30049
MT,59444,Liberty County,Galata,Palmer Marketing Inc,30051
MT,59917,Lincoln County,Eureka,Palmer Marketing Inc,30053
MT,59710,Madison County,Alder,Palmer Marketing Inc,30057
MT,59214,McCone County,Brockway,Palmer Marketing Inc,30055
MT,59053,Meagher County,Martinsdale,Palmer Marketing Inc,30059
MT,59820,Mineral County,Alberton,Palmer Marketing Inc,30061
MT,59801,Missoula County,Missoula,Palmer Marketing Inc,30063
MT,59054,Musselshell County,Melstone,Palmer Marketing Inc,30065
MT,59018,Park County,Clyde Park,Palmer Marketing Inc,30067
MT,59084,Petroleum County,Teigen,Palmer Marketing Inc,30069
MT,59261,Phillips County,Saco,Palmer Marketing Inc,30071
MT,59416,Pondera County,Brady,Palmer Marketing Inc,30073
MT,59062,Powder River County,Otter,Palmer Marketing Inc,30075
MT,59713,Powell County,Avon,Palmer Marketing Inc,30077
MT,59326,Prairie County,Fallon,Palmer Marketing Inc,30079
MT,59827,Ravalli County,Conner,Palmer Marketing Inc,30081
MT,59217,Richland County,Crane,Palmer Marketing Inc,30083
MT,59201,Roosevelt County,Wolf Point,Palmer Marketing Inc,30085
MT,59003,Rosebud County,Ashland,Palmer Marketing Inc,30087
MT,59831,Sanders County,Dixon,Palmer Marketing Inc,30089
MT,59211,Sheridan County,Antelope,Palmer Marketing Inc,30091
MT,59701,Silver Bow County,Butte,Palmer Marketing Inc,30093
MT,59001,Stillwater County,Absarokee,Palmer Marketing Inc,30095
MT,59011,Sweet Grass County,Big Timber,Palmer Marketing Inc,30097
MT,59419,Teton County,Bynum,Palmer Marketing Inc,30099
MT,59435,Toole County,Ethridge,Palmer Marketing Inc,30101
MT,59010,Treasure County,Bighorn,Palmer Marketing Inc,30103
MT,59225,Valley County,Frazer,Palmer Marketing Inc,30105
MT,59036,Wheatland County,Harlowton,Palmer Marketing Inc,30107
MT,59353,Wibaux County,Wibaux,Palmer Marketing Inc,30109
MT,59002,Yellowstone County,Acton,Palmer Marketing Inc,30111
NC,27201,Alamance County,Alamance,Pro-Fit Sales Associates,37001
NC,28636,Alexander County,Hiddenite,Pro-Fit Sales Associates,37003
NC,28623,Alleghany County,Ennice,Pro-Fit Sales Associates,37005
NC,28007,Anson County,Ansonville,Pro-Fit Sales Associates,37007
NC,28615,Ashe County,Creston,Pro-Fit Sales Associates,37009
NC,28616,Avery County,Crossnore,Pro-Fit Sales Associates,37011
NC,27806,Beaufort County,Aurora,Pro-Fit Sales Associates,37013
NC,27805,Bertie County,Aulander,Pro-Fit Sales Associates,37015
NC,28320,Bladen County,Bladenboro,Pro-Fit Sales Associates,37017
NC,28420,Brunswick County,Ash,Pro-Fit Sales Associates,37019
NC,28701,Buncombe County,Alexander,Pro-Fit Sales Associates,37021
NC,28612,Burke County,Connelly Springs,Pro-Fit Sales Associates,37023
NC,28025,Cabarrus County,Concord,Pro-Fit Sales Associates,37025
NC,28611,Caldwell County,Collettsville,Pro-Fit Sales Associates,37027
NC,27921,Camden County,Camden,Pro-Fit Sales Associates,37029
NC,28511,Carteret County,Atlantic,Pro-Fit Sales Associates,37031
NC,27212,Caswell County,Blanch,Pro-Fit Sales Associates,37033
NC,28601,Catawba County,Hickory,Pro-Fit Sales Associates,37035
NC,27207,Chatham County,Bear Creek,Pro-Fit Sales Associates,37037
NC,28901,Cherokee County,Andrews,Pro-Fit Sales Associates,37039
NC,27932,Chowan County,Edenton,Pro-Fit Sales Associates,37041
NC,28902,Clay County,Brasstown,Pro-Fit Sales Associates,37043
NC,28017,Cleveland County,Boiling Springs,Pro-Fit Sales Associates,37045
NC,28423,Columbus County,Bolton,Pro-Fit Sales Associates,37047
NC,28519,Craven County,Bridgeton,Pro-Fit Sales Associates,37049
NC,28301,Cumberland County,Fayetteville,Pro-Fit Sales Associates,37051
NC,27916,Currituck County,Aydlett,Pro-Fit Sales Associates,37053
NC,27915,Dare County,Avon,Pro-Fit Sales Associates,37055
NC,27239,Davidson County,Denton,Pro-Fit Sales Associates,37057
NC,27006,Davie County,Advance,Pro-Fit Sales Associates,37059
NC,28325,Duplin County,Calypso,Pro-Fit Sales Associates,37061
NC,27503,Durham County,Bahama,Pro-Fit Sales Associates,37063
NC,27801,Edgecombe County,Rocky Mount,Pro-Fit Sales Associates,37065
NC,27009,Forsyth County,Belews Creek,Pro-Fit Sales Associates,37067
NC,27508,Franklin County,Bunn,Pro-Fit Sales Associates,37069
NC,28006,Gaston County,Alexis,Pro-Fit Sales Associates,37071
NC,27926,Gates County,Corapeake,Pro-Fit Sales Associates,37073
NC,28702,Graham County,Almond,Pro-Fit Sales Associates,37075
NC,27507,Granville County,Bullock,Pro-Fit Sales Associates,37077
NC,27888,Greene County,Walstonburg,Pro-Fit Sales Associates,37079
NC,27214,Guilford County,Browns Summit,Pro-Fit Sales Associates,37081
NC,27823,Halifax County,Enfield,Pro-Fit Sales Associates,37083
NC,27501,Harnett County,Angier,Pro-Fit Sales Associates,37085
NC,28716,Haywood County,Canton,Pro-Fit Sales Associates,37087
NC,28710,Henderson County,Bat Cave,Pro-Fit Sales Associates,37089
NC,27818,Hertford County,Como,Pro-Fit Sales Associates,37091
NC,28376,Hoke County,Raeford,Pro-Fit Sales Associates,37093
NC,27824,Hyde County,Engelhard,Pro-Fit Sales Associates,37095
NC,28010,Iredell County,Barium Springs,Pro-Fit Sales Associates,37097
NC,28707,Jackson County,Balsam,Pro-Fit Sales Associates,37099
NC,27504,Johnston County,Benson,Pro-Fit Sales Associates,37101
NC,28522,Jones County,Comfort,Pro-Fit Sales Associates,37103
NC,27237,Lee County,Cumnock,Pro-Fit Sales Associates,37105
NC,28501,Lenoir County,Kinston,Pro-Fit Sales Associates,37107
NC,28033,Lincoln County,Crouse,Pro-Fit Sales Associates,37109
NC,28734,Macon County,Franklin,Pro-Fit Sales Associates,37113
NC,28743,Madison County,Hot Springs,Pro-Fit Sales Associates,37115
NC,27825,Martin County,Everetts,Pro-Fit Sales Associates,37117
NC,28737,McDowell County,Glenwood,Pro-Fit Sales Associates,37111
NC,28031,Mecklenburg County,Cornelius,Pro-Fit Sales Associates,37119
NC,28705,Mitchell County,Bakersville,Pro-Fit Sales Associates,37121
NC,27209,Montgomery County,Biscoe,Pro-Fit Sales Associates,37123
NC,27242,Moore County,Eagle Springs,Pro-Fit Sales Associates,37125
NC,27557,Nash County,Middlesex,Pro-Fit Sales Associates,37127
NC,28401,New Hanover County,Wilmington,Pro-Fit Sales Associates,37129
NC,27820,Northampton County,Conway,Pro-Fit Sales Associates,37131
NC,28445,Onslow County,Holly Ridge,Pro-Fit Sales Associates,37133
NC,27231,Orange County,Cedar Grove,Pro-Fit Sales Associates,37135
NC,28509,Pamlico County,Alliance,Pro-Fit Sales Associates,37137
NC,27906,Pasquotank County,Elizabeth City,Pro-Fit Sales Associates,37139
NC,28421,Pender County,Atkinson,Pro-Fit Sales Associates,37141
NC,27919,Perquimans County,Belvidere,Pro-Fit Sales Associates,37143
NC,27343,Person County,Semora,Pro-Fit Sales Associates,37145
NC,27811,Pitt County,Bellarthur,Pro-Fit Sales Associates,37147
NC,28722,Polk County,Columbus,Pro-Fit Sales Associates,37149
NC,27203,Randolph County,Asheboro,Pro-Fit Sales Associates,37151
NC,28330,Richmond County,Cordova,Pro-Fit Sales Associates,37153
NC,28319,Robeson County,Barnesville,Pro-Fit Sales Associates,37155
NC,27025,Rockingham County,Madison,Pro-Fit Sales Associates,37157
NC,27013,Rowan County,Cleveland,Pro-Fit Sales Associates,37159
NC,28018,Rutherford County,Bostic,Pro-Fit Sales Associates,37161
NC,28318,Sampson County,Autryville,Pro-Fit Sales Associates,37163
NC,28343,Scotland County,Gibson,Pro-Fit Sales Associates,37165
NC,28001,Stanly County,Albemarle,Pro-Fit Sales Associates,37167
NC,27016,Stokes County,Danbury,Pro-Fit Sales Associates,37169
NC,27007,Surry County,Ararat,Pro-Fit Sales Associates,37171
NC,28713,Swain County,Bryson City,Pro-Fit Sales Associates,37173
NC,28708,Transylvania County,Balsam Grove,Pro-Fit Sales Associates,37175
NC,27925,Tyrrell County,Columbia,Pro-Fit Sales Associates,37177
NC,28079,Union County,Indian Trail,Pro-Fit Sales Associates,37179
NC,27536,Vance County,Henderson,Pro-Fit Sales Associates,37181
NC,27502,Wake County,Apex,Pro-Fit Sales Associates,37183
NC,27551,Warren County,Macon,Pro-Fit Sales Associates,37185
NC,27928,Washington County,Creswell,Pro-Fit Sales Associates,37187
NC,28604,Watauga County,Banner Elk,Pro-Fit Sales Associates,37189
NC,27530,Wayne County,Goldsboro,Pro-Fit Sales Associates,37191
NC,28606,Wilkes County,Boomer,Pro-Fit Sales Associates,37193
NC,27813,Wilson County,Black Creek,Pro-Fit Sales Associates,37195
NC,27011,Yadkin County,Boonville,Pro-Fit Sales Associates,37197
NC,28714,Yancey County,Burnsville,Pro-Fit Sales Associates,37199
ND,58639,Adams County,Hettinger,Northstar Sales Associates,38001
ND,58031,Barnes County,Fingal,Northstar Sales Associates,38003
ND,58325,Benson County,Churchs Ferry,Northstar Sales Associates,38005
ND,58627,Billings County,Fairfield,Northstar Sales Associates,38007
ND,58318,Bottineau County,Bottineau,Northstar Sales Associates,38009
ND,58623,Bowman County,Bowman,Northstar Sales Associates,38011
ND,58721,Burke County,Bowbells,Northstar Sales Associates,38013
ND,58477,Burleigh County,Regan,Northstar Sales Associates,38015
ND,58002,Cass County,Absaraka,Northstar Sales Associates,38017
ND,58239,Cavalier County,Hannah,Northstar Sales Associates,38019
ND,58436,Dickey County,Ellendale,Northstar Sales Associates,38021
ND,58730,Divide County,Crosby,Northstar Sales Associates,38023
ND,58625,Dunn County,Dodge,Northstar Sales Associates,38025
ND,58356,Eddy County,New Rockford,Northstar Sales Associates,38027
ND,58524,Emmons County,Braddock,Northstar Sales Associates,38029
ND,58421,Foster County,Carrington,Northstar Sales Associates,38031
ND,58621,Golden Valley County,Beach,Northstar Sales Associates,38033
ND,58201,Grand Forks County,Grand Forks,Northstar Sales Associates,38035
ND,58529,Grant County,Carson,Northstar Sales Associates,38037
ND,58416,Griggs County,Binford,Northstar Sales Associates,38039
ND,58646,Hettinger County,Mott,Northstar Sales Associates,38041
ND,58428,Kidder County,Dawson,Northstar Sales Associates,38043
ND,58415,LaMoure County,Berlin,Northstar Sales Associates,38045
ND,58440,Logan County,Fredonia,Northstar Sales Associates,38047
ND,58710,McHenry County,Anamoose,Northstar Sales Associates,38049
ND,58413,McIntosh County,Ashley,Northstar Sales Associates,38051
ND,58634,McKenzie County,Grassy Butte,Northstar Sales Associates,38053
ND,58531,McLean County,Coleharbor,Northstar Sales Associates,38055
ND,58439,McPherson County,Forbes,Northstar Sales Associates,38051
ND,58523,Mercer County,Beulah,Northstar Sales Associates,38057
ND,58520,Morton County,Almont,Northstar Sales Associates,38059
ND,58763,Mountrail County,New Town,Northstar Sales Associates,38061
ND,58212,Nelson County,Aneta,Northstar Sales Associates,38063
ND,58530,Oliver County,Center,Northstar Sales Associates,38065
ND,58216,Pembina County,Bathgate,Northstar Sales Associates,38067
ND,58313,Pierce County,Balta,Northstar Sales Associates,38069
ND,58301,Ramsey County,Devils Lake,Northstar Sales Associates,38071
ND,58027,Ransom County,Enderlin,Northstar Sales Associates,38073
ND,58740,Renville County,Glenburn,Northstar Sales Associates,38075
ND,58001,Richland County,Abercrombie,Northstar Sales Associates,38077
ND,58310,Rolette County,Agate,Northstar Sales Associates,38079
ND,58013,Sargent County,Cayuga,Northstar Sales Associates,38081
ND,58430,Sheridan County,Denhoff,Northstar Sales Associates,38083
ND,58528,Sioux County,Cannon Ball,Northstar Sales Associates,38085
ND,58620,Slope County,Amidon,Northstar Sales Associates,38087
ND,58601,Stark County,Dickinson,Northstar Sales Associates,38089
ND,58046,Steele County,Hope,Northstar Sales Associates,38091
ND,58401,Stutsman County,Jamestown,Northstar Sales Associates,38093
ND,58317,Towner County,Bisbee,Northstar Sales Associates,38095
ND,58009,Traill County,Blanchard,Northstar Sales Associates,38097
ND,58210,Walsh County,Adams,Northstar Sales Associates,38099
ND,58701,Ward County,Minot,Northstar Sales Associates,38101
ND,58319,Wells County,Bremen,Northstar Sales Associates,38103
ND,58755,Williams County,Mcgregor,Northstar Sales Associates,38105
ND,58803,,Williston,Northstar Sales Associates,38105
NE,68901,Adams County,Hastings,GIE Ltd.,31001
NE,68636,Antelope County,Elgin,GIE Ltd.,31003
NE,69121,Arthur County,Arthur,GIE Ltd.,31005
NE,69345,Banner County,Harrisburg,GIE Ltd.,31007
NE,68821,Blaine County,Brewster,GIE Ltd.,31009
NE,68620,Boone County,Albion,GIE Ltd.,31011
NE,69301,Box Butte County,Alliance,GIE Ltd.,31013
NE,68719,Boyd County,Bristow,GIE Ltd.,31015
NE,69210,Brown County,Ainsworth,GIE Ltd.,31017
NE,68812,Buffalo County,Amherst,GIE Ltd.,31019
NE,68019,Burt County,Craig,GIE Ltd.,31021
NE,68001,Butler County,Abie,GIE Ltd.,31023
NE,68016,Cass County,Cedar Creek,GIE Ltd.,31025
NE,68717,Cedar County,Belden,GIE Ltd.,31027
NE,69023,Chase County,Champion,GIE Ltd.,31029
NE,69135,Cherry County,Elsmere,GIE Ltd.,31031
NE,69131,Cheyenne County,Dalton,GIE Ltd.,31033
NE,68452,Clay County,Ong,GIE Ltd.,31035
NE,68629,Colfax County,Clarkson,GIE Ltd.,31037
NE,68004,Cuming County,Bancroft,GIE Ltd.,31039
NE,68813,Custer County,Anselmo,GIE Ltd.,31041
NE,68030,Dakota County,Homer,GIE Ltd.,31043
NE,69337,Dawes County,Chadron,GIE Ltd.,31045
NE,68834,Dawson County,Eddyville,GIE Ltd.,31047
NE,69122,Deuel County,Big Springs,GIE Ltd.,31049
NE,68710,Dixon County,Allen,GIE Ltd.,31051
NE,68025,Dodge County,Fremont,GIE Ltd.,31053
NE,68007,Douglas County,Bennington,GIE Ltd.,31055
NE,69021,Dundy County,Benkelman,GIE Ltd.,31057
NE,68351,Fillmore County,Exeter,GIE Ltd.,31059
NE,68929,Franklin County,Bloomington,GIE Ltd.,31061
NE,69025,Frontier County,Curtis,GIE Ltd.,31063
NE,68922,Furnas County,Arapahoe,GIE Ltd.,31065
NE,68301,Gage County,Adams,GIE Ltd.,31067
NE,69147,Garden County,Lewellen,GIE Ltd.,31069
NE,68823,Garfield County,Burwell,GIE Ltd.,31071
NE,68937,Gosper County,Elwood,GIE Ltd.,31073
NE,69333,Grant County,Ashby,GIE Ltd.,31075
NE,68665,Greeley County,Spalding,GIE Ltd.,31077
NE,68801,Hall County,Grand Island,GIE Ltd.,31079
NE,68818,Hamilton County,Aurora,GIE Ltd.,31081
NE,68920,Harlan County,Alma,GIE Ltd.,31083
NE,69032,Hayes County,Hayes Center,GIE Ltd.,31085
NE,69024,Hitchcock County,Culbertson,GIE Ltd.,31087
NE,68711,Holt County,Amelia,GIE Ltd.,31089
NE,69152,Hooker County,Mullen,GIE Ltd.,31091
NE,68820,Howard County,Boelus,GIE Ltd.,31093
NE,68338,Jefferson County,Daykin,GIE Ltd.,31095
NE,68329,Johnson County,Cook,GIE Ltd.,31097
NE,68924,Kearney County,Axtell,GIE Ltd.,31099
NE,69127,Keith County,Brule,GIE Ltd.,31101
NE,68753,Keya Paha County,Mills,GIE Ltd.,31103
NE,69128,Kimball County,Bushnell,GIE Ltd.,31105
NE,68718,Knox County,Bloomfield,GIE Ltd.,31107
NE,68317,Lancaster County,Bennet,GIE Ltd.,31109
NE,69101,Lincoln County,North Platte,GIE Ltd.,31111
NE,69163,Logan County,Stapleton,GIE Ltd.,31113
NE,68879,Loup County,Taylor,GIE Ltd.,31115
NE,68701,Madison County,Norfolk,GIE Ltd.,31119
NE,69167,McPherson County,Tryon,GIE Ltd.,31117
NE,68628,Merrick County,Clarks,GIE Ltd.,31121
NE,69125,Morrill County,Broadwater,GIE Ltd.,31123
NE,68623,Nance County,Belgrade,GIE Ltd.,31125
NE,68305,Nemaha County,Auburn,GIE Ltd.,31127
NE,68943,Nuckolls County,Hardy,GIE Ltd.,31129
NE,68324,Otoe County,Burr,GIE Ltd.,31131
NE,68323,Pawnee County,Burchard,GIE Ltd.,31133
NE,69134,Perkins County,Elsie,GIE Ltd.,31135
NE,68923,Phelps County,Atlanta,GIE Ltd.,31137
NE,68738,Pierce County,Hadar,GIE Ltd.,31139
NE,68601,Platte County,Columbus,GIE Ltd.,31141
NE,68651,Polk County,Osceola,GIE Ltd.,31143
NE,69001,Red Willow County,Mc Cook,GIE Ltd.,31145
NE,68337,Richardson County,Dawson,GIE Ltd.,31147
NE,68714,Rock County,Bassett,GIE Ltd.,31149
NE,68333,Saline County,Crete,GIE Ltd.,31151
NE,68005,Sarpy County,Bellevue,GIE Ltd.,31153
NE,68003,Saunders County,Ashland,GIE Ltd.,31155
NE,69341,Scotts Bluff County,Gering,GIE Ltd.,31157
NE,68313,Seward County,Beaver Crossing,GIE Ltd.,31159
NE,69335,Sheridan County,Bingham,GIE Ltd.,31161
NE,68817,Sherman County,Ashton,GIE Ltd.,31163
NE,69346,Sioux County,Harrison,GIE Ltd.,31165
NE,68768,Stanton County,Pilger,GIE Ltd.,31167
NE,68303,Thayer County,Alexandria,GIE Ltd.,31169
NE,69142,Thomas County,Halsey,GIE Ltd.,31171
NE,68039,Thurston County,Macy,GIE Ltd.,31173
NE,69212,Todd County,Crookston,GIE Ltd.,31031
NE,68815,Valley County,Arcadia,GIE Ltd.,31175
NE,68002,Washington County,Arlington,GIE Ltd.,31177
NE,68723,Wayne County,Carroll,GIE Ltd.,31179
NE,68928,Webster County,Bladen,GIE Ltd.,31181
NE,68622,Wheeler County,Bartlett,GIE Ltd.,31183
NE,68316,York County,Benedict,GIE Ltd.,31185
NH,03218,Belknap County,Barnstead,Northeast Envelope Solutions,33001
NH,03227,Carroll County,Center Sandwich,Northeast Envelope Solutions,33003
NH,03431,Cheshire County,Keene,Northeast Envelope Solutions,33005
NH,03570,Coos County,Berlin,Northeast Envelope Solutions,33007
NH,03215,Grafton County,Waterville Valley,Northeast Envelope Solutions,33009
NH,03031,Hillsborough County,Amherst,Northeast Envelope Solutions,33011
NH,03046,Merrimack County,Dunbarton,Northeast Envelope Solutions,33013
NH,03032,Rockingham County,Auburn,Northeast Envelope Solutions,33015
NH,03815,Strafford County,Center Strafford,Northeast Envelope Solutions,33017
NH,03280,Sullivan County,Washington,Northeast Envelope Solutions,33019
NJ,08037,Atlantic County,Hammonton,MCQ-WBS,34001
NJ,07010,Bergen County,Cliffside Park,MCQ-WBS,34003
NJ,08010,Burlington County,Beverly,MCQ-WBS,34005
NJ,08002,Camden County,Cherry Hill,MCQ-WBS,34007
NJ,08202,Cape May County,Avalon,MCQ-WBS,34009
NJ,08302,Cumberland County,Bridgeton,MCQ-WBS,34011
NJ,07003,Essex County,Bloomfield,MCQ-WBS,34013
NJ,08014,Gloucester County,Bridgeport,MCQ-WBS,34015
NJ,07002,Hudson County,Bayonne,MCQ-WBS,34017
NJ,07830,Hunterdon County,Califon,MCQ-WBS,34019
NJ,08512,Mercer County,Cranbury,MCQ-WBS,34021
NJ,07001,Middlesex County,Avenel,MCQ-WBS,34023
NJ,07701,Monmouth County,Red Bank,MCQ-WBS,34025
NJ,07005,Morris County,Boonton,MCQ-WBS,34027
NJ,08005,Ocean County,Barnegat,MCQ-WBS,34029
NJ,07011,Passaic County,Clifton,MCQ-WBS,34031
NJ,08001,Salem County,Alloway,MCQ-WBS,34033
NJ,07059,Somerset County,Warren,MCQ-WBS,34035
NJ,07416,Sussex County,Franklin,MCQ-WBS,34037
NJ,07016,Union County,Cranford,MCQ-WBS,34039
NJ,07820,Warren County,Allamuchy,MCQ-WBS,34041
NJ,08644,,Trenton,MCQ-WBS,34021
NM,87008,Bernalillo County,Cedar Crest,Palmer Marketing Inc,35001
NM,87820,Catron County,Aragon,Palmer Marketing Inc,35003
NM,88201,Chaves County,Roswell,Palmer Marketing Inc,35005
NM,87005,Cibola County,Bluewater,Palmer Marketing Inc,35006
NM,87710,Colfax County,Angel Fire,Palmer Marketing Inc,35007
NM,88101,Curry County,Clovis,Palmer Marketing Inc,35009
NM,88119,De Baca County,Fort Sumner,Palmer Marketing Inc,35011
NM,87936,Doa Ana County,Garfield,Palmer Marketing Inc,35013
NM,88210,Eddy County,Artesia,Palmer Marketing Inc,35015
NM,88022,Grant County,Arenas Valley,Palmer Marketing Inc,35017
NM,87711,Guadalupe County,Anton Chico,Palmer Marketing Inc,35019
NM,87730,Harding County,Mills,Palmer Marketing Inc,35021
NM,88009,Hidalgo County,Playas,Palmer Marketing Inc,35023
NM,88114,Lea County,Crossroads,Palmer Marketing Inc,35025
NM,87011,Lincoln County,Claunch,Palmer Marketing Inc,35027
NM,87544,Los Alamos County,Los Alamos,Palmer Marketing Inc,35028
NM,88029,Luna County,Columbus,Palmer Marketing Inc,35029
NM,87045,McKinley County,Prewitt,Palmer Marketing Inc,35031
NM,87712,Mora County,Buena Vista,Palmer Marketing Inc,35033
NM,88081,Otero County,Chaparral,Palmer Marketing Inc,35035
NM,88121,Quay County,House,Palmer Marketing Inc,35037
NM,87012,Rio Arriba County,Coyote,Palmer Marketing Inc,35039
NM,88113,Roosevelt County,Causey,Palmer Marketing Inc,35041
NM,87037,San Juan County,Nageezi,Palmer Marketing Inc,35045
NM,87538,San Miguel County,Ilfeld,Palmer Marketing Inc,35047
NM,87001,Sandoval County,Algodones,Palmer Marketing Inc,35043
NM,87010,Santa Fe County,Cerrillos,Palmer Marketing Inc,35049
NM,87901,Sierra County,Truth Or Consequences,Palmer Marketing Inc,35051
NM,87006,Socorro County,Bosque,Palmer Marketing Inc,35053
NM,87512,Taos County,Amalia,Palmer Marketing Inc,35055
NM,87009,Torrance County,Cedarvale,Palmer Marketing Inc,35057
NM,88410,Union County,Amistad,Palmer Marketing Inc,35059
NM,87002,Valencia County,Belen,Palmer Marketing Inc,35061
NV,89701,Carson City,Carson City,Roof Source Inc,32510
NV,89406,Churchill County,Fallon,Roof Source Inc,32001
NV,88901,Clark County,The Lakes,Roof Source Inc,32003
NV,89410,Douglas County,Gardnerville,Roof Source Inc,32005
NV,89801,Elko County,Elko,Roof Source Inc,32007
NV,89010,Esmeralda County,Dyer,Roof Source Inc,32009
NV,89316,Eureka County,Eureka,Roof Source Inc,32011
NV,89404,Humboldt County,Denio,Roof Source Inc,32013
NV,89310,Lander County,Austin,Roof Source Inc,32015
NV,89001,Lincoln County,Alamo,Roof Source Inc,32017
NV,89403,Lyon County,Dayton,Roof Source Inc,32019
NV,89415,Mineral County,Hawthorne,Roof Source Inc,32021
NV,89003,Nye County,Beatty,Roof Source Inc,32023
NV,89418,Pershing County,Imlay,Roof Source Inc,32027
NV,89437,Storey County,Sparks,Roof Source Inc,32029
NV,89402,Washoe County,Crystal Bay,Roof Source Inc,32031
NV,89301,White Pine County,Ely,Roof Source Inc,32033
NY,12007,Albany County,Alcove,Vertical Integrated Solutions,36001
NY,14029,Allegany County,Centerville,Vertical Integrated Solutions,36003
NY,10451,Bronx County,Bronx,Northeast,36005
NY,13737,Broome County,Bible School Park,Vertical Integrated Solutions,36007
NY,14041,Cattaraugus County,Dayton,Vertical Integrated Solutions,36009
NY,13021,Cayuga County,Auburn,Vertical Integrated Solutions,36011
NY,14048,Chautauqua County,Dunkirk,Vertical Integrated Solutions,36013
NY,14814,Chemung County,Big Flats,Vertical Integrated Solutions,36015
NY,13124,Chenango County,North Pitcher,Vertical Integrated Solutions,36017
NY,12901,Clinton County,Plattsburgh,Vertical Integrated Solutions,36019
NY,12017,Columbia County,Austerlitz,Vertical Integrated Solutions,36021
NY,13040,Cortland County,Cincinnatus,Vertical Integrated Solutions,36023
NY,12167,Delaware County,Stamford,Vertical Integrated Solutions,36025
NY,12501,Dutchess County,Amenia,Vertical Integrated Solutions,36027
NY,14001,Erie County,Akron,Vertical Integrated Solutions,36029
NY,12851,Essex County,Minerva,Vertical Integrated Solutions,36031
NY,12914,Franklin County,Bombay,Vertical Integrated Solutions,36033
NY,12025,Fulton County,Broadalbin,Vertical Integrated Solutions,36035
NY,14005,Genesee County,Alexander,Vertical Integrated Solutions,36037
NY,12015,Greene County,Athens,Vertical Integrated Solutions,36039
NY,12108,Hamilton County,Lake Pleasant,Vertical Integrated Solutions,36041
NY,13324,Herkimer County,Cold Brook,Vertical Integrated Solutions,36043
NY,13601,Jefferson County,Watertown,Vertical Integrated Solutions,36045
NY,11201,Kings County,Brooklyn,MCQ-WBS,36047
NY,13305,Lewis County,Beaver Falls,Vertical Integrated Solutions,36049
NY,14414,Livingston County,Avon,Vertical Integrated Solutions,36051
NY,13030,Madison County,Bridgeport,Vertical Integrated Solutions,36053
NY,14410,Monroe County,Adams Basin,Vertical Integrated Solutions,36055
NY,12010,Montgomery County,Amsterdam,Vertical Integrated Solutions,36057
NY,11001,Nassau County,Floral Park,Vertical Integrated Solutions,36059
NY,10001,New York County,New York,MCQ-WBS,36061
NY,14008,Niagara County,Appleton,Vertical Integrated Solutions,36063
NY,13042,Oneida County,Cleveland,Vertical Integrated Solutions,36065
NY,13020,Onondaga County,Apulia Station,Vertical Integrated Solutions,36067
NY,14424,Ontario County,Canandaigua,Vertical Integrated Solutions,36069
NY,10910,Orange County,Arden,MCQ-WBS,36071
NY,14098,Orleans County,Lyndonville,Vertical Integrated Solutions,36073
NY,13028,Oswego County,Bernhards Bay,Vertical Integrated Solutions,36075
NY,12064,Otsego County,East Worcester,Vertical Integrated Solutions,36077
NY,10509,Putnam County,Brewster,MCQ-WBS,36079
NY,11002,Queens County,Floral Park,MCQ-WBS,36081
NY,12018,Rensselaer County,Averill Park,Vertical Integrated Solutions,36083
NY,10301,Richmond County,Staten Island,MCQ-WBS,36085
NY,10901,Rockland County,Suffern,MCQ-WBS,36087
NY,12019,Saratoga County,Ballston Lake,Vertical Integrated Solutions,36091
NY,12008,Schenectady County,Alplaus,Vertical Integrated Solutions,36093
NY,12031,Schoharie County,Carlisle,Vertical Integrated Solutions,36095
NY,14805,Schuyler County,Alpine,Vertical Integrated Solutions,36097
NY,13065,Seneca County,Fayette,Vertical Integrated Solutions,36099
NY,12949,Saint Lawrence County,Lawrenceville,Vertical Integrated Solutions,36089
NY,12922,St. Lawrence County,Childwold,Vertical Integrated Solutions,36089
NY,14529,Steuben County,Perkinsville,Vertical Integrated Solutions,36101
NY,00501,Suffolk County,Holtsville,MCQ-WBS,36103
NY,12701,Sullivan County,Monticello,Vertical Integrated Solutions,36105
NY,13732,Tioga County,Apalachin,Vertical Integrated Solutions,36107
NY,13053,Tompkins County,Dryden,Vertical Integrated Solutions,36109
NY,12401,Ulster County,Kingston,Vertical Integrated Solutions,36111
NY,12801,Warren County,Glens Falls,Vertical Integrated Solutions,36113
NY,12057,Washington County,Eagle Bridge,Vertical Integrated Solutions,36115
NY,13143,Wayne County,Red Creek,Vertical Integrated Solutions,36117
NY,10501,Westchester County,Amawalk,MCQ-WBS,36119
NY,14009,Wyoming County,Arcade,Vertical Integrated Solutions,36121
NY,14415,Yates County,Bellona,Vertical Integrated Solutions,36123
NY,10200,,New York,Vertical Integrated Solutions,36061
OH,45105,Adams County,Bentonville,Engineered Systems,39001
OH,45801,Allen County,Lima,Engineered Systems,39003
OH,44805,Ashland County,Ashland,Engineered Systems,39005
OH,44003,Ashtabula County,Andover,Engineered Systems,39007
OH,45701,Athens County,Athens,Engineered Systems,39009
OH,45819,Auglaize County,Buckland,Engineered Systems,39011
OH,43713,Belmont County,Barnesville,Engineered Systems,39013
OH,45101,Brown County,Aberdeen,Engineered Systems,39015
OH,45004,Butler County,Collinsville,Engineered Systems,39017
OH,44607,Carroll County,Augusta,Engineered Systems,39019
OH,43009,Champaign County,Cable,Engineered Systems,39021
OH,43010,Clark County,Catawba,Engineered Systems,39023
OH,45102,Clermont County,Amelia,Engineered Systems,39025
OH,45107,Clinton County,Blanchester,Engineered Systems,39027
OH,43920,Columbiana County,East Liverpool,Engineered Systems,39029
OH,43803,Coshocton County,Bakersville,Engineered Systems,39031
OH,44820,Crawford County,Bucyrus,Engineered Systems,39033
OH,44017,Cuyahoga County,Berea,Engineered Systems,39035
OH,45303,Darke County,Ansonia,Engineered Systems,39037
OH,43512,Defiance County,Defiance,Engineered Systems,39039
OH,43003,Delaware County,Ashley,Engineered Systems,39041
OH,43438,Erie County,Kelleys Island,Engineered Systems,39043
OH,43046,Fairfield County,Millersport,Engineered Systems,39045
OH,43106,Fayette County,Bloomingburg,Engineered Systems,39047
OH,43002,Franklin County,Amlin,Engineered Systems,39049
OH,43502,Fulton County,Archbold,Engineered Systems,39051
OH,45614,Gallia County,Bidwell,Engineered Systems,39053
OH,44021,Geauga County,Burton,Engineered Systems,39055
OH,45301,Greene County,Alpha,Engineered Systems,39057
OH,43722,Guernsey County,Buffalo,Engineered Systems,39059
OH,45001,Hamilton County,Addyston,Engineered Systems,39061
OH,44804,Hancock County,Arcadia,Engineered Systems,39063
OH,43326,Hardin County,Kenton,Engineered Systems,39065
OH,43907,Harrison County,Cadiz,Engineered Systems,39067
OH,43510,Henry County,Colton,Engineered Systems,39069
OH,45110,Highland County,Buford,Engineered Systems,39071
OH,43111,Hocking County,Carbon Hill,Engineered Systems,39073
OH,43006,Holmes County,Brinkhaven,Engineered Systems,39075
OH,44826,Huron County,Collins,Engineered Systems,39077
OH,45621,Jackson County,Coalton,Engineered Systems,39079
OH,43901,Jefferson County,Adena,Engineered Systems,39081
OH,43005,Knox County,Bladensburg,Engineered Systems,39083
OH,44045,Lake County,Grand River,Engineered Systems,39085
OH,45619,Lawrence County,Chesapeake,Engineered Systems,39087
OH,43001,Licking County,Alexandria,Engineered Systems,39089
OH,43310,Logan County,Belle Center,Engineered Systems,39091
OH,44001,Lorain County,Amherst,Engineered Systems,39093
OH,43412,Lucas County,Curtice,Engineered Systems,39095
OH,43029,Madison County,Irwin,Engineered Systems,39097
OH,44401,Mahoning County,Berlin Center,Engineered Systems,39099
OH,43301,Marion County,Marion,Engineered Systems,39101
OH,44212,Medina County,Brunswick,Engineered Systems,39103
OH,45720,Meigs County,Chester,Engineered Systems,39105
OH,45310,Mercer County,Burkettsville,Engineered Systems,39107
OH,45312,Miami County,Casstown,Engineered Systems,39109
OH,43716,Monroe County,Beallsville,Engineered Systems,39111
OH,45309,Montgomery County,Brookville,Engineered Systems,39113
OH,43728,Morgan County,Chesterhill,Engineered Systems,39115
OH,43315,Morrow County,Cardington,Engineered Systems,39117
OH,43701,Muskingum County,Zanesville,Engineered Systems,39119
OH,43711,Noble County,Ava,Engineered Systems,39121
OH,43408,Ottawa County,Clay Center,Engineered Systems,39123
OH,45813,Paulding County,Antwerp,Engineered Systems,39125
OH,43076,Perry County,Thornville,Engineered Systems,39127
OH,43103,Pickaway County,Ashville,Engineered Systems,39129
OH,45613,Pike County,Beaver,Engineered Systems,39131
OH,44201,Portage County,Atwater,Engineered Systems,39133
OH,45003,Preble County,College Corner,Engineered Systems,39135
OH,45815,Putnam County,Belmore,Engineered Systems,39137
OH,44813,Richland County,Bellville,Engineered Systems,39139
OH,43101,Ross County,Adelphi,Engineered Systems,39141
OH,43407,Sandusky County,Burgoon,Engineered Systems,39143
OH,45629,Scioto County,Franklin Furnace,Engineered Systems,39145
OH,44802,Seneca County,Alvada,Engineered Systems,39147
OH,45302,Shelby County,Anna,Engineered Systems,39149
OH,44601,Stark County,Alliance,Engineered Systems,39151
OH,44056,Summit County,Macedonia,Engineered Systems,39153
OH,44402,Trumbull County,Bristolville,Engineered Systems,39155
OH,43832,Tuscarawas County,Newcomerstown,Engineered Systems,39157
OH,43007,Union County,Broadway,Engineered Systems,39159
OH,45832,Van Wert County,Convoy,Engineered Systems,39161
OH,45622,Vinton County,Creola,Engineered Systems,39163
OH,45005,Warren County,Franklin,Engineered Systems,39165
OH,45712,Washington County,Barlow,Engineered Systems,39167
OH,44214,Wayne County,Burbank,Engineered Systems,39169
OH,43501,Williams County,Alvordton,Engineered Systems,39171
OH,43402,Wood County,Bowling Green,Engineered Systems,39173
OH,43316,Wyandot County,Carey,Engineered Systems,39175
OK,74931,Adair County,Bunch,,40001
OK,73716,Alfalfa County,Aline,,40003
OK,74525,Atoka County,Atoka,,40005
OK,73844,Beaver County,Gate,,40007
OK,73627,Beckham County,Carter,,40009
OK,73040,Blaine County,Geary,,40011
OK,73449,Bryan County,Mead,,40013
OK,73001,Caddo County,Albert,,40015
OK,73014,Canadian County,Calumet,,40017
OK,73401,Carter County,Ardmore,,40019
OK,74427,Cherokee County,Cookson,,40021
OK,74727,Choctaw County,Boswell,,40023
OK,73933,Cimarron County,Boise City,,40025
OK,73019,Cleveland County,Norman,,40027
OK,74534,Coal County,Centrahoma,,40029
OK,73501,Comanche County,Lawton,,40031
OK,73531,Cotton County,Devol,,40033
OK,74301,Craig County,Vinita,,40035
OK,74010,Creek County,Bristow,,40037
OK,73096,Custer County,Weatherford,,40039
OK,74331,Delaware County,Afton,,40041
OK,73654,Dewey County,Leedey,,40043
OK,73832,Ellis County,Arnett,,40045
OK,73701,Garfield County,Enid,,40047
OK,73052,Garvin County,Lindsay,,40049
OK,73002,Grady County,Alex,,40051
OK,73758,Grant County,Manchester,,40053
OK,73547,Greer County,Granite,,40055
OK,73544,Harmon County,Gould,,40057
OK,73834,Harper County,Buffalo,,40059
OK,74440,Haskell County,Hoyt,,40061
OK,74531,Hughes County,Calvin,,40063
OK,73521,Jackson County,Altus,,40065
OK,73456,Jefferson County,Ringling,,40067
OK,73432,Johnston County,Coleman,,40069
OK,74601,Kay County,Ponca City,,40071
OK,73016,Kingfisher County,Cashion,,40073
OK,73041,Kiowa County,Gotebo,,40075
OK,74545,Latimer County,Gowen,,40077
OK,74549,Le Flore County,Honobia,,40079
OK,74026,Lincoln County,Davenport,,40081
OK,73027,Logan County,Coyle,,40083
OK,73430,Love County,Burneyville,,40085
OK,73718,Major County,Ames,,40093
OK,73439,Marshall County,Kingston,,40095
OK,74330,Mayes County,Adair,,40097
OK,73010,McClain County,Blanchard,,40087
OK,74722,McCurtain County,Battiest,,40089
OK,74426,McIntosh County,Checotah,,40091
OK,73030,Murray County,Davis,,40099
OK,74401,Muskogee County,Muskogee,,40101
OK,73061,Noble County,Morrison,,40103
OK,74027,Nowata County,Delaware,,40105
OK,74829,Okfuskee County,Boley,,40107
OK,73003,Oklahoma County,Edmond,,40109
OK,74047,Okmulgee County,Mounds,,40111
OK,74001,Osage County,Avant,,40113
OK,74335,Ottawa County,Cardin,,40115
OK,74020,Pawnee County,Cleveland,,40117
OK,74023,Payne County,Cushing,,40119
OK,74425,Pittsburg County,Canadian,,40121
OK,74820,Pontotoc County,Ada,,40123
OK,74801,Pottawatomie County,Shawnee,,40125
OK,74521,Pushmataha County,Albion,,40127
OK,73628,Roger Mills County,Cheyenne,,40129
OK,74015,Rogers County,Catoosa,,40131
OK,74818,Seminole County,Seminole,,40133
OK,74435,Sequoyah County,Gore,,40135
OK,73055,Stephens County,Marlow,,40137
OK,73901,Texas County,Adams,,40139
OK,73530,Tillman County,Davidson,,40141
OK,74008,Tulsa County,Bixby,,40143
OK,74013,Wagoner County,Broken Arrow,,40145
OK,74003,Washington County,Bartlesville,,40147
OK,73021,Washita County,Colony,,40149
OK,73717,Woods County,Alva,,40151
OK,73801,Woodward County,Woodward,,40153
OK,73451,,Ardmore,,40019
OR,97814,Baker County,Baker City,,41001
OR,97324,Benton County,Alsea,,41003
OR,97004,Clackamas County,Beavercreek,,41005
OR,97102,Clatsop County,Arch Cape,,41007
OR,97016,Columbia County,Clatskanie,,41009
OR,97407,Coos County,Allegany,,41011
OR,97751,Crook County,Paulina,,41013
OR,97406,Curry County,Agness,,41015
OR,97701,Deschutes County,Bend,,41017
OR,97410,Douglas County,Azalea,,41019
OR,97812,Gilliam County,Arlington,,41021
OR,97817,Grant County,Bates,,41023
OR,97710,Harney County,Fields,,41025
OR,97014,Hood River County,Cascade Locks,,41027
OR,97501,Jackson County,Medford,,41029
OR,97711,Jefferson County,Ashwood,,41031
OR,97497,Josephine County,Wolf Creek,,41033
OR,97425,Klamath County,Crescent Lake,,41035
OR,97620,Lake County,Adel,,41037
OR,97401,Lane County,Eugene,,41039
OR,97341,Lincoln County,Depoe Bay,,41041
OR,97321,Linn County,Albany,,41043
OR,97901,Malheur County,Adrian,,41045
OR,97002,Marion County,Aurora,,41047
OR,97635,Modoc County,New Pine Creek,,41037
OR,97818,Morrow County,Boardman,,41049
OR,97010,Multnomah County,Bridal Veil,,41051
OR,97304,Polk County,Salem,,41053
OR,97029,Sherman County,Grass Valley,,41055
OR,97107,Tillamook County,Bay City,,41057
OR,97801,Umatilla County,Pendleton,,41059
OR,97824,Union County,Cove,,41061
OR,97828,Wallowa County,Enterprise,,41063
OR,97001,Wasco County,Antelope,,41065
OR,97003,Washington County,Beaverton,,41067
OR,97750,Wheeler County,Mitchell,,41069
OR,97101,Yamhill County,Amity,,41071
OR,97079,,Beaverton,,41067
PA,17301,Adams County,Abbottstown,MCQ-WBS,42001
PA,15006,Allegheny County,Bairdford,Engineered Systems,42003
PA,15673,Armstrong County,North Apollo,Engineered Systems,42005
PA,15001,Beaver County,Aliquippa,Engineered Systems,42007
PA,15521,Bedford County,Alum Bank,Engineered Systems,42009
PA,18056,Berks County,Hereford,MCQ-WBS,42011
PA,16601,Blair County,Altoona,Engineered Systems,42013
PA,16910,Bradford County,Alba,MCQ-WBS,42015
PA,18039,Bucks County,Durham,MCQ-WBS,42017
PA,16001,Butler County,Butler,Engineered Systems,42019
PA,15714,Cambria County,Northern Cambria,Engineered Systems,42021
PA,15832,Cameron County,Driftwood,Engineered Systems,42023
PA,18012,Carbon County,Aquashicola,MCQ-WBS,42025
PA,16677,Centre County,Sandy Ridge,Engineered Systems,42027
PA,19087,Chester County,Wayne,MCQ-WBS,42029
PA,16036,Clarion County,Foxburg,Engineered Systems,42031
PA,15721,Clearfield County,Burnside,Engineered Systems,42033
PA,16822,Clinton County,Beech Creek,Engineered Systems,42035
PA,17814,Columbia County,Benton,MCQ-WBS,42037
PA,16110,Crawford County,Adamsville,Engineered Systems,42039
PA,17001,Cumberland County,Camp Hill,MCQ-WBS,42041
PA,17005,Dauphin County,Berrysburg,MCQ-WBS,42043
PA,19008,Delaware County,Broomall,MCQ-WBS,42045
PA,15821,Elk County,Benezett,Engineered Systems,42047
PA,16401,Erie County,Albion,Engineered Systems,42049
PA,15401,Fayette County,Uniontown,Engineered Systems,42051
PA,16217,Forest County,Cooksburg,Engineered Systems,42053
PA,17201,Franklin County,Chambersburg,MCQ-WBS,42055
PA,15536,Fulton County,Crystal Spring,MCQ-WBS,42057
PA,15310,Greene County,Aleppo,Engineered Systems,42059
PA,16611,Huntingdon County,Alexandria,MCQ-WBS,42061
PA,15681,Indiana County,Saltsburg,MCQ-WBS,42063
PA,15711,Jefferson County,Anita,Engineered Systems,42065
PA,17014,Juniata County,Cocolamus,MCQ-WBS,42067
PA,18403,Lackawanna County,Archbald,MCQ-WBS,42069
PA,17022,Lancaster County,Elizabethtown,MCQ-WBS,42071
PA,16101,Lawrence County,New Castle,Engineered Systems,42073
PA,17003,Lebanon County,Annville,MCQ-WBS,42075
PA,18001,Lehigh County,Lehigh Valley,MCQ-WBS,42077
PA,18201,Luzerne County,Hazleton,MCQ-WBS,42079
PA,17701,Lycoming County,Williamsport,Engineered Systems,42081
PA,16333,McKean County,Ludlow,Engineered Systems,42083
PA,16113,Mercer County,Clark,Engineered Systems,42085
PA,17002,Mifflin County,Allensville,MCQ-WBS,42087
PA,15439,Monongalia County,Gans,MCQ-WBS,42051
PA,18058,Monroe County,Kunkletown,MCQ-WBS,42089
PA,18041,Montgomery County,East Greenville,MCQ-WBS,42091
PA,17821,Montour County,Danville,MCQ-WBS,42093
PA,18010,Northampton County,Ackermanville,MCQ-WBS,42095
PA,17017,Northumberland County,Dalmatia,MCQ-WBS,42097
PA,17006,Perry County,Blain,MCQ-WBS,42099
PA,19019,Philadelphia County,Philadelphia,MCQ-WBS,42101
PA,18324,Pike County,Bushkill,MCQ-WBS,42103
PA,16720,Potter County,Austin,Engineered Systems,42105
PA,17901,Schuylkill County,Pottsville,MCQ-WBS,42107
PA,17812,Snyder County,Beaver Springs,MCQ-WBS,42109
PA,15411,Somerset County,Addison,Engineered Systems,42111
PA,17731,Sullivan County,Eagles Mere,MCQ-WBS,42113
PA,18413,Susquehanna County,Clifford,MCQ-WBS,42115
PA,16901,Tioga County,Wellsboro,Engineered Systems,42117
PA,17810,Union County,Allenwood,MCQ-WBS,42119
PA,16301,Venango County,Oil City,MCQ-WBS,42121
PA,16312,Warren County,Chandlers Valley,Engineered Systems,42123
PA,15004,Washington County,Atlasburg,Engineered Systems,42125
PA,18405,Wayne County,Beach Lake,MCQ-WBS,42127
PA,15012,Westmoreland County,Belle Vernon,Engineered Systems,42129
PA,18419,Wyoming County,Factoryville,MCQ-WBS,42131
PA,17019,York County,Dillsburg,MCQ-WBS,42133
PA,15266,,Pittsburgh,Engineered Systems,42003
PR,00601,Adjuntas Municipio,Adjuntas,Florida Building Envelope Associates,72001
PR,00602,Aguada Municipio,Aguada,Florida Building Envelope Associates,72003
PR,00603,Aguadilla Municipio,Aguadilla,Florida Building Envelope Associates,72005
PR,00703,Aguas Buenas Municipio,Aguas Buenas,Florida Building Envelope Associates,72007
PR,00705,Aibonito Municipio,Aibonito,Florida Building Envelope Associates,72009
PR,00610,Anasco Municipio,Anasco,Florida Building Envelope Associates,72011
PR,00612,Arecibo Municipio,Arecibo,Florida Building Envelope Associates,72013
PR,00714,Arroyo Municipio,Arroyo,Florida Building Envelope Associates,72015
PR,00617,Barceloneta Municipio,Barceloneta,Florida Building Envelope Associates,72017
PR,00794,Barranquitas Municipio,Barranquitas,Florida Building Envelope Associates,72019
PR,00958,Bayamon,Bayamon,Florida Building Envelope Associates,72021
PR,00956,Bayamon Municipio,Bayamon,Florida Building Envelope Associates,72021
PR,00622,Cabo Rojo Municipio,Boqueron,Florida Building Envelope Associates,72023
PR,00725,Caguas Municipio,Caguas,Florida Building Envelope Associates,72025
PR,00627,Camuy Municipio,Camuy,Florida Building Envelope Associates,72027
PR,00729,Canovanas Municipio,Canovanas,Florida Building Envelope Associates,72029
PR,00981,Carolina,Carolina,Florida Building Envelope Associates,72031
PR,00979,Carolina Municipio,Carolina,Florida Building Envelope Associates,72031
PR,00963,Catano,Catano,Florida Building Envelope Associates,72033
PR,00962,Catano Municipio,Catano,Florida Building Envelope Associates,72033
PR,00736,Cayey Municipio,Cayey,Florida Building Envelope Associates,72035
PR,00735,Ceiba Municipio,Ceiba,Florida Building Envelope Associates,72037
PR,00638,Ciales Municipio,Ciales,Florida Building Envelope Associates,72039
PR,00739,Cidra Municipio,Cidra,Florida Building Envelope Associates,72041
PR,00769,Coamo Municipio,Coamo,Florida Building Envelope Associates,72043
PR,00782,Comerio Municipio,Comerio,Florida Building Envelope Associates,72045
PR,00783,Corozal Municipio,Corozal,Florida Building Envelope Associates,72047
PR,00775,Culebra Municipio,Culebra,Florida Building Envelope Associates,72049
PR,00646,Dorado Municipio,Dorado,Florida Building Envelope Associates,72051
PR,00738,Fajardo Municipio,Fajardo,Florida Building Envelope Associates,72053
PR,00650,Florida Municipio,Florida,Florida Building Envelope Associates,72054
PR,00647,Guanica Municipio,Ensenada,Florida Building Envelope Associates,72055
PR,00784,Guayama Municipio,Guayama,Florida Building Envelope Associates,72057
PR,00656,Guayanilla Municipio,Guayanilla,Florida Building Envelope Associates,72059
PR,00934,Guaynabo Municipio,Fort Buchanan,Florida Building Envelope Associates,72061
PR,00778,Gurabo Municipio,Gurabo,Florida Building Envelope Associates,72063
PR,00659,Hatillo Municipio,Hatillo,Florida Building Envelope Associates,72065
PR,00660,Hormigueros Municipio,Hormigueros,Florida Building Envelope Associates,72067
PR,00741,Humacao Municipio,Punta Santiago,Florida Building Envelope Associates,72069
PR,00662,Isabela Municipio,Isabela,Florida Building Envelope Associates,72071
PR,00664,Jayuya Municipio,Jayuya,Florida Building Envelope Associates,72073
PR,00795,Juana Diaz Municipio,Juana Diaz,Florida Building Envelope Associates,72075
PR,00777,Juncos Municipio,Juncos,Florida Building Envelope Associates,72077
PR,00667,Lajas Municipio,Lajas,Florida Building Envelope Associates,72079
PR,00631,Lares Municipio,Castaner,Florida Building Envelope Associates,72081
PR,00670,Las Marias Municipio,Las Marias,Florida Building Envelope Associates,72083
PR,00771,Las Piedras Municipio,Las Piedras,Florida Building Envelope Associates,72085
PR,00772,Loiza Municipio,Loiza,Florida Building Envelope Associates,72087
PR,00773,Luquillo Municipio,Luquillo,Florida Building Envelope Associates,72089
PR,00674,Manati Municipio,Manati,Florida Building Envelope Associates,72091
PR,00606,Maricao Municipio,Maricao,Florida Building Envelope Associates,72093
PR,00707,Maunabo Municipio,Maunabo,Florida Building Envelope Associates,72095
PR,00680,Mayaguez Municipio,Mayaguez,Florida Building Envelope Associates,72097
PR,00676,Moca Municipio,Moca,Florida Building Envelope Associates,72099
PR,00687,Morovis Municipio,Morovis,Florida Building Envelope Associates,72101
PR,00718,Naguabo Municipio,Naguabo,Florida Building Envelope Associates,72103
PR,00719,Naranjito Municipio,Naranjito,Florida Building Envelope Associates,72105
PR,00720,Orocovis Municipio,Orocovis,Florida Building Envelope Associates,72107
PR,00723,Patillas Municipio,Patillas,Florida Building Envelope Associates,72109
PR,00624,Penuelas Municipio,Penuelas,Florida Building Envelope Associates,72111
PR,00715,Ponce Municipio,Mercedita,Florida Building Envelope Associates,72113
PR,00678,Quebradillas Municipio,Quebradillas,Florida Building Envelope Associates,72115
PR,00677,Rincon Municipio,Rincon,Florida Building Envelope Associates,72117
PR,00745,Rio Grande Municipio,Rio Grande,Florida Building Envelope Associates,72119
PR,00637,Sabana Grande Municipio,Sabana Grande,Florida Building Envelope Associates,72121
PR,00704,Salinas Municipio,Aguirre,Florida Building Envelope Associates,72123
PR,00636,San German Municipio,Rosario,Florida Building Envelope Associates,72125
PR,00929,San Juan,San Juan,Florida Building Envelope Associates,72127
PR,00901,San Juan Municipio,San Juan,Florida Building Envelope Associates,72127
PR,00754,San Lorenzo Municipio,San Lorenzo,Florida Building Envelope Associates,72129
PR,00685,San Sebastian Municipio,San Sebastian,Florida Building Envelope Associates,72131
PR,00757,Santa Isabel Municipio,Santa Isabel,Florida Building Envelope Associates,72133
PR,00954,Toa Alta,Toa Alta,Florida Building Envelope Associates,72135
PR,00953,Toa Alta Municipio,Toa Alta,Florida Building Envelope Associates,72135
PR,00949,Toa Baja Municipio,Toa Baja,Florida Building Envelope Associates,72137
PR,00976,Trujillo Alto Municipio,Trujillo Alto,Florida Building Envelope Associates,72139
PR,00611,Utuado Municipio,Angeles,Florida Building Envelope Associates,72141
PR,00692,Vega Alta Municipio,Vega Alta,Florida Building Envelope Associates,72143
PR,00693,Vega Baja Municipio,Vega Baja,Florida Building Envelope Associates,72145
PR,00765,Vieques Municipio,Vieques,Florida Building Envelope Associates,72147
PR,00766,Villalba Municipio,Villalba,Florida Building Envelope Associates,72149
PR,00767,Yabucoa Municipio,Yabucoa,Florida Building Envelope Associates,72151
PR,00698,Yauco Municipio,Yauco,Florida Building Envelope Associates,72153
RI,02806,Bristol County,Barrington,Northeast Envelope Solutions,44001
RI,02816,Kent County,Coventry,Northeast Envelope Solutions,44003
RI,02801,Newport County,Adamsville,Northeast Envelope Solutions,44005
RI,02802,Providence County,Albion,Northeast Envelope Solutions,44007
RI,02804,Washington County,Ashaway,Northeast Envelope Solutions,44009
SC,29620,Abbeville County,Abbeville,Pro-Fit Sales Associates,45001
SC,29105,Aiken County,Monetta,Pro-Fit Sales Associates,45003
SC,29810,Allendale County,Allendale,Pro-Fit Sales Associates,45005
SC,29621,Anderson County,Anderson,Pro-Fit Sales Associates,45007
SC,29003,Bamberg County,Bamberg,Pro-Fit Sales Associates,45009
SC,29812,Barnwell County,Barnwell,Pro-Fit Sales Associates,45011
SC,29901,Beaufort County,Beaufort,Pro-Fit Sales Associates,45013
SC,29410,Berkeley County,Hanahan,Pro-Fit Sales Associates,45015
SC,29030,Calhoun County,Cameron,Pro-Fit Sales Associates,45017
SC,29401,Charleston County,Charleston,Pro-Fit Sales Associates,45019
SC,29340,Cherokee County,Gaffney,Pro-Fit Sales Associates,45021
SC,29014,Chester County,Blackstock,Pro-Fit Sales Associates,45023
SC,29101,Chesterfield County,Mc Bee,Pro-Fit Sales Associates,45025
SC,29001,Clarendon County,Alcolu,Pro-Fit Sales Associates,45027
SC,29082,Colleton County,Lodge,Pro-Fit Sales Associates,45029
SC,29069,Darlington County,Lamar,Pro-Fit Sales Associates,45031
SC,29536,Dillon County,Dillon,Pro-Fit Sales Associates,45033
SC,29420,Dorchester County,North Charleston,Pro-Fit Sales Associates,45035
SC,29824,Edgefield County,Edgefield,Pro-Fit Sales Associates,45037
SC,29015,Fairfield County,Blair,Pro-Fit Sales Associates,45039
SC,29114,Florence County,Olanta,Pro-Fit Sales Associates,45041
SC,29440,Georgetown County,Georgetown,Pro-Fit Sales Associates,45043
SC,29601,Greenville County,Greenville,Pro-Fit Sales Associates,45045
SC,29646,Greenwood County,Greenwood,Pro-Fit Sales Associates,45047
SC,29911,Hampton County,Brunson,Pro-Fit Sales Associates,45049
SC,29511,Horry County,Aynor,Pro-Fit Sales Associates,45051
SC,29912,Jasper County,Coosawhatchie,Pro-Fit Sales Associates,45053
SC,29009,Kershaw County,Bethune,Pro-Fit Sales Associates,45055
SC,29058,Lancaster County,Heath Springs,Pro-Fit Sales Associates,45057
SC,29325,Laurens County,Clinton,Pro-Fit Sales Associates,45059
SC,29010,Lee County,Bishopville,Pro-Fit Sales Associates,45061
SC,29006,Lexington County,Batesburg,Pro-Fit Sales Associates,45063
SC,29519,Marion County,Centenary,Pro-Fit Sales Associates,45067
SC,29512,Marlboro County,Bennettsville,Pro-Fit Sales Associates,45069
SC,29821,McCormick County,Clarks Hill,Pro-Fit Sales Associates,45065
SC,29037,Newberry County,Chappells,Pro-Fit Sales Associates,45071
SC,29643,Oconee County,Fair Play,Pro-Fit Sales Associates,45073
SC,29018,Orangeburg County,Bowman,Pro-Fit Sales Associates,45075
SC,29630,Pickens County,Central,Pro-Fit Sales Associates,45077
SC,29002,Richland County,Ballentine,Pro-Fit Sales Associates,45079
SC,29138,Saluda County,Saluda,Pro-Fit Sales Associates,45081
SC,29301,Spartanburg County,Spartanburg,Pro-Fit Sales Associates,45083
SC,29040,Sumter County,Dalzell,Pro-Fit Sales Associates,45085
SC,29031,Union County,Carlisle,Pro-Fit Sales Associates,45087
SC,29056,Williamsburg County,Greeleyville,Pro-Fit Sales Associates,45089
SC,29703,York County,Bowling Green,Pro-Fit Sales Associates,45091
SD,57368,Aurora County,Plankinton,Northstar Sales Associates,46003
SD,57322,Beadle County,Carpenter,Northstar Sales Associates,46005
SD,57551,Bennett County,Martin,Northstar Sales Associates,46007
SD,57059,Bon Homme County,Scotland,Northstar Sales Associates,46009
SD,57002,Brookings County,Aurora,Northstar Sales Associates,46011
SD,57401,Brown County,Aberdeen,Northstar Sales Associates,46013
SD,57325,Brule County,Chamberlain,Northstar Sales Associates,46015
SD,57339,Buffalo County,Fort Thompson,Northstar Sales Associates,46017
SD,57717,Butte County,Belle Fourche,Northstar Sales Associates,46019
SD,57632,Campbell County,Herreid,Northstar Sales Associates,46021
SD,57329,Charles Mix County,Dante,Northstar Sales Associates,46023
SD,57217,Clark County,Bradley,Northstar Sales Associates,46025
SD,57010,Clay County,Burbank,Northstar Sales Associates,46027
SD,57201,Codington County,Watertown,Northstar Sales Associates,46029
SD,57621,Corson County,Bullhead,Northstar Sales Associates,46031
SD,57722,Custer County,Buffalo Gap,Northstar Sales Associates,46033
SD,57301,Davison County,Mitchell,Northstar Sales Associates,46035
SD,57219,Day County,Bristol,Northstar Sales Associates,46037
SD,57213,Deuel County,Astoria,Northstar Sales Associates,46039
SD,57625,Dewey County,Eagle Butte,Northstar Sales Associates,46041
SD,57313,Douglas County,Armour,Northstar Sales Associates,46043
SD,57428,Edmunds County,Bowdle,Northstar Sales Associates,46045
SD,57735,Fall River County,Edgemont,Northstar Sales Associates,46047
SD,57435,Faulk County,Cresbard,Northstar Sales Associates,46049
SD,57216,Grant County,Big Stone City,Northstar Sales Associates,46051
SD,57317,Gregory County,Bonesteel,Northstar Sales Associates,46053
SD,57552,Haakon County,Midland,Northstar Sales Associates,46055
SD,57221,Hamlin County,Bryant,Northstar Sales Associates,46057
SD,57362,Hand County,Miller,Northstar Sales Associates,46059
SD,57311,Hanson County,Alexandria,Northstar Sales Associates,46061
SD,57650,Harding County,Ralph,Northstar Sales Associates,46063
SD,57501,Hughes County,Pierre,Northstar Sales Associates,46065
SD,57029,Hutchinson County,Freeman,Northstar Sales Associates,46067
SD,57345,Hyde County,Highmore,Northstar Sales Associates,46069
SD,57521,Jackson County,Belvidere,Northstar Sales Associates,46071
SD,57312,Jerauld County,Alpena,Northstar Sales Associates,46073
SD,57531,Jones County,Draper,Northstar Sales Associates,46075
SD,57051,Kingsbury County,Oldham,Northstar Sales Associates,46077
SD,57016,Lake County,Chester,Northstar Sales Associates,46079
SD,57732,Lawrence County,Deadwood,Northstar Sales Associates,46081
SD,57013,Lincoln County,Canton,Northstar Sales Associates,46083
SD,57365,Lyman County,Oacoma,Northstar Sales Associates,46085
SD,57232,Marshall County,Eden,Northstar Sales Associates,46091
SD,57012,McCook County,Canistota,Northstar Sales Associates,46087
SD,57437,McPherson County,Eureka,Northstar Sales Associates,46089
SD,57626,Meade County,Faith,Northstar Sales Associates,46093
SD,57560,Mellette County,Norris,Northstar Sales Associates,46095
SD,57321,Miner County,Canova,Northstar Sales Associates,46097
SD,57003,Minnehaha County,Baltic,Northstar Sales Associates,46099
SD,57017,Moody County,Colman,Northstar Sales Associates,46101
SD,57716,Oglala Lakota County,Batesland,Northstar Sales Associates,46102
SD,57701,Pennington County,Rapid City,Northstar Sales Associates,46103
SD,57620,Perkins County,Bison,Northstar Sales Associates,46105
SD,57442,Potter County,Gettysburg,Northstar Sales Associates,46107
SD,57224,Roberts County,Claire City,Northstar Sales Associates,46109
SD,57314,Sanborn County,Artesian,Northstar Sales Associates,46111
SD,57424,Spink County,Ashton,Northstar Sales Associates,46115
SD,57532,Stanley County,Fort Pierre,Northstar Sales Associates,46117
SD,57520,Sully County,Agar,Northstar Sales Associates,46119
SD,57555,Todd County,Mission,Northstar Sales Associates,46121
SD,57528,Tripp County,Colome,Northstar Sales Associates,46123
SD,57014,Turner County,Centerville,Northstar Sales Associates,46125
SD,57001,Union County,Alcester,Northstar Sales Associates,46127
SD,57420,Walworth County,Akaska,Northstar Sales Associates,46129
SD,57031,Yankton County,Gayville,Northstar Sales Associates,46135
SD,57622,Ziebach County,Cherry Creek,Northstar Sales Associates,46137
TN,37705,Anderson County,Andersonville,Pro-Fit Sales Associates,47001
TN,37020,Bedford County,Bell Buckle,Pro-Fit Sales Associates,47003
TN,38221,Benton County,Big Sandy,Open Air Products,47005
TN,37367,Bledsoe County,Pikeville,Pro-Fit Sales Associates,47007
TN,37701,Blount County,Alcoa,Pro-Fit Sales Associates,47009
TN,37310,Bradley County,Charleston,Pro-Fit Sales Associates,47011
TN,37714,Campbell County,Caryville,Pro-Fit Sales Associates,47013
TN,37016,Cannon County,Auburntown,Pro-Fit Sales Associates,47015
TN,38201,Carroll County,Mc Kenzie,Open Air Products,47017
TN,37643,Carter County,Elizabethton,Pro-Fit Sales Associates,47019
TN,37015,Cheatham County,Ashland City,Pro-Fit Sales Associates,47021
TN,38332,Chester County,Enville,Open Air Products,47023
TN,37707,Claiborne County,Arthur,Pro-Fit Sales Associates,47025
TN,38551,Clay County,Celina,Pro-Fit Sales Associates,47027
TN,37713,Cocke County,Bybee,Pro-Fit Sales Associates,47029
TN,37018,Coffee County,Beechgrove,Pro-Fit Sales Associates,47031
TN,38001,Crockett County,Alamo,Open Air Products,47033
TN,37723,Cumberland County,Crab Orchard,Pro-Fit Sales Associates,47035
TN,37011,Davidson County,Antioch,Pro-Fit Sales Associates,47037
TN,38311,Decatur County,Bath Springs,Open Air Products,47039
TN,37012,DeKalb County,Alexandria,Pro-Fit Sales Associates,47041
TN,37029,Dickson County,Burns,Pro-Fit Sales Associates,47043
TN,38007,Dyer County,Bogota,Open Air Products,47045
TN,38010,Fayette County,Braden,Open Air Products,47047
TN,38504,Fentress County,Allardt,Pro-Fit Sales Associates,47049
TN,37306,Franklin County,Belvidere,Pro-Fit Sales Associates,47051
TN,38233,Gibson County,Kenton,Open Air Products,47053
TN,38449,Giles County,Ardmore,Pro-Fit Sales Associates,47055
TN,37708,Grainger County,Bean Station,Open Air Products,47057
TN,37616,Greene County,Afton,Pro-Fit Sales Associates,47059
TN,37301,Grundy County,Altamont,Pro-Fit Sales Associates,47061
TN,37778,Hamblen County,Lowland,Pro-Fit Sales Associates,47063
TN,37302,Hamilton County,Apison,Pro-Fit Sales Associates,47065
TN,37765,Hancock County,Kyles Ford,Open Air Products,47067
TN,38008,Hardeman County,Bolivar,Open Air Products,47069
TN,38326,Hardin County,Counce,Open Air Products,47071
TN,37642,Hawkins County,Church Hill,Pro-Fit Sales Associates,47073
TN,38012,Haywood County,Brownsville,Open Air Products,47075
TN,38328,Henderson County,Darden,Open Air Products,47077
TN,38222,Henry County,Buchanan,Open Air Products,47079
TN,37025,Hickman County,Bon Aqua,Pro-Fit Sales Associates,47081
TN,37061,Houston County,Erin,Pro-Fit Sales Associates,47083
TN,37078,Humphreys County,Hurricane Mills,Pro-Fit Sales Associates,47085
TN,38545,Jackson County,Bloomington Springs,Pro-Fit Sales Associates,47087
TN,37725,Jefferson County,Dandridge,Pro-Fit Sales Associates,47089
TN,37640,Johnson County,Butler,Pro-Fit Sales Associates,47091
TN,37721,Knox County,Corryton,Pro-Fit Sales Associates,47093
TN,38077,Lake County,Wynnburg,Open Air Products,47095
TN,38037,Lauderdale County,Gates,Open Air Products,47097
TN,38456,Lawrence County,Ethridge,Pro-Fit Sales Associates,47099
TN,38462,Lewis County,Hohenwald,Pro-Fit Sales Associates,47101
TN,37144,Lincoln County,Petersburg,Pro-Fit Sales Associates,47103
TN,37742,Loudon County,Greenback,Pro-Fit Sales Associates,47105
TN,37057,Macon County,Dixon Springs,Open Air Products,47111
TN,38301,Madison County,Jackson,Open Air Products,47113
TN,37340,Marion County,Guild,Pro-Fit Sales Associates,47115
TN,37019,Marshall County,Belfast,Pro-Fit Sales Associates,47117
TN,38401,Maury County,Columbia,Pro-Fit Sales Associates,47119
TN,37303,McMinn County,Athens,Pro-Fit Sales Associates,47107
TN,38310,McNairy County,Adamsville,Open Air Products,47109
TN,37322,Meigs County,Decatur,Pro-Fit Sales Associates,47121
TN,37314,Monroe County,Coker Creek,Pro-Fit Sales Associates,47123
TN,37010,Montgomery County,Adams,Pro-Fit Sales Associates,47125
TN,37352,Moore County,Lynchburg,Pro-Fit Sales Associates,47127
TN,37719,Morgan County,Coalfield,Pro-Fit Sales Associates,47129
TN,38232,Obion County,Hornbeak,Open Air Products,47131
TN,38541,Overton County,Allons,Pro-Fit Sales Associates,47133
TN,37096,Perry County,Linden,Pro-Fit Sales Associates,47135
TN,38549,Pickett County,Byrdstown,Pro-Fit Sales Associates,47137
TN,37307,Polk County,Benton,Pro-Fit Sales Associates,47139
TN,38501,Putnam County,Cookeville,Pro-Fit Sales Associates,47141
TN,37321,Rhea County,Dayton,Pro-Fit Sales Associates,47143
TN,37748,Roane County,Harriman,Pro-Fit Sales Associates,47145
TN,37032,Robertson County,Cedar Hill,Pro-Fit Sales Associates,47147
TN,37037,Rutherford County,Christiana,Pro-Fit Sales Associates,47149
TN,37732,Scott County,Elgin,Pro-Fit Sales Associates,47151
TN,37327,Sequatchie County,Dunlap,Pro-Fit Sales Associates,47153
TN,37738,Sevier County,Gatlinburg,Pro-Fit Sales Associates,47155
TN,37501,Shelby County,Memphis,Open Air Products,47157
TN,37030,Smith County,Carthage,Open Air Products,47159
TN,37023,Stewart County,Big Rock,Pro-Fit Sales Associates,47161
TN,37617,Sullivan County,Blountville,Pro-Fit Sales Associates,47163
TN,37022,Sumner County,Bethpage,Pro-Fit Sales Associates,47165
TN,38004,Tipton County,Atoka,Open Air Products,47167
TN,37074,Trousdale County,Hartsville,Pro-Fit Sales Associates,47169
TN,37650,Unicoi County,Erwin,Pro-Fit Sales Associates,47171
TN,37779,Union County,Luttrell,Pro-Fit Sales Associates,47173
TN,38585,Van Buren County,Spencer,Pro-Fit Sales Associates,47175
TN,37110,Warren County,Mcminnville,Pro-Fit Sales Associates,47177
TN,37601,Washington County,Johnson City,Pro-Fit Sales Associates,47179
TN,38425,Wayne County,Clifton,Pro-Fit Sales Associates,47181
TN,38225,Weakley County,Dresden,Open Air Products,47183
TN,38559,White County,Doyle,Pro-Fit Sales Associates,47185
TN,37014,Williamson County,Arrington,Pro-Fit Sales Associates,47187
TN,37071,Wilson County,Gladeville,Pro-Fit Sales Associates,47189
TX,75763,Anderson County,Frankston,Sonder & Associates,48001
TX,79714,Andrews County,Andrews,,48003
TX,75901,Angelina County,Lufkin,Sonder & Associates,48005
TX,78358,Aransas County,Fulton,"EmLi, Inc.",48007
TX,76351,Archer County,Archer City,,48009
TX,79019,Armstrong County,Claude,,48011
TX,78008,Atascosa County,Campbellton,"EmLi, Inc.",48013
TX,77418,Austin County,Bellville,Sonder & Associates,48015
TX,79320,Bailey County,Bula,,48017
TX,78003,Bandera County,Bandera,"EmLi, Inc.",48019
TX,78602,Bastrop County,Bastrop,"EmLi, Inc.",48021
TX,76380,Baylor County,Seymour,,48023
TX,78102,Bee County,Beeville,"EmLi, Inc.",48025
TX,76501,Bell County,Temple,"EmLi, Inc.",48027
TX,78002,Bexar County,Atascosa,"EmLi, Inc.",48029
TX,78606,Blanco County,Blanco,"EmLi, Inc.",48031
TX,79738,Borden County,Gail,,48033
TX,76634,Bosque County,Clifton,"EmLi, Inc.",48035
TX,75501,Bowie County,Texarkana,,48037
TX,77422,Brazoria County,Brazoria,Sonder & Associates,48039
TX,77801,Brazos County,Bryan,Sonder & Associates,48041
TX,79830,Brewster County,Alpine,,48043
TX,79255,Briscoe County,Quitaque,,48045
TX,78353,Brooks County,Encino,"EmLi, Inc.",48047
TX,76432,Brown County,Blanket,,48049
TX,77836,Burleson County,Caldwell,Sonder & Associates,48051
TX,78605,Burnet County,Bertram,"EmLi, Inc.",48053
TX,78616,Caldwell County,Dale,"EmLi, Inc.",48055
TX,77978,Calhoun County,Point Comfort,"EmLi, Inc.",48057
TX,76443,Callahan County,Cross Plains,,48059
TX,78520,Cameron County,Brownsville,"EmLi, Inc.",48061
TX,75451,Camp County,Leesburg,,48063
TX,79039,Carson County,Groom,,48065
TX,75551,Cass County,Atlanta,,48067
TX,79027,Castro County,Dimmitt,,48069
TX,77514,Chambers County,Anahuac,Sonder & Associates,48071
TX,75759,Cherokee County,Cuney,Sonder & Associates,48073
TX,79201,Childress County,Childress,,48075
TX,76228,Clay County,Bellevue,,48077
TX,79314,Cochran County,Bledsoe,,48079
TX,76933,Coke County,Bronte,,48081
TX,76828,Coleman County,Burkett,,48083
TX,75002,Collin County,Allen,,48085
TX,79077,Collingsworth County,Samnorwood,,48087
TX,77412,Colorado County,Altair,Sonder & Associates,48089
TX,78070,Comal County,Spring Branch,"EmLi, Inc.",48091
TX,76442,Comanche County,Comanche,,48093
TX,76837,Concho County,Eden,,48095
TX,76238,Cooke County,Era,,48097
TX,76522,Coryell County,Copperas Cove,"EmLi, Inc.",48099
TX,79223,Cottle County,Cee Vee,,48101
TX,79731,Crane County,Crane,,48103
TX,76943,Crockett County,Ozona,,48105
TX,79322,Crosby County,Crosbyton,,48107
TX,79855,Culberson County,Van Horn,,48109
TX,79022,Dallam County,Dalhart,,48111
TX,75001,Dallas County,Addison,,48113
TX,79331,Dawson County,Lamesa,,48115
TX,77967,De Witt County,Hochheim,"EmLi, Inc.",48123
TX,79025,Deaf Smith County,Dawn,,48117
TX,75415,Delta County,Ben Franklin,,48119
TX,75007,Denton County,Carrollton,,48121
TX,77954,DeWitt County,Cuero,"EmLi, Inc.",48123
TX,79220,Dickens County,Afton,,48125
TX,78827,Dimmit County,Asherton,"EmLi, Inc.",48127
TX,79226,Donley County,Clarendon,,48129
TX,78341,Duval County,Benavides,"EmLi, Inc.",48131
TX,76435,Eastland County,Carbon,,48133
TX,79741,Ector County,Goldsmith,,48135
TX,78828,Edwards County,Barksdale,"EmLi, Inc.",48137
TX,79821,El Paso County,Anthony,,48141
TX,75101,Ellis County,Bardwell,,48139
TX,76401,Erath County,Stephenville,,48143
TX,76570,Falls County,Rosebud,"EmLi, Inc.",48145
TX,75413,Fannin County,Bailey,,48147
TX,78932,Fayette County,Carmine,"EmLi, Inc.",48149
TX,79534,Fisher County,Mc Caulley,,48151
TX,79221,Floyd County,Aiken,,48153
TX,79227,Foard County,Crowell,,48155
TX,77053,Fort Bend County,Houston,Sonder & Associates,48157
TX,75457,Franklin County,Mount Vernon,,48159
TX,75838,Freestone County,Donie,,48161
TX,78005,Frio County,Bigfoot,"EmLi, Inc.",48163
TX,79342,Gaines County,Loop,,48165
TX,77510,Galveston County,Santa Fe,Sonder & Associates,48167
TX,79330,Garza County,Justiceburg,,48169
TX,78618,Gillespie County,Doss,"EmLi, Inc.",48171
TX,79739,Glasscock County,Garden City,,48173
TX,77960,Goliad County,Fannin,"EmLi, Inc.",48175
TX,78122,Gonzales County,Leesville,"EmLi, Inc.",48177
TX,79002,Gray County,Alanreed,,48179
TX,75020,Grayson County,Denison,,48181
TX,75601,Gregg County,Longview,,48183
TX,77363,Grimes County,Plantersville,Sonder & Associates,48185
TX,78108,Guadalupe County,Cibolo,"EmLi, Inc.",48187
TX,79021,Hale County,Cotton Center,,48189
TX,79233,Hall County,Estelline,,48191
TX,76436,Hamilton County,Carlton,"EmLi, Inc.",48193
TX,79040,Hansford County,Gruver,,48195
TX,79225,Hardeman County,Chillicothe,,48197
TX,77374,Hardin County,Thicket,Sonder & Associates,48199
TX,77001,Harris County,Houston,Sonder & Associates,48201
TX,75642,Harrison County,Elysian Fields,,48203
TX,79018,Hartley County,Channing,,48205
TX,76388,Haskell County,Weinert,,48207
TX,78610,Hays County,Buda,"EmLi, Inc.",48209
TX,79014,Hemphill County,Canadian,,48211
TX,75124,Henderson County,Eustace,Sonder & Associates,48213
TX,78501,Hidalgo County,Mcallen,"EmLi, Inc.",48215
TX,76055,Hill County,Itasca,,48217
TX,79313,Hockley County,Anton,,48219
TX,76048,Hood County,Granbury,,48221
TX,75420,Hopkins County,Brashear,,48223
TX,75835,Houston County,Crockett,Sonder & Associates,48225
TX,79511,Howard County,Coahoma,,48227
TX,79837,Hudspeth County,Dell City,,48229
TX,75135,Hunt County,Caddo Mills,,48231
TX,79007,Hutchinson County,Borger,,48233
TX,76930,Irion County,Barnhart,,48235
TX,76427,Jack County,Bryson,,48237
TX,77957,Jackson County,Edna,"EmLi, Inc.",48239
TX,75931,Jasper County,Brookeland,Sonder & Associates,48241
TX,79734,Jeff Davis County,Fort Davis,,48243
TX,77613,Jefferson County,China,Sonder & Associates,48245
TX,78360,Jim Hogg County,Guerra,"EmLi, Inc.",48247
TX,78332,Jim Wells County,Alice,"EmLi, Inc.",48249
TX,76009,Johnson County,Alvarado,,48251
TX,79501,Jones County,Anson,,48253
TX,78111,Karnes County,Ecleto,"EmLi, Inc.",48255
TX,75114,Kaufman County,Crandall,,48257
TX,78004,Kendall County,Bergheim,"EmLi, Inc.",48259
TX,78338,Kenedy County,Armstrong,"EmLi, Inc.",48261
TX,79518,Kent County,Girard,,48263
TX,78010,Kerr County,Center Point,"EmLi, Inc.",48265
TX,76849,Kimble County,Junction,"EmLi, Inc.",48267
TX,79236,King County,Guthrie,,48269
TX,78832,Kinney County,Brackettville,"EmLi, Inc.",48271
TX,78363,Kleberg County,Kingsville,"EmLi, Inc.",48273
TX,76363,Knox County,Goree,,48275
TX,78001,La Salle County,Artesia Wells,"EmLi, Inc.",48283
TX,75411,Lamar County,Arthur City,,48277
TX,79031,Lamb County,Earth,,48279
TX,76539,Lampasas County,Kempner,"EmLi, Inc.",48281
TX,77964,Lavaca County,Hallettsville,"EmLi, Inc.",48285
TX,77853,Lee County,Dime Box,"EmLi, Inc.",48287
TX,75831,Leon County,Buffalo,Sonder & Associates,48289
TX,77327,Liberty County,Cleveland,Sonder & Associates,48291
TX,76635,Limestone County,Coolidge,,48293
TX,79005,Lipscomb County,Booker,,48295
TX,78022,Live Oak County,George West,"EmLi, Inc.",48297
TX,76831,Llano County,Castell,"EmLi, Inc.",48299
TX,79754,Loving County,Mentone,,48301
TX,79329,Lubbock County,Idalou,,48303
TX,79351,Lynn County,Odonnell,,48305
TX,75852,Madison County,Midway,Sonder & Associates,48313
TX,75630,Marion County,Avinger,,48315
TX,79749,Martin County,Lenorah,,48317
TX,76820,Mason County,Art,"EmLi, Inc.",48319
TX,77404,Matagorda County,Bay City,Sonder & Associates,48321
TX,78852,Maverick County,Eagle Pass,"EmLi, Inc.",48323
TX,76825,McCulloch County,Brady,"EmLi, Inc.",48307
TX,76524,McLennan County,Eddy,"EmLi, Inc.",48309
TX,78007,McMullen County,Calliham,"EmLi, Inc.",48311
TX,78009,Medina County,Castroville,"EmLi, Inc.",48325
TX,76841,Menard County,Fort Mc Kavett,"EmLi, Inc.",48327
TX,79701,Midland County,Midland,,48329
TX,76518,Milam County,Buckholts,"EmLi, Inc.",48331
TX,76844,Mills County,Goldthwaite,"EmLi, Inc.",48333
TX,79512,Mitchell County,Colorado City,,48335
TX,76230,Montague County,Bowie,,48337
TX,77301,Montgomery County,Conroe,Sonder & Associates,48339
TX,79013,Moore County,Cactus,,48341
TX,75568,Morris County,Naples,,48343
TX,79234,Motley County,Flomot,,48345
TX,75760,Nacogdoches County,Cushing,Sonder & Associates,48347
TX,75102,Navarro County,Barry,,48349
TX,75928,Newton County,Bon Wier,Sonder & Associates,48351
TX,79506,Nolan County,Blackwell,,48353
TX,78330,Nueces County,Agua Dulce,"EmLi, Inc.",48355
TX,79033,Ochiltree County,Farnsworth,,48357
TX,79001,Oldham County,Adrian,,48359
TX,77611,Orange County,Bridge City,Sonder & Associates,48361
TX,76067,Palo Pinto County,Mineral Wells,,48363
TX,75631,Panola County,Beckville,Sonder & Associates,48365
TX,76008,Parker County,Aledo,,48367
TX,79009,Parmer County,Bovina,,48369
TX,79730,Pecos County,Coyanosa,,48371
TX,75934,Polk County,Camden,Sonder & Associates,48373
TX,79010,Potter County,Boys Ranch,,48375
TX,79843,Presidio County,Marfa,,48377
TX,75440,Rains County,Emory,,48379
TX,79012,Randall County,Bushland,,48381
TX,76932,Reagan County,Big Lake,,48383
TX,78833,Real County,Camp Wood,"EmLi, Inc.",48385
TX,75412,Red River County,Bagwell,,48387
TX,79718,Reeves County,Balmorhea,,48389
TX,77950,Refugio County,Austwell,"EmLi, Inc.",48391
TX,79059,Roberts County,Miami,,48393
TX,76629,Robertson County,Bremond,Sonder & Associates,48395
TX,75032,Rockwall County,Rockwall,,48397
TX,76821,Runnels County,Ballinger,,48399
TX,75652,Rusk County,Henderson,Sonder & Associates,48401
TX,75930,Sabine County,Bronson,Sonder & Associates,48403
TX,75929,San Augustine County,Broaddus,Sonder & Associates,48405
TX,77331,San Jacinto County,Coldspring,Sonder & Associates,48407
TX,78336,San Patricio County,Aransas Pass,"EmLi, Inc.",48409
TX,76824,San Saba County,Bend,"EmLi, Inc.",48411
TX,76936,Schleicher County,Eldorado,,48413
TX,79516,Scurry County,Dunn,,48415
TX,76430,Shackelford County,Albany,,48417
TX,75935,Shelby County,Center,Sonder & Associates,48419
TX,73960,Sherman County,Texhoma,,48421
TX,75701,Smith County,Tyler,Sonder & Associates,48423
TX,76043,Somervell County,Glen Rose,,48425
TX,78536,Starr County,Delmita,"EmLi, Inc.",48427
TX,76424,Stephens County,Breckenridge,,48429
TX,76951,Sterling County,Sterling City,,48431
TX,79502,Stonewall County,Aspermont,,48433
TX,76874,Sutton County,Roosevelt,,48435
TX,79042,Swisher County,Happy,,48437
TX,75054,Tarrant County,Grand Prairie,,48439
TX,79508,Taylor County,Buffalo Gap,,48441
TX,78851,Terrell County,Dryden,,48443
TX,79316,Terry County,Brownfield,,48445
TX,76483,Throckmorton County,Throckmorton,,48447
TX,75455,Titus County,Mount Pleasant,,48449
TX,76886,Tom Green County,Veribest,,48451
TX,73301,Travis County,Austin,"EmLi, Inc.",48453
TX,75834,Trinity County,Centralia,Sonder & Associates,48455
TX,75936,Tyler County,Chester,Sonder & Associates,48457
TX,75640,Upshur County,Diana,,48459
TX,79752,Upton County,Mc Camey,,48461
TX,78801,Uvalde County,Uvalde,"EmLi, Inc.",48463
TX,78837,Val Verde County,Comstock,,48465
TX,75103,Van Zandt County,Canton,,48467
TX,77901,Victoria County,Victoria,"EmLi, Inc.",48469
TX,77320,Walker County,Huntsville,Sonder & Associates,48471
TX,77423,Waller County,Brookshire,Sonder & Associates,48473
TX,79719,Ward County,Barstow,,48475
TX,77426,Washington County,Chappell Hill,Sonder & Associates,48477
TX,78040,Webb County,Laredo,"EmLi, Inc.",48479
TX,77420,Wharton County,Boling,Sonder & Associates,48481
TX,79003,Wheeler County,Allison,,48483
TX,76301,Wichita County,Wichita Falls,,48485
TX,76364,Wilbarger County,Harrold,,48487
TX,78561,Willacy County,Lasara,"EmLi, Inc.",48489
TX,76511,Williamson County,Bartlett,"EmLi, Inc.",48491
TX,78101,Wilson County,Adkins,"EmLi, Inc.",48493
TX,79745,Winkler County,Kermit,,48495
TX,76023,Wise County,Boyd,,48497
TX,75410,Wood County,Alba,,48499
TX,79323,Yoakum County,Denver City,,48501
TX,76372,Young County,Newcastle,,48503
TX,78067,Zapata County,San Ygnacio,"EmLi, Inc.",48505
TX,78829,Zavala County,Batesville,"EmLi, Inc.",48507
TX,75059,,Irving,,48113
UT,84713,Beaver County,Beaver,Palmer Marketing Inc,49001
UT,84301,Box Elder County,Bear River City,Palmer Marketing Inc,49003
UT,84304,Cache County,Cache Junction,Palmer Marketing Inc,49005
UT,84501,Carbon County,Price,Palmer Marketing Inc,49007
UT,84023,Daggett County,Dutch John,Palmer Marketing Inc,49009
UT,84010,Davis County,Bountiful,Palmer Marketing Inc,49011
UT,84001,Duchesne County,Altamont,Palmer Marketing Inc,49013
UT,84513,Emery County,Castle Dale,Palmer Marketing Inc,49015
UT,84712,Garfield County,Antimony,Palmer Marketing Inc,49017
UT,84515,Grand County,Cisco,Palmer Marketing Inc,49019
UT,84714,Iron County,Beryl,Palmer Marketing Inc,49021
UT,84628,Juab County,Eureka,Palmer Marketing Inc,49023
UT,84533,Kane County,Lake Powell,Palmer Marketing Inc,49025
UT,84624,Millard County,Delta,Palmer Marketing Inc,49027
UT,84018,Morgan County,Croydon,Palmer Marketing Inc,49029
UT,84723,Piute County,Circleville,Palmer Marketing Inc,49031
UT,84028,Rich County,Garden City,Palmer Marketing Inc,49033
UT,84006,Salt Lake County,Bingham Canyon,Palmer Marketing Inc,49035
UT,84510,San Juan County,Aneth,Palmer Marketing Inc,49037
UT,84621,Sanpete County,Axtell,Palmer Marketing Inc,49039
UT,84620,Sevier County,Aurora,Palmer Marketing Inc,49041
UT,84017,Summit County,Coalville,Palmer Marketing Inc,49043
UT,84022,Tooele County,Dugway,Palmer Marketing Inc,49045
UT,84008,Uintah County,Bonanza,Palmer Marketing Inc,49047
UT,84003,Utah County,American Fork,Palmer Marketing Inc,49049
UT,84032,Wasatch County,Heber City,Palmer Marketing Inc,49051
UT,84722,Washington County,Central,Palmer Marketing Inc,49053
UT,84715,Wayne County,Bicknell,Palmer Marketing Inc,49055
UT,84067,Weber County,Roy,Palmer Marketing Inc,49057
VA,23301,Accomack County,Accomac,MCQ-WBS,51001
VA,22901,Albemarle County,Charlottesville,MCQ-WBS,51003
VA,22301,Alexandria city,Alexandria,MCQ-WBS,51510
VA,24422,Alleghany County,Clifton Forge,MCQ-WBS,51005
VA,23002,Amelia County,Amelia Court House,MCQ-WBS,51007
VA,24521,Amherst County,Amherst,MCQ-WBS,51009
VA,23939,Appomattox County,Evergreen,MCQ-WBS,51011
VA,22201,Arlington County,Arlington,MCQ-WBS,51013
VA,22843,Augusta County,Mount Solon,MCQ-WBS,51015
VA,24412,Bath County,Bacova,MCQ-WBS,51017
VA,24095,Bedford County,Goodview,MCQ-WBS,51019
VA,24314,Bland County,Bastian,MCQ-WBS,51021
VA,24064,Botetourt County,Blue Ridge,MCQ-WBS,51023
VA,24201,Bristol city,Bristol,MCQ-WBS,51520
VA,23821,Brunswick County,Alberta,MCQ-WBS,51025
VA,24239,Buchanan County,Davenport,MCQ-WBS,51027
VA,23004,Buckingham County,Arvonia,MCQ-WBS,51029
VA,24416,Buena Vista city,Buena Vista,MCQ-WBS,51530
VA,24517,Campbell County,Altavista,MCQ-WBS,51031
VA,22427,Caroline County,Bowling Green,MCQ-WBS,51033
VA,24312,Carroll County,Austinville,MCQ-WBS,51035
VA,23030,Charles City County,Charles City,MCQ-WBS,51036
VA,23923,Charlotte County,Charlotte Court House,MCQ-WBS,51037
VA,22902,Charlottesville city,Charlottesville,MCQ-WBS,51540
VA,23320,Chesapeake city,Chesapeake,MCQ-WBS,51550
VA,23112,Chesterfield County,Midlothian,MCQ-WBS,51041
VA,20130,Clarke County,Paris,MCQ-WBS,51043
VA,23834,Colonial Heights city,Colonial Heights,MCQ-WBS,51570
VA,24127,Craig County,New Castle,MCQ-WBS,51045
VA,20106,Culpeper County,Amissville,MCQ-WBS,51047
VA,23027,Cumberland County,Cartersville,MCQ-WBS,51049
VA,24540,Danville city,Danville,MCQ-WBS,51590
VA,24217,Dickenson County,Bee,MCQ-WBS,51051
VA,23833,Dinwiddie County,Church Road,MCQ-WBS,51053
VA,22436,Essex County,Caret,MCQ-WBS,51057
VA,22034,Fairfax City,Fairfax,MCQ-WBS,51600
VA,20120,Fairfax County,Centreville,MCQ-WBS,51059
VA,22040,Falls Church City,Falls Church,MCQ-WBS,51610
VA,20115,Fauquier County,Marshall,MCQ-WBS,51061
VA,24072,Floyd County,Check,MCQ-WBS,51063
VA,22963,Fluvanna County,Palmyra,MCQ-WBS,51065
VA,23851,Franklin city,Franklin,MCQ-WBS,51620
VA,24065,Franklin County,Boones Mill,MCQ-WBS,51067
VA,22602,Frederick County,Winchester,MCQ-WBS,51069
VA,22401,Fredericksburg city,Fredericksburg,MCQ-WBS,51630
VA,24333,Galax city,Galax,MCQ-WBS,51640
VA,24086,Giles County,Eggleston,MCQ-WBS,51071
VA,23001,Gloucester County,Achilles,MCQ-WBS,51073
VA,23038,Goochland County,Columbia,MCQ-WBS,51075
VA,24292,Grayson County,Whitetop,MCQ-WBS,51077
VA,22923,Greene County,Barboursville,MCQ-WBS,51079
VA,23847,Greensville County,Emporia,MCQ-WBS,51081
VA,24520,Halifax County,Alton,MCQ-WBS,51083
VA,23630,Hampton City,Hampton,MCQ-WBS,51650
VA,23005,Hanover County,Ashland,MCQ-WBS,51085
VA,22801,Harrisonburg city,Harrisonburg,MCQ-WBS,51660
VA,23058,Henrico County,Glen Allen,MCQ-WBS,51087
VA,24054,Henry County,Axton,MCQ-WBS,51089
VA,24413,Highland County,Blue Grass,MCQ-WBS,51091
VA,23860,Hopewell city,Hopewell,MCQ-WBS,51670
VA,23304,Isle of Wight County,Battery Park,MCQ-WBS,51093
VA,23090,James City,Lightfoot,MCQ-WBS,51095
VA,23081,James City County,Jamestown,MCQ-WBS,51095
VA,23023,King and Queen County,Bruington,MCQ-WBS,51097
VA,22448,King George County,Dahlgren,MCQ-WBS,51099
VA,23009,King William County,Aylett,MCQ-WBS,51101
VA,22480,Lancaster County,Irvington,MCQ-WBS,51103
VA,24218,Lee County,Ben Hur,MCQ-WBS,51105
VA,20101,Loudoun County,Dulles,MCQ-WBS,51107
VA,22942,Louisa County,Gordonsville,MCQ-WBS,51109
VA,23941,Lunenburg County,Fort Mitchell,MCQ-WBS,51111
VA,24501,Lynchburg city,Lynchburg,MCQ-WBS,51680
VA,22709,Madison County,Aroda,MCQ-WBS,51113
VA,20108,Manassas City,Manassas,MCQ-WBS,51683
VA,24113,Martinsville City,Martinsville,MCQ-WBS,51690
VA,23021,Mathews County,Bohannon,MCQ-WBS,51115
VA,24619,McDowell County,Horsepen,MCQ-WBS,51185
VA,23915,Mecklenburg County,Baskerville,MCQ-WBS,51117
VA,23031,Middlesex County,Christchurch,MCQ-WBS,51119
VA,24060,Montgomery County,Blacksburg,MCQ-WBS,51121
VA,22920,Nelson County,Afton,MCQ-WBS,51125
VA,23011,New Kent County,Barhamsville,MCQ-WBS,51127
VA,23601,Newport News city,Newport News,MCQ-WBS,51700
VA,23501,Norfolk City,Norfolk,MCQ-WBS,51710
VA,23307,Northampton County,Birdsnest,MCQ-WBS,51131
VA,22432,Northumberland County,Burgess,MCQ-WBS,51133
VA,24273,Norton city,Norton,MCQ-WBS,51720
VA,23824,Nottoway County,Blackstone,MCQ-WBS,51135
VA,22433,Orange County,Burr Hill,MCQ-WBS,51137
VA,22650,Page County,Rileyville,MCQ-WBS,51139
VA,24053,Patrick County,Ararat,MCQ-WBS,51141
VA,23803,Petersburg city,Petersburg,MCQ-WBS,51730
VA,24069,Pittsylvania County,Cascade,MCQ-WBS,51143
VA,23662,Poquoson city,Poquoson,MCQ-WBS,51735
VA,23701,Portsmouth city,Portsmouth,MCQ-WBS,51740
VA,23014,Powhatan County,Beaumont,MCQ-WBS,51145
VA,23901,Prince Edward County,Farmville,MCQ-WBS,51147
VA,23801,Prince George County,Fort Lee,MCQ-WBS,51149
VA,20109,Prince William County,Manassas,MCQ-WBS,51153
VA,24058,Pulaski County,Belspring,MCQ-WBS,51155
VA,24141,Radford city,Radford,MCQ-WBS,51750
VA,22623,Rappahannock County,Chester Gap,MCQ-WBS,51157
VA,23173,Richmond city,Richmond,MCQ-WBS,51760
VA,22460,Richmond County,Farnham,MCQ-WBS,51159
VA,24001,Roanoke City,Roanoke,MCQ-WBS,51770
VA,24018,Roanoke County,Roanoke,MCQ-WBS,51161
VA,24415,Rockbridge County,Brownsburg,MCQ-WBS,51163
VA,22811,Rockingham County,Bergton,MCQ-WBS,51165
VA,24224,Russell County,Castlewood,MCQ-WBS,51167
VA,24153,Salem city,Salem,MCQ-WBS,51775
VA,24244,Scott County,Duffield,MCQ-WBS,51169
VA,22626,Shenandoah County,Fishers Hill,MCQ-WBS,51171
VA,24311,Smyth County,Atkins,MCQ-WBS,51173
VA,23827,Southampton County,Boykins,MCQ-WBS,51175
VA,22407,Spotsylvania County,Fredericksburg,MCQ-WBS,51177
VA,22405,Stafford County,Fredericksburg,MCQ-WBS,51179
VA,24401,Staunton city,Staunton,MCQ-WBS,51790
VA,23432,Suffolk city,Suffolk,MCQ-WBS,51800
VA,23839,Surry County,Dendron,MCQ-WBS,51181
VA,23882,Sussex County,Stony Creek,MCQ-WBS,51183
VA,24316,Tazewell County,Broadford,MCQ-WBS,51185
VA,23450,Virginia Beach City,Virginia Beach,MCQ-WBS,51810
VA,22610,Warren County,Bentonville,MCQ-WBS,51187
VA,24202,Washington County,Bristol,MCQ-WBS,51191
VA,22980,Waynesboro city,Waynesboro,MCQ-WBS,51820
VA,22442,Westmoreland County,Coles Point,MCQ-WBS,51193
VA,23186,Williamsburg City,Williamsburg,MCQ-WBS,51830
VA,22601,Winchester city,Winchester,MCQ-WBS,51840
VA,24215,Wise County,Andover,MCQ-WBS,51195
VA,24313,Wythe County,Barren Springs,MCQ-WBS,51197
VA,23665,York County,Hampton,MCQ-WBS,51199
VA,22350,,Alexandria,MCQ-WBS,51010
VI,00801,,St Thomas,,
VT,05443,Addison County,Bristol,Northeast Envelope Solutions,50001
VT,05152,Bennington County,Peru,Northeast Envelope Solutions,50003
VT,05042,Caledonia County,East Ryegate,Northeast Envelope Solutions,50005
VT,05401,Chittenden County,Burlington,Northeast Envelope Solutions,50007
VT,05824,Essex County,Concord,Northeast Envelope Solutions,50009
VT,05441,Franklin County,Bakersfield,Northeast Envelope Solutions,50011
VT,05440,Grand Isle County,Alburgh,Northeast Envelope Solutions,50013
VT,05442,Lamoille County,Belvidere Center,Northeast Envelope Solutions,50015
VT,05033,Orange County,Bradford,Northeast Envelope Solutions,50017
VT,05820,Orleans County,Albany,Northeast Envelope Solutions,50019
VT,05701,Rutland County,Rutland,Northeast Envelope Solutions,50021
VT,05601,Washington County,Montpelier,Northeast Envelope Solutions,50023
VT,05101,Windham County,Bellows Falls,Northeast Envelope Solutions,50025
VT,05001,Windsor County,White River Junction,Northeast Envelope Solutions,50027
WA,99105,Adams County,Benge,,53001
WA,99401,Asotin County,Anatone,,53003
WA,99320,Benton County,Benton City,,53005
WA,98801,Chelan County,Wenatchee,,53007
WA,98305,Clallam County,Beaver,,53009
WA,98601,Clark County,Amboy,,53011
WA,99328,Columbia County,Dayton,,53013
WA,98581,Cowlitz County,Ryderwood,,53015
WA,98802,Douglas County,East Wenatchee,,53017
WA,99107,Ferry County,Boyds,,53019
WA,99301,Franklin County,Pasco,,53021
WA,99347,Garfield County,Pomeroy,,53023
WA,98823,Grant County,Ephrata,,53025
WA,98520,Grays Harbor County,Aberdeen,,53027
WA,98236,Island County,Clinton,,53029
WA,98320,Jefferson County,Brinnon,,53031
WA,98001,King County,Auburn,,53033
WA,98061,Kitsap County,Rollingbay,,53035
WA,98068,Kittitas County,Snoqualmie Pass,,53037
WA,98602,Klickitat County,Appleton,,53039
WA,98336,Lewis County,Glenoma,,53041
WA,99008,Lincoln County,Edwall,,53043
WA,98524,Mason County,Allyn,,53045
WA,98812,Okanogan County,Brewster,,53047
WA,98527,Pacific County,Bay Center,,53049
WA,99119,Pend Oreille County,Cusick,,53051
WA,98303,Pierce County,Anderson Island,,53053
WA,98222,San Juan County,Blakely Island,,53055
WA,98221,Skagit County,Anacortes,,53057
WA,98610,Skamania County,Carson,,53059
WA,98012,Snohomish County,Bothell,,53061
WA,99001,Spokane County,Airway Heights,,53063
WA,99013,Stevens County,Ford,,53065
WA,98348,Thurston County,La Grande,,53067
WA,98612,Wahkiakum County,Cathlamet,,53069
WA,99323,Walla Walla County,Burbank,,53071
WA,98220,Whatcom County,Acme,,53073
WA,99017,Whitman County,Lamont,,53075
WA,98901,Yakima County,Yakima,,53077
WA,98082,,Mill Creek,,53061
WI,53910,Adams County,Adams,Northstar Sales Associates,55001
WI,54514,Ashland County,Butternut,Northstar Sales Associates,55003
WI,54728,Barron County,Chetek,Northstar Sales Associates,55005
WI,54814,Bayfield County,Bayfield,Northstar Sales Associates,55007
WI,54115,Brown County,De Pere,Northstar Sales Associates,55009
WI,54610,Buffalo County,Alma,Northstar Sales Associates,55011
WI,54830,Burnett County,Danbury,Northstar Sales Associates,55013
WI,53014,Calumet County,Chilton,Northstar Sales Associates,55015
WI,54724,Chippewa County,Bloomer,Northstar Sales Associates,55017
WI,54405,Clark County,Abbotsford,Northstar Sales Associates,55019
WI,53555,Columbia County,Lodi,Northstar Sales Associates,55021
WI,53821,Crawford County,Prairie Du Chien,Northstar Sales Associates,55023
WI,53508,Dane County,Belleville,Northstar Sales Associates,55025
WI,53003,Dodge County,Ashippun,Northstar Sales Associates,55027
WI,54202,Door County,Baileys Harbor,Northstar Sales Associates,55029
WI,54820,Douglas County,Brule,Northstar Sales Associates,55031
WI,54725,Dunn County,Boyceville,Northstar Sales Associates,55033
WI,54701,Eau Claire County,Eau Claire,Northstar Sales Associates,55035
WI,54120,Florence County,Fence,Northstar Sales Associates,55037
WI,53010,Fond du Lac County,Campbellsport,Northstar Sales Associates,55039
WI,54103,Forest County,Armstrong Creek,Northstar Sales Associates,55041
WI,53554,Grant County,Livingston,Northstar Sales Associates,55043
WI,53502,Green County,Albany,Northstar Sales Associates,55045
WI,53926,Green Lake County,Dalton,Northstar Sales Associates,55047
WI,53503,Iowa County,Arena,Northstar Sales Associates,55049
WI,54525,Iron County,Gile,Northstar Sales Associates,55051
WI,54611,Jackson County,Alma Center,Northstar Sales Associates,55053
WI,53036,Jefferson County,Ixonia,Northstar Sales Associates,55055
WI,53929,Juneau County,Elroy,Northstar Sales Associates,55057
WI,53101,Kenosha County,Bassett,Northstar Sales Associates,55059
WI,54201,Kewaunee County,Algoma,Northstar Sales Associates,55061
WI,54601,La Crosse County,La Crosse,Northstar Sales Associates,55063
WI,53504,Lafayette County,Argyle,Northstar Sales Associates,55065
WI,54409,Langlade County,Antigo,Northstar Sales Associates,55067
WI,54435,Lincoln County,Gleason,Northstar Sales Associates,55069
WI,53015,Manitowoc County,Cleveland,Northstar Sales Associates,55071
WI,54401,Marathon County,Wausau,Northstar Sales Associates,55073
WI,54102,Marinette County,Amberg,Northstar Sales Associates,55075
WI,53920,Marquette County,Briggsville,Northstar Sales Associates,55077
WI,54135,Menominee County,Keshena,Northstar Sales Associates,55078
WI,53110,Milwaukee County,Cudahy,Northstar Sales Associates,55079
WI,54619,Monroe County,Cashton,Northstar Sales Associates,55081
WI,54101,Oconto County,Abrams,Northstar Sales Associates,55083
WI,54463,Oneida County,Pelican Lake,Northstar Sales Associates,55085
WI,54106,Outagamie County,Black Creek,Northstar Sales Associates,55087
WI,53004,Ozaukee County,Belgium,Northstar Sales Associates,55089
WI,54721,Pepin County,Arkansaw,Northstar Sales Associates,55091
WI,54003,Pierce County,Beldenville,Northstar Sales Associates,55093
WI,54001,Polk County,Amery,Northstar Sales Associates,55095
WI,54406,Portage County,Amherst,Northstar Sales Associates,55097
WI,54459,Price County,Ogema,Northstar Sales Associates,55099
WI,53105,Racine County,Burlington,Northstar Sales Associates,55101
WI,53518,Richland County,Blue River,Northstar Sales Associates,55103
WI,53501,Rock County,Afton,Northstar Sales Associates,55105
WI,54526,Rusk County,Glen Flora,Northstar Sales Associates,55107
WI,53561,Sauk County,Merrimac,Northstar Sales Associates,55111
WI,54828,Sawyer County,Couderay,Northstar Sales Associates,55113
WI,54107,Shawano County,Bonduel,Northstar Sales Associates,55115
WI,53001,Sheboygan County,Adell,Northstar Sales Associates,55117
WI,54002,Saint Croix County,Baldwin,Northstar Sales Associates,55109
WI,54433,Taylor County,Gilman,Northstar Sales Associates,55119
WI,54612,Trempealeau County,Arcadia,Northstar Sales Associates,55121
WI,54621,Vernon County,Chaseburg,Northstar Sales Associates,55123
WI,54512,Vilas County,Boulder Junction,Northstar Sales Associates,55125
WI,53114,Walworth County,Darien,Northstar Sales Associates,55127
WI,54801,Washburn County,Spooner,Northstar Sales Associates,55129
WI,53002,Washington County,Allenton,Northstar Sales Associates,55131
WI,53005,Waukesha County,Brookfield,Northstar Sales Associates,55133
WI,54926,Waupaca County,Big Falls,Northstar Sales Associates,55135
WI,54930,Waushara County,Coloma,Northstar Sales Associates,55137
WI,54901,Winnebago County,Oshkosh,Northstar Sales Associates,55139
WI,54404,Wood County,Marshfield,Northstar Sales Associates,55141
WV,26238,Barbour County,Volga,Pro-Fit Sales Associates,54001
WV,25401,Berkeley County,Martinsburg,Pro-Fit Sales Associates,54003
WV,25009,Boone County,Ashford,Pro-Fit Sales Associates,54005
WV,25063,Braxton County,Duck,Pro-Fit Sales Associates,54007
WV,26030,Brooke County,Beech Bottom,Pro-Fit Sales Associates,54009
WV,25504,Cabell County,Barboursville,Engineered Systems,54011
WV,25234,Calhoun County,Arnoldsburg,Pro-Fit Sales Associates,54013
WV,25019,Clay County,Bickmore,Pro-Fit Sales Associates,54015
WV,26339,Doddridge County,Center Point,Pro-Fit Sales Associates,54017
WV,25002,Fayette County,Alloy,Pro-Fit Sales Associates,54019
WV,25267,Gilmer County,Normantown,Pro-Fit Sales Associates,54021
WV,26707,Grant County,Bayard,Pro-Fit Sales Associates,54023
WV,24901,Greenbrier County,Lewisburg,Pro-Fit Sales Associates,54025
WV,25431,Hampshire County,Levels,Pro-Fit Sales Associates,54027
WV,26034,Hancock County,Chester,Pro-Fit Sales Associates,54029
WV,26755,Hardy County,Rio,Pro-Fit Sales Associates,54031
WV,26301,Harrison County,Clarksburg,Pro-Fit Sales Associates,54033
WV,25231,Jackson County,Advent,Engineered Systems,54035
WV,25414,Jefferson County,Charles Town,Pro-Fit Sales Associates,54037
WV,25015,Kanawha County,Belle,Pro-Fit Sales Associates,54039
WV,26321,Lewis County,Alum Bridge,Pro-Fit Sales Associates,54041
WV,25003,Lincoln County,Alum Creek,Pro-Fit Sales Associates,54043
WV,25022,Logan County,Blair,Pro-Fit Sales Associates,54045
WV,26554,Marion County,Fairmont,Pro-Fit Sales Associates,54049
WV,26031,Marshall County,Benwood,Pro-Fit Sales Associates,54051
WV,25106,Mason County,Henderson,Engineered Systems,54053
WV,24801,McDowell County,Welch,Pro-Fit Sales Associates,54047
WV,24701,Mercer County,Bluefield,Pro-Fit Sales Associates,54055
WV,26710,Mineral County,Burlington,Pro-Fit Sales Associates,54057
WV,24846,Mingo County,Isaban,Engineered Systems,54059
WV,26501,Monongalia County,Morgantown,Pro-Fit Sales Associates,54061
WV,24918,Monroe County,Ballard,Pro-Fit Sales Associates,54063
WV,25411,Morgan County,Berkeley Springs,Pro-Fit Sales Associates,54065
WV,26202,Nicholas County,Fenwick,Pro-Fit Sales Associates,54067
WV,26003,Ohio County,Wheeling,Pro-Fit Sales Associates,54069
WV,26802,Pendleton County,Brandywine,Pro-Fit Sales Associates,54071
WV,26134,Pleasants County,Belmont,Engineered Systems,54073
WV,24915,Pocahontas County,Arbovale,Pro-Fit Sales Associates,54075
WV,26374,Preston County,Independence,Pro-Fit Sales Associates,54077
WV,25011,Putnam County,Bancroft,Pro-Fit Sales Associates,54079
WV,25007,Raleigh County,Arnett,Pro-Fit Sales Associates,54081
WV,26224,Randolph County,Helvetia,Pro-Fit Sales Associates,54083
WV,26148,Ritchie County,Macfarlan,Pro-Fit Sales Associates,54085
WV,25005,Roane County,Amma,Pro-Fit Sales Associates,54087
WV,24935,Summers County,Forest Hill,Pro-Fit Sales Associates,54089
WV,26347,Taylor County,Flemington,Pro-Fit Sales Associates,54091
WV,26260,Tucker County,Davis,Pro-Fit Sales Associates,54093
WV,26146,Tyler County,Friendly,Engineered Systems,54095
WV,26201,Upshur County,Buckhannon,Pro-Fit Sales Associates,54097
WV,25410,Washington County,Bakerton,Pro-Fit Sales Associates,54037
WV,25507,Wayne County,Ceredo,Engineered Systems,54099
WV,26203,Webster County,Erbacon,Pro-Fit Sales Associates,54101
WV,26155,Wetzel County,New Martinsville,Engineered Systems,54103
WV,26138,Wirt County,Brohard,Pro-Fit Sales Associates,54105
WV,26101,Wood County,Parkersburg,Engineered Systems,54107
WV,24716,Wyoming County,Bud,Pro-Fit Sales Associates,54109
WV,25888,,Mount Hope,Pro-Fit Sales Associates,54019
WY,82051,Albany County,Bosler,Palmer Marketing Inc,56001
WY,82410,Big Horn County,Basin,Palmer Marketing Inc,56003
WY,82716,Campbell County,Gillette,Palmer Marketing Inc,56005
WY,82301,Carbon County,Rawlins,Palmer Marketing Inc,56007
WY,82224,Converse County,Lost Springs,Palmer Marketing Inc,56009
WY,82710,Crook County,Aladdin,Palmer Marketing Inc,56011
WY,82310,Fremont County,Jeffrey City,Palmer Marketing Inc,56013
WY,82212,Goshen County,Fort Laramie,Palmer Marketing Inc,56015
WY,82430,Hot Springs County,Kirby,Palmer Marketing Inc,56017
WY,82639,Johnson County,Kaycee,Palmer Marketing Inc,56019
WY,82001,Laramie County,Cheyenne,Palmer Marketing Inc,56021
WY,83101,Lincoln County,Kemmerer,Palmer Marketing Inc,56023
WY,82601,Natrona County,Casper,Palmer Marketing Inc,56025
WY,82222,Niobrara County,Lance Creek,Palmer Marketing Inc,56027
WY,82190,Park County,Yellowstone National Park,Palmer Marketing Inc,56029
WY,82201,Platte County,Wheatland,Palmer Marketing Inc,56031
WY,82801,Sheridan County,Sheridan,Palmer Marketing Inc,56033
WY,82922,Sublette County,Bondurant,Palmer Marketing Inc,56035
WY,82322,Sweetwater County,Bairoil,Palmer Marketing Inc,56037
WY,83001,Teton County,Jackson,Palmer Marketing Inc,56039
WY,82930,Uinta County,Evanston,Palmer Marketing Inc,56041
WY,82401,Washakie County,Worland,Palmer Marketing Inc,56043
WY,82701,Weston County,Newcastle,Palmer Marketing Inc,56045
CA,*,Canada,*,Ecomaxx BP,
CB,*,Caribbean,*,Florida Building Envelope Associates,
